"","code","X","title","website","uni","country","city","lat","lon","xmin","ymin","xmax","ymax"
"1","4CITIES",1,"4CITIES - UNICA Euromaster in Urban Studies","http://www.4cities.eu/","Free University of Brussels","Belgium","Brussels",50.8503,"4.3517",-5.7038,3.6761,18.3738,52.8503
"2","4CITIES",310,"4CITIES - UNICA Euromaster in Urban Studies","http://www.4cities.eu/","University of Copenhagen","Denmark","Copenhagen",5.6761,"12.5683",-5.7038,3.6761,18.3738,52.8503
"3","4CITIES",104,"4CITIES - UNICA Euromaster in Urban Studies","http://www.4cities.eu/","Free University of Brussels","Belgium","Brussels",50.8503,"4.3517",-5.7038,3.6761,18.3738,52.8503
"4","4CITIES",516,"4CITIES - UNICA Euromaster in Urban Studies","http://www.4cities.eu/","Complutense University of Madrid","Spain","Madrid",40.4168,"-3.7038",-5.7038,3.6761,18.3738,52.8503
"5","4CITIES",207,"4CITIES - UNICA Euromaster in Urban Studies","http://www.4cities.eu/","University of Vienna","Austria","Vienna",48.2082,"16.3738",-5.7038,3.6761,18.3738,52.8503
"6","4CITIES",413,"4CITIES - UNICA Euromaster in Urban Studies","http://www.4cities.eu/","Autonomous University of Madrid","Spain","Madrid",40.4168,"-3.7038",-5.7038,3.6761,18.3738,52.8503
"7","ACES",105,"ACES - Joint Masters Degree in Aquaculture, Environment and Society","http://www.sams.ac.uk/aces-erasmus","University of Crete","Greece","Heraklion",35.3387,"25.1442",-7.471,33.3387,27.1442,58.4152
"8","ACES",208,"ACES - Joint Masters Degree in Aquaculture, Environment and Society","http://www.sams.ac.uk/aces-erasmus","University of Nantes","France","Nantes",47.2184,"-1.5536",-7.471,33.3387,27.1442,58.4152
"9","ACES",2,"ACES - Joint Masters Degree in Aquaculture, Environment and Society","http://www.sams.ac.uk/aces-erasmus","University of the Highlands and Islands","UK","Oban",56.4152,"-5.471",-7.471,33.3387,27.1442,58.4152
"10","ADVANCES",106,"ADVANCES - MA Advanced Development in Social Work","http://www.socialworkadvances.org/","Aalborg University","Denmark","Aalborg",57.0488,"9.9217",-11.1393,36.7223,23.0122,59.0488
"11","ADVANCES",209,"ADVANCES - MA Advanced Development in Social Work","http://www.socialworkadvances.org/","University of Lisbon","Portugal","Lisbon",38.7223,"-9.1393",-11.1393,36.7223,23.0122,59.0488
"12","ADVANCES",415,"ADVANCES - MA Advanced Development in Social Work","http://www.socialworkadvances.org/","Warsaw University","Poland","Warsaw",52.2297,"21.0122",-11.1393,36.7223,23.0122,59.0488
"13","ADVANCES",3,"ADVANCES - MA Advanced Development in Social Work","http://www.socialworkadvances.org/","University of Lincoln","UK","Lincoln",53.2307,"-0.5406",-11.1393,36.7223,23.0122,59.0488
"14","ADVANCES",312,"ADVANCES - MA Advanced Development in Social Work","http://www.socialworkadvances.org/","Université Paris Ouest Nanterre La Défense","France","Paris",48.8566,"2.3522",-11.1393,36.7223,23.0122,59.0488
"15","AMASE",313,"AMASE - Joint European Master Programme on Advanced Materials Science and Engineering","http://www.amase-master.net/","Polytechnic University of Catalonia - BarcelonaTech","Spain","Barcelona",41.3851,"2.1734",0.1734,39.3851,24.1567,67.5848
"16","AMASE",210,"AMASE - Joint European Master Programme on Advanced Materials Science and Engineering","http://www.amase-master.net/","University of Lorraine","France","Nancy",48.6921,"6.1844",0.1734,39.3851,24.1567,67.5848
"17","AMASE",4,"AMASE - Joint European Master Programme on Advanced Materials Science and Engineering","http://www.amase-master.net/","Saarland University","Germany","Saarbrücken",49.2402,"6.9969",0.1734,39.3851,24.1567,67.5848
"18","AMASE",107,"AMASE - Joint European Master Programme on Advanced Materials Science and Engineering","http://www.amase-master.net/","Lulea Technology University","Sweden","Lulea",65.5848,"22.1567",0.1734,39.3851,24.1567,67.5848
"19","ARCHMAT",211,"ARCHMAT - European Master in ARCHaeological MATerials Science","http://www.erasmusmundus-archmat.uevora.pt/","Aristotle University of Thessaloniki","Greece","Thessaloniki",40.6401,"22.9444",-9.9093,36.5707,24.9444,43.9028
"20","ARCHMAT",108,"ARCHMAT - European Master in ARCHaeological MATerials Science","http://www.erasmusmundus-archmat.uevora.pt/","Sapienza University","Italy","Rome",41.9028,"12.4964",-9.9093,36.5707,24.9444,43.9028
"21","ARCHMAT",5,"ARCHMAT - European Master in ARCHaeological MATerials Science","http://www.erasmusmundus-archmat.uevora.pt/","University of Evora","Portugal","Evora",38.5707,"-7.9093",-9.9093,36.5707,24.9444,43.9028
"22","ASC",6,"ASC - Advanced Spectroscopy in Chemistry Master's Course","http://www.master-asc.org/","University of Bologna","Italy","Bologna",44.4949,"11.3426",1.0573,42.4949,26.9384,62.1699
"23","ASC",315,"ASC - Advanced Spectroscopy in Chemistry Master's Course","http://www.master-asc.org/","University Leipzig","Germany","Leipzig",51.3397,"12.3731",1.0573,42.4949,26.9384,62.1699
"24","ASC",212,"ASC - Advanced Spectroscopy in Chemistry Master's Course","http://www.master-asc.org/","Jagiellonian University","Poland","Krakow",50.0647,"19.945",1.0573,42.4949,26.9384,62.1699
"25","ASC",109,"ASC - Advanced Spectroscopy in Chemistry Master's Course","http://www.master-asc.org/","University of Helsinki","Finland","Helsinki",60.1699,"24.9384",1.0573,42.4949,26.9384,62.1699
"26","ASC",418,"ASC - Advanced Spectroscopy in Chemistry Master's Course","http://www.master-asc.org/","Lille1 University","France","Lille",50.6292,"3.0573",1.0573,42.4949,26.9384,62.1699
"27","ASTROMUNDUS",7,"ASTROMUNDUS - Astrophysics","http://www.astromundus.eu/","University of Innsbruck","Austria","Innsbruck",47.2692,"1.4041",-0.5959,39.9028,22.4489,53.5413
"28","ASTROMUNDUS",110,"ASTROMUNDUS - Astrophysics","http://www.astromundus.eu/","University of Belgrade","Serbia","Belgrade",44.7866,"20.4489",-0.5959,39.9028,22.4489,53.5413
"29","ASTROMUNDUS",213,"ASTROMUNDUS - Astrophysics","http://www.astromundus.eu/","University of Göttingen","Germany","Göttingen",51.5413,"9.9158",-0.5959,39.9028,22.4489,53.5413
"30","ASTROMUNDUS",419,"ASTROMUNDUS - Astrophysics","http://www.astromundus.eu/","University of Rome Tor Vergata","Italy","Rome",41.9028,"12.4964",-0.5959,39.9028,22.4489,53.5413
"31","ASTROMUNDUS",316,"ASTROMUNDUS - Astrophysics","http://www.astromundus.eu/","University of Padova","Italy","Padova",45.4064,"11.8768",-0.5959,39.9028,22.4489,53.5413
"32","ATOSIM",8,"ATOSIM - Atomic Scale Modelling of Physical, Chemical and Bio-molecular Systems","http://www.erasmusmundus-atosim.cecam.org/","University of Lyon","France","Lyon",45.764,"4.8357",2.8357,39.9028,14.4964,54.3702
"33","ATOSIM",317,"ATOSIM - Atomic Scale Modelling of Physical, Chemical and Bio-molecular Systems","http://www.erasmusmundus-atosim.cecam.org/","Sapienza University","Italy","Rome",41.9028,"12.4964",2.8357,39.9028,14.4964,54.3702
"34","ATOSIM",111,"ATOSIM - Atomic Scale Modelling of Physical, Chemical and Bio-molecular Systems","http://www.erasmusmundus-atosim.cecam.org/","University of Amsterdam","Netherlands","Amsterdam",52.3702,"4.8952",2.8357,39.9028,14.4964,54.3702
"35","ATOSIM",214,"ATOSIM - Atomic Scale Modelling of Physical, Chemical and Bio-molecular Systems","http://www.erasmusmundus-atosim.cecam.org/","Free University of Amsterdam","Netherlands","Amsterdam",52.3702,"4.8952",2.8357,39.9028,14.4964,54.3702
"36","BIFTEC",215,"BIFTEC - European Master of Science in Food Science, Technology and Business","http://www.fet.kuleuven.be/biftec","Anhalt University of Applied Sciences","Germany","Bernburg",51.7834,"11.7537",-10.6291,39.1579,13.7537,53.7834
"37","BIFTEC",9,"BIFTEC - European Master of Science in Food Science, Technology and Business","http://www.fet.kuleuven.be/biftec","University of Leuven","Belgium","Ghent",51.0543,"3.7174",-10.6291,39.1579,13.7537,53.7834
"38","BIFTEC",112,"BIFTEC - European Master of Science in Food Science, Technology and Business","http://www.fet.kuleuven.be/biftec","Catholic University of Portugal","Portugal","Porto",41.1579,"-8.6291",-10.6291,39.1579,13.7537,53.7834
"39","CARTO",10,"CARTO E+ JMD Cartography","http://www.cartographymaster.eu/","Technical University of Munich","Germany","Munich",48.1351,"11.582",4.8937,46.1351,18.3738,54.2215
"40","CARTO",319,"CARTO E+ JMD Cartography","http://www.cartographymaster.eu/","University of Twente","Netherlands","Enschede",52.2215,"6.8937",4.8937,46.1351,18.3738,54.2215
"41","CARTO",216,"CARTO E+ JMD Cartography","http://www.cartographymaster.eu/","Dresden University of Technology","Germany","Dresden",51.0504,"13.7373",4.8937,46.1351,18.3738,54.2215
"42","CARTO",113,"CARTO E+ JMD Cartography","http://www.cartographymaster.eu/","Vienna University of Technology","Austria","Vienna",48.2082,"16.3738",4.8937,46.1351,18.3738,54.2215
"43","ChIR",114,"ChIR - Erasmus Mundus Master in Chemical Innovation and Regulation","http://www.emmcchir.org/","University of Barcelona","Spain","Barcelona",41.3851,"2.1734",-9.9304,35.0194,13.3426,57.9533
"44","ChIR",11,"ChIR - Erasmus Mundus Master in Chemical Innovation and Regulation","http://www.emmcchir.org/","University of Algarve","Portugal","Faro",37.0194,"-7.9304",-9.9304,35.0194,13.3426,57.9533
"45","ChIR",217,"ChIR - Erasmus Mundus Master in Chemical Innovation and Regulation","http://www.emmcchir.org/","University of Bologna","Italy","Bologna",44.4949,"11.3426",-9.9304,35.0194,13.3426,57.9533
"46","ChIR",320,"ChIR - Erasmus Mundus Master in Chemical Innovation and Regulation","http://www.emmcchir.org/","Heriot Watt University","UK","Edinburgh",55.9533,"-3.1883",-9.9304,35.0194,13.3426,57.9533
"47","CHOREOMUNDUS",321,"CHOREOMUNDUS - International Master in Dance Knowledge, Practice and Heritage","http://www.choreomundus.org/","Scientific University of Szeged","Hungary","Szeged",46.253,"20.1414",-2.1278,43.7772,22.1414,65.4305
"48","CHOREOMUNDUS",115,"CHOREOMUNDUS - International Master in Dance Knowledge, Practice and Heritage","http://www.choreomundus.org/","Blaise Pascal University","France","Clermont-Ferrand",45.7772,"3.087",-2.1278,43.7772,22.1414,65.4305
"49","CHOREOMUNDUS",12,"CHOREOMUNDUS - International Master in Dance Knowledge, Practice and Heritage","http://www.choreomundus.org/","Norwegian University of Science and Technology","Norway","Trondheim",63.4305,"10.3951",-2.1278,43.7772,22.1414,65.4305
"50","CHOREOMUNDUS",218,"CHOREOMUNDUS - International Master in Dance Knowledge, Practice and Heritage","http://www.choreomundus.org/","University of Roehampton London","UK","London",51.5074,"-0.1278",-2.1278,43.7772,22.1414,65.4305
"51","CLE",13,"CLE - Master Erasmus Mundus en  en Cultures Littéraires Européennes","http://www.cle.unibo.it/site/","University of Bologna","Italy","Bologna",44.4949,"11.3426",-19.366,12.7645,24.9444,50.5734
"52","CLE",322,"CLE - Master Erasmus Mundus en  en Cultures Littéraires Européennes","http://www.cle.unibo.it/site/","Aristotle University of Thessaloniki","Greece","Thessaloniki",40.6401,"22.9444",-19.366,12.7645,24.9444,50.5734
"53","CLE",425,"CLE - Master Erasmus Mundus en  en Cultures Littéraires Européennes","http://www.cle.unibo.it/site/","Cheikh Anta Diop University","Senegal","Dakar",14.7645,"-17.366",-19.366,12.7645,24.9444,50.5734
"54","CLE",116,"CLE - Master Erasmus Mundus en  en Cultures Littéraires Européennes","http://www.cle.unibo.it/site/","University of Upper Alsace","France","Mulhouse",47.7508,"7.3359",-19.366,12.7645,24.9444,50.5734
"55","CLE",219,"CLE - Master Erasmus Mundus en  en Cultures Littéraires Européennes","http://www.cle.unibo.it/site/","University of Strasbourg","France","Strasbourg",48.5734,"7.7521",-19.366,12.7645,24.9444,50.5734
"56","CoDe",14,"CoDe - Joint European Master in Comparative Local Development","http://www.erasmusmundus-code.eu/","Corvinus University of Budapest","Hungary","Budapest",47.4979,"19.0402",9.1217,44.0569,21.0402,51.0134
"57","CoDe",220,"CoDe - Joint European Master in Comparative Local Development","http://www.erasmusmundus-code.eu/","University of Ljubljana","Slovenia","Ljubljana",46.0569,"14.5058",9.1217,44.0569,21.0402,51.0134
"58","CoDe",323,"CoDe - Joint European Master in Comparative Local Development","http://www.erasmusmundus-code.eu/","University of Regensburg","Germany","Regensburg",49.0134,"12.1016",9.1217,44.0569,21.0402,51.0134
"59","CoDe",117,"CoDe - Joint European Master in Comparative Local Development","http://www.erasmusmundus-code.eu/","University of Trento","Italy","Trento",46.0748,"11.1217",9.1217,44.0569,21.0402,51.0134
"60","CoMEM",427,"CoMEM - Erasmus Mundus MSC Coastal and Marine Engineering and Management","http://www.ntnu.edu/studies/mscomem","University of Southampton","UK","Southampton",50.9097,"-1.4044",-3.4044,39.3851,12.3951,65.4305
"61","CoMEM",324,"CoMEM - Erasmus Mundus MSC Coastal and Marine Engineering and Management","http://www.ntnu.edu/studies/mscomem","City University, London","UK","London",51.5074,"-0.1278",-3.4044,39.3851,12.3951,65.4305
"62","CoMEM",118,"CoMEM - Erasmus Mundus MSC Coastal and Marine Engineering and Management","http://www.ntnu.edu/studies/mscomem","Technical University of Catalonia Barcelona Tech","Spain","Barcelona",41.3851,"2.1734",-3.4044,39.3851,12.3951,65.4305
"63","CoMEM",15,"CoMEM - Erasmus Mundus MSC Coastal and Marine Engineering and Management","http://www.ntnu.edu/studies/mscomem","Norwegian University of Science and Technology","Norway","Trondheim",63.4305,"10.3951",-3.4044,39.3851,12.3951,65.4305
"64","CoMEM",221,"CoMEM - Erasmus Mundus MSC Coastal and Marine Engineering and Management","http://www.ntnu.edu/studies/mscomem","Delft University of Technology","Netherlands","Delft",52.0116,"4.3571",-3.4044,39.3851,12.3951,65.4305
"65","COSI",16,"COSI Colour in Science and Industry","http://www.master-colorscience.eu/","University Jean Monnet","France","Saint-Etienne",45.4397,"4.3872",-5.5986,35.1773,31.7636,64.601
"66","COSI",325,"COSI Colour in Science and Industry","http://www.master-colorscience.eu/","Gjovik University College","Norway","Gjovik",60.7954,"0.6916",-5.5986,35.1773,31.7636,64.601
"67","COSI",119,"COSI Colour in Science and Industry","http://www.master-colorscience.eu/","University of Granada","Spain","Granada",37.1773,"-3.5986",-5.5986,35.1773,31.7636,64.601
"68","COSI",222,"COSI Colour in Science and Industry","http://www.master-colorscience.eu/","University of Eastern Finland","Finland","Joensuu",62.601,"29.7636",-5.5986,35.1773,31.7636,64.601
"69","CWCN",223,"CWCN - Crossways in Cultural Narratives","http://www.munduscrossways.eu/","University of Perpignan Via Domita","France","Perpignan",42.6887,"2.8948",-11.1393,36.7223,18.9252,58.3398
"70","CWCN",17,"CWCN - Crossways in Cultural Narratives","http://www.munduscrossways.eu/","University of Bergamo","Italy","Bergamo",45.6983,"9.6773",-11.1393,36.7223,18.9252,58.3398
"71","CWCN",326,"CWCN - Crossways in Cultural Narratives","http://www.munduscrossways.eu/","University of St. Andrews","UK","St. Andrews",56.3398,"-2.7967",-11.1393,36.7223,18.9252,58.3398
"72","CWCN",120,"CWCN - Crossways in Cultural Narratives","http://www.munduscrossways.eu/","New University of Lisbon","Portugal","Lisbon",38.7223,"-9.1393",-11.1393,36.7223,18.9252,58.3398
"73","CWCN",532,"CWCN - Crossways in Cultural Narratives","http://www.munduscrossways.eu/","University of Sheffield","UK","Sheffield",53.3811,"-1.4701",-11.1393,36.7223,18.9252,58.3398
"74","CWCN",429,"CWCN - Crossways in Cultural Narratives","http://www.munduscrossways.eu/","University of Santiago de Compostela","Spain","Santiago de Compostela",42.8782,"-8.5448",-11.1393,36.7223,18.9252,58.3398
"75","CWCN",738,"CWCN - Crossways in Cultural Narratives","http://www.munduscrossways.eu/","University of Guelph","Canada","Guelph",43.5448,"8-0.2482",-11.1393,36.7223,18.9252,58.3398
"76","CWCN",635,"CWCN - Crossways in Cultural Narratives","http://www.munduscrossways.eu/","Adam Mickiewicz University Poznań","Poland","Poznań",52.4064,"16.9252",-11.1393,36.7223,18.9252,58.3398
"77","DCLead",121,"DCLead - Msc Digital Communication Leadership","http://www.dclead.eu/","Aalborg University","Denmark","Aalborg",57.0488,"9.9217",2.3517,45.8095,15.055,59.0488
"78","DCLead",224,"DCLead - Msc Digital Communication Leadership","http://www.dclead.eu/","Free University of Brussel","Belgium","Brussels",50.8503,"4.3517",2.3517,45.8095,15.055,59.0488
"79","DCLead",18,"DCLead - Msc Digital Communication Leadership","http://www.dclead.eu/","University of Salzburg","Austria","Salzburg",47.8095,"13.055",2.3517,45.8095,15.055,59.0488
"80","DESEM",122,"DESEM - Erasmus Mundus MSc in Dependable Software Systems","http://www.cs.nuim.ie/courses/desem/","University of St. Andrews","UK","St. Andrews",56.3398,"-2.7967",-8.5918,46.6921,8.1844,58.3398
"81","DESEM",225,"DESEM - Erasmus Mundus MSc in Dependable Software Systems","http://www.cs.nuim.ie/courses/desem/","University of Lorraine","France","Nancy",48.6921,"6.1844",-8.5918,46.6921,8.1844,58.3398
"82","DESEM",19,"DESEM - Erasmus Mundus MSc in Dependable Software Systems","http://www.cs.nuim.ie/courses/desem/","National University of Ireland Maynooth","Ireland","Maynooth",53.3813,"-6.5918",-8.5918,46.6921,8.1844,58.3398
"83","Dyclam",329,"Dyclam - Dynamics of cultural landscapes and heritage management","http://www.dyclam.eu/fr/","University of Stuttgart","Germany","Stuttgart",48.7758,"9.1829",-10.4043,37.6052,16.2681,50.8566
"84","Dyclam",432,"Dyclam - Dynamics of cultural landscapes and heritage management","http://www.dyclam.eu/fr/","National Museum of Natural History","France","Paris",48.8566,"2.3522",-10.4043,37.6052,16.2681,50.8566
"85","Dyclam",20,"Dyclam - Dynamics of cultural landscapes and heritage management","http://www.dyclam.eu/fr/","University Jean Monnet","France","Saint-Etienne",45.4397,"4.3872",-10.4043,37.6052,16.2681,50.8566
"86","Dyclam",123,"Dyclam - Dynamics of cultural landscapes and heritage management","http://www.dyclam.eu/fr/","Polytechnic Institute of Tomar","Portugal","Tomar",39.6052,"-8.4043",-10.4043,37.6052,16.2681,50.8566
"87","Dyclam",226,"Dyclam - Dynamics of cultural landscapes and heritage management","http://www.dyclam.eu/fr/","University of Naples Federico II","Italy","Napoli",40.8518,"14.2681",-10.4043,37.6052,16.2681,50.8566
"88","EACH",124,"EACH - Excellence in Analytical Chemistry","http://www.analyticalchemistry.eu/","University Claude Bernard Lyon 1","France","Lyon",45.764,"4.8357",2.8357,43.764,24.2666,62.4518
"89","EACH",330,"EACH - Excellence in Analytical Chemistry","http://www.analyticalchemistry.eu/","Abo Akademi University","Finland","Turku",60.4518,"22.2666",2.8357,43.764,24.2666,62.4518
"90","EACH",21,"EACH - Excellence in Analytical Chemistry","http://www.analyticalchemistry.eu/","University of Tartu","Estonia","Tartu",58.3776,"6.729",2.8357,43.764,24.2666,62.4518
"91","EACH",227,"EACH - Excellence in Analytical Chemistry","http://www.analyticalchemistry.eu/","Uppsala University","Sweden","Uppsala",59.8586,"17.6389",2.8357,43.764,24.2666,62.4518
"92","EDAMUS",125,"EDAMUS - Sustainable Management of Food Quality","http://www.master-edamus.eu/","University of Basilicata","Italy","Potenza",40.6464,"15.8055",-2.8897,33.5138,26.018,45.6108
"93","EDAMUS",434,"EDAMUS - Sustainable Management of Food Quality","http://www.master-edamus.eu/","The Mediterranean Agronomic Institute of Chania","Greece","Chania",35.5138,"24.018",-2.8897,33.5138,26.018,45.6108
"94","EDAMUS",228,"EDAMUS - Sustainable Management of Food Quality","http://www.master-edamus.eu/","University of Mentouri (Constantine 1)","Algiers","Constantine",36.3602,"6.6424",-2.8897,33.5138,26.018,45.6108
"95","EDAMUS",22,"EDAMUS - Sustainable Management of Food Quality","http://www.master-edamus.eu/","University of Montpellier","France","Montpellier",43.6108,"3.8767",-2.8897,33.5138,26.018,45.6108
"96","EDAMUS",331,"EDAMUS - Sustainable Management of Food Quality","http://www.master-edamus.eu/","The Mediterranean Agronomic Institute of Zaragoza","Spain","Zaragoza",41.6489,"-0.8897",-2.8897,33.5138,26.018,45.6108
"97","EM HRPP",23,"EM HRPP - Erasmus Mundus Masters in Human Rights Policy and Practice","http://ws1.roehampton.ac.uk/admissions/erasmusmundus/hrp/index.html","Roehampton University","UK","London",51.5074,"-0.1278",-4.935,41.263,13.9746,59.7089
"98","EM HRPP",126,"EM HRPP - Erasmus Mundus Masters in Human Rights Policy and Practice","http://ws1.roehampton.ac.uk/admissions/erasmusmundus/hrp/index.html","University of Gothenburg","Sweden","Gothenburg",57.7089,"11.9746",-4.935,41.263,13.9746,59.7089
"99","EM HRPP",229,"EM HRPP - Erasmus Mundus Masters in Human Rights Policy and Practice","http://ws1.roehampton.ac.uk/admissions/erasmusmundus/hrp/index.html","University of Deusto","Spain","Bilbao",43.263,"-2.935",-4.935,41.263,13.9746,59.7089
"100","EM-SANF",138,"EM-SANF - Erasmus Mundus Master Course Sustainable Animal Nutrition and Feeding","http://www.emsanf.eu/UK/","Aarhus University","Denmark","Aarhus",56.1629,"10.2039",-0.5558,41.6047,23.6273,58.1629
"101","EM-SANF",344,"EM-SANF - Erasmus Mundus Master Course Sustainable Animal Nutrition and Feeding","http://www.emsanf.eu/UK/","Wageningen University","Netherlands","Wageningen",51.9692,"5.6654",-0.5558,41.6047,23.6273,58.1629
"102","EM-SANF",35,"EM-SANF - Erasmus Mundus Master Course Sustainable Animal Nutrition and Feeding","http://www.emsanf.eu/UK/","Purpan Engineering School","France","Toulouse",43.6047,"1.4442",-0.5558,41.6047,23.6273,58.1629
"103","EM-SANF",241,"EM-SANF - Erasmus Mundus Master Course Sustainable Animal Nutrition and Feeding","http://www.emsanf.eu/UK/","University of Debrecen","Hungary","Debrecen",47.5316,"21.6273",-0.5558,41.6047,23.6273,58.1629
"104","EMARO+",24,"EMARO+ - European Master on Advanced Robotics +","http://emaro.irccyn.ec-nantes.fr/","ƒcole centrale de Nantes","France","Nantes",47.2184,"-1.5536",-3.5536,37.9864,23.0122,54.2297
"105","EMARO+",333,"EMARO+ - European Master on Advanced Robotics +","http://emaro.irccyn.ec-nantes.fr/","Jaume I University","Spain","Castellón de la Plana",39.9864,"-0.0513",-3.5536,37.9864,23.0122,54.2297
"106","EMARO+",127,"EMARO+ - European Master on Advanced Robotics +","http://emaro.irccyn.ec-nantes.fr/","Warsaw University of Technology","Poland","Warsaw",52.2297,"21.0122",-3.5536,37.9864,23.0122,54.2297
"107","EMARO+",230,"EMARO+ - European Master on Advanced Robotics +","http://emaro.irccyn.ec-nantes.fr/","University of Genova","Italy","Genova",44.4056,"8.9463",-3.5536,37.9864,23.0122,54.2297
"108","EMECC NURSING",25,"EMECC NURSING - Emergency and Critical Care Nursing","http://masternursing.uniovi.es/","University of Oviedo","Spain","Oviedo",43.3619,"-5.8494",-10.686,35.0194,26.9384,62.1699
"109","EMECC NURSING",128,"EMECC NURSING - Emergency and Critical Care Nursing","http://masternursing.uniovi.es/","University of Algarve","Portugal","Faro",37.0194,"-7.9304",-10.686,35.0194,26.9384,62.1699
"110","EMECC NURSING",231,"EMECC NURSING - Emergency and Critical Care Nursing","http://masternursing.uniovi.es/","Polytechnic Institute of Santarém","Portugal","Santarém",39.2367,"-8.686",-10.686,35.0194,26.9384,62.1699
"111","EMECC NURSING",334,"EMECC NURSING - Emergency and Critical Care Nursing","http://masternursing.uniovi.es/","Helsinki Metropolia University of Applied Sciences","Finland","Helsinki",60.1699,"24.9384",-10.686,35.0194,26.9384,62.1699
"112","EMECS",26,"EMECS - European Masters programme in Embedded Computing Systems","http://www.emecs.eu/","University of Kaiserslautern","Germany","Kaiserslautern",49.4401,"7.7491",-3.4044,47.4401,12.3951,65.4305
"113","EMECS",232,"EMECS - European Masters programme in Embedded Computing Systems","http://www.emecs.eu/","University of Southampton","UK","Southampton",50.9097,"-1.4044",-3.4044,47.4401,12.3951,65.4305
"114","EMECS",129,"EMECS - European Masters programme in Embedded Computing Systems","http://www.emecs.eu/","Norwegian University of Science and Technology","Norway","Trondheim",63.4305,"10.3951",-3.4044,47.4401,12.3951,65.4305
"115","EMERALD",27,"EMERALD - Master Course in Georesources Engineering","http://em-georesources.eu/","University of Liège","Belgium","Liège",50.5831,"5.5591",3.5591,46.6921,24.1567,67.5848
"116","EMERALD",233,"EMERALD - Master Course in Georesources Engineering","http://em-georesources.eu/","Lulea University of Technology","Sweden","Lulea",65.5848,"22.1567",3.5591,46.6921,24.1567,67.5848
"117","EMERALD",130,"EMERALD - Master Course in Georesources Engineering","http://em-georesources.eu/","University of Lorraine","France","Nancy",48.6921,"6.1844",3.5591,46.6921,24.1567,67.5848
"118","EMERALD",336,"EMERALD - Master Course in Georesources Engineering","http://em-georesources.eu/","Freiberg University of Mining and Technology","Germany","Freiberg",50.9128,"13.3417",3.5591,46.6921,24.1567,67.5848
"119","EMGS",28,"EMGS - Global Studies - A European Perspective","http://www.globalstudies-masters.info/","London School of Economics and Political Sciences","UK","London",51.5074,"-0.1278",-2.1278,46.2082,19.0385,57.6419
"120","EMGS",131,"EMGS - Global Studies - A European Perspective","http://www.globalstudies-masters.info/","Roskilde University","Denmark","Roskilde",55.6419,"12.0878",-2.1278,46.2082,19.0385,57.6419
"121","EMGS",440,"EMGS - Global Studies - A European Perspective","http://www.globalstudies-masters.info/","University of Wroclaw","Poland","Wroclaw",51.1079,"17.0385",-2.1278,46.2082,19.0385,57.6419
"122","EMGS",337,"EMGS - Global Studies - A European Perspective","http://www.globalstudies-masters.info/","University of Vienna","Austria","Vienna",48.2082,"16.3738",-2.1278,46.2082,19.0385,57.6419
"123","EMGS",234,"EMGS - Global Studies - A European Perspective","http://www.globalstudies-masters.info/","University of Leipzig","Germany","Leipzig",51.3397,"12.3731",-2.1278,46.2082,19.0385,57.6419
"124","EMLE",132,"EMLE - European Master in Law and Economics","http://www.emle.org/","Aix-Marseille University","France","Aix-en-Provence",43.5297,"5.4474",1.7174,17.076,74.8777,55.5511
"125","EMLE",338,"EMLE - European Master in Law and Economics","http://www.emle.org/","University of Ghent","Belgium","Ghent",51.0543,"3.7174",1.7174,17.076,74.8777,55.5511
"126","EMLE",544,"EMLE - European Master in Law and Economics","http://www.emle.org/","University of Hamburg","Germany","Hamburg",53.5511,"9.9937",1.7174,17.076,74.8777,55.5511
"127","EMLE",235,"EMLE - European Master in Law and Economics","http://www.emle.org/","University of Bologna","Italy","Bologna",44.4949,"11.3426",1.7174,17.076,74.8777,55.5511
"128","EMLE",750,"EMLE - European Master in Law and Economics","http://www.emle.org/","University of Vienna","Austria","Vienna",48.2082,"16.3738",1.7174,17.076,74.8777,55.5511
"129","EMLE",853,"EMLE - European Master in Law and Economics","http://www.emle.org/","Warsaw School of Economics","Poland","Warsaw",52.2297,"21.0122",1.7174,17.076,74.8777,55.5511
"130","EMLE",647,"EMLE - European Master in Law and Economics","http://www.emle.org/","Indira Gandhi Institute of Development Research","India","Mumbai",19.076,"72.8777",1.7174,17.076,74.8777,55.5511
"131","EMLE",29,"EMLE - European Master in Law and Economics","http://www.emle.org/","Erasmus University Rotterdam","Netherlands","Rotterdam",51.9244,"4.4777",1.7174,17.076,74.8777,55.5511
"132","EMLE",441,"EMLE - European Master in Law and Economics","http://www.emle.org/","University of Haifa","Israel","Haifa",32.794,"34.9896",1.7174,17.076,74.8777,55.5511
"133","EMLex ",339,"EMLex - Europäischer Master für Lexikographie / European Master in Lexicography","http://www.emlex.phil.uni-erlangen.de/","University of Minho","Portugal","Braga",41.5455,"-8.4265",-10.5448,-35.9321,21.0402,54.1548
"134","EMLex ",545,"EMLex - Europäischer Master für Lexikographie / European Master in Lexicography","http://www.emlex.phil.uni-erlangen.de/","University of Santiago de Compostela","Spain","Santiago de Compostela",42.8782,"-8.5448",-10.5448,-35.9321,21.0402,54.1548
"135","EMLex ",236,"EMLex - Europäischer Master für Lexikographie / European Master in Lexicography","http://www.emlex.phil.uni-erlangen.de/","University of Lorraine","France","Nancy",48.6921,"6.1844",-10.5448,-35.9321,21.0402,54.1548
"136","EMLex ",133,"EMLex - Europäischer Master für Lexikographie / European Master in Lexicography","http://www.emlex.phil.uni-erlangen.de/","University of Silesia in Katowice","Poland","Katowice",50.2649,"19.0238",-10.5448,-35.9321,21.0402,54.1548
"137","EMLex ",648,"EMLex - Europäischer Master für Lexikographie / European Master in Lexicography","http://www.emlex.phil.uni-erlangen.de/","Stellenbosch University","South Africa","Stellenbosch",-33.9321,"18.8602",-10.5448,-35.9321,21.0402,54.1548
"138","EMLex ",751,"EMLex - Europäischer Master für Lexikographie / European Master in Lexicography","http://www.emlex.phil.uni-erlangen.de/","University of Hildesheim","Germany","Hildesheim",52.1548,"9.958",-10.5448,-35.9321,21.0402,54.1548
"139","EMLex ",30,"EMLex - Europäischer Master für Lexikographie / European Master in Lexicography","http://www.emlex.phil.uni-erlangen.de/","Karoli Gaspar University of the Reformed Church in Hungary","Hungary","Budapest",47.4979,"19.0402",-10.5448,-35.9321,21.0402,54.1548
"140","EMLex ",442,"EMLex - Europäischer Master für Lexikographie / European Master in Lexicography","http://www.emlex.phil.uni-erlangen.de/","Roma Tre University","Italy","Rome",41.9028,"12.4964",-10.5448,-35.9321,21.0402,54.1548
"141","EMLex ",854,"EMLex - Europäischer Master für Lexikographie / European Master in Lexicography","http://www.emlex.phil.uni-erlangen.de/","Institute of German Language","Germany","Mannheim",49.4875,"8.466",-10.5448,-35.9321,21.0402,54.1548
"142","EMM-Nano",341,"EMM-Nano - Erasmus Mundus Master in Nanoscience and Nanotechnology","http://www.emm-nano.org/","Dresden University of Technology","Germany","Dresden",51.0504,"13.7373",2.7005,43.1885,15.7373,59.7089
"143","EMM-Nano",32,"EMM-Nano - Erasmus Mundus Master in Nanoscience and Nanotechnology","http://www.emm-nano.org/","Catholic University of Leuven","Belgium","Leuven",50.8798,"4.7005",2.7005,43.1885,15.7373,59.7089
"144","EMM-Nano",238,"EMM-Nano - Erasmus Mundus Master in Nanoscience and Nanotechnology","http://www.emm-nano.org/","University Joseph Fourier","France","Grenoble",45.1885,"5.7245",2.7005,43.1885,15.7373,59.7089
"145","EMM-Nano",135,"EMM-Nano - Erasmus Mundus Master in Nanoscience and Nanotechnology","http://www.emm-nano.org/","Chalmers University of Technology","Sweden","Gothenburg",57.7089,"11.9746",2.7005,43.1885,15.7373,59.7089
"146","EMMCMSP",237,"EMMCMSP - Erasmus Mundus Master Course on Maritime Spatial Planning","http://www.iuav.it/Didattica1/master/master---I1/Erasmus-Mu/","University of Seville","Spain","Seville",37.3891,"-5.9845",-27.6806,35.3891,14.3155,47.4408
"147","EMMCMSP",31,"EMMCMSP - Erasmus Mundus Master Course on Maritime Spatial Planning","http://www.iuav.it/Didattica1/master/master---I1/Erasmus-Mu/","IUAV University of Venice","Italy","Venice",45.4408,"12.3155",-27.6806,35.3891,14.3155,47.4408
"148","EMMCMSP",134,"EMMCMSP - Erasmus Mundus Master Course on Maritime Spatial Planning","http://www.iuav.it/Didattica1/master/master---I1/Erasmus-Mu/","University of the Azores","Portugal","Ponta Delgada",37.7428,"-25.6806",-27.6806,35.3891,14.3155,47.4408
"149","EMPHID",136,"EMPHID - Public Health in Disasters","http://www.pubhealthdisasters.eu/","Catholic University of Leuven","Belgium","Leuven",50.8798,"4.7005",-7.8494,41.3619,20.0084,61.3689
"150","EMPHID",33,"EMPHID - Public Health in Disasters","http://www.pubhealthdisasters.eu/","Karolinska Institute","Sweden","Solna",59.3689,"18.0084",-7.8494,41.3619,20.0084,61.3689
"151","EMPHID",239,"EMPHID - Public Health in Disasters","http://www.pubhealthdisasters.eu/","University of Oviedo","Spain","Oviedo",43.3619,"-5.8494",-7.8494,41.3619,20.0084,61.3689
"152","EMQAL",137,"EMQAL - European Joint Master in Quality in Analytical Laboratories","http://www.emqal.org/","University of Barcelona","Spain","Barcelona",41.3851,"2.1734",-9.9304,34.5271,20.6466,62.3913
"153","EMQAL",446,"EMQAL - European Joint Master in Quality in Analytical Laboratories","http://www.emqal.org/","Gdansk University of Technology","Poland","Gdansk",54.352,"18.6466",-9.9304,34.5271,20.6466,62.3913
"154","EMQAL",343,"EMQAL - European Joint Master in Quality in Analytical Laboratories","http://www.emqal.org/","University of Cadiz","Spain","Cadiz",36.5271,"-6.2886",-9.9304,34.5271,20.6466,62.3913
"155","EMQAL",34,"EMQAL - European Joint Master in Quality in Analytical Laboratories","http://www.emqal.org/","University of Algarve","Portugal","Faro",37.0194,"-7.9304",-9.9304,34.5271,20.6466,62.3913
"156","EMQAL",240,"EMQAL - European Joint Master in Quality in Analytical Laboratories","http://www.emqal.org/","University of Bergen","Norway","Bergen",60.3913,"5.3221",-9.9304,34.5271,20.6466,62.3913
"157","EMSD",139,"EMSD - European Master programme in Systems Dynamics","http://www.europeansystemdynamics.eu/","New University of Lisbon","Portugal","Lisbon",38.7223,"-9.1393",-11.1393,36.1157,15.3613,62.3913
"158","EMSD",345,"EMSD - European Master programme in Systems Dynamics","http://www.europeansystemdynamics.eu/","Radboud University","Netherlands","Nijmegen",51.8126,"5.8372",-11.1393,36.1157,15.3613,62.3913
"159","EMSD",242,"EMSD - European Master programme in Systems Dynamics","http://www.europeansystemdynamics.eu/","University of Palermo","Italy","Palermo",38.1157,"13.3613",-11.1393,36.1157,15.3613,62.3913
"160","EMSD",36,"EMSD - European Master programme in Systems Dynamics","http://www.europeansystemdynamics.eu/","University of Bergen","Norway","Bergen",60.3913,"5.3221",-11.1393,36.1157,15.3613,62.3913
"161","EMSE",243,"EMSE - European Masters Programme in Software Engineering","http://em-se.eu/","University of Kaiserslautern","Germany","Kaiserslautern",49.4401,"7.7491",-5.7038,38.4168,27.4651,67.0121
"162","EMSE",346,"EMSE - European Masters Programme in Software Engineering","http://em-se.eu/","Technical University of Madrid","Spain","Madrid",40.4168,"-3.7038",-5.7038,38.4168,27.4651,67.0121
"163","EMSE",140,"EMSE - European Masters Programme in Software Engineering","http://em-se.eu/","University of Oulu","Finland","Oulu",65.0121,"25.4651",-5.7038,38.4168,27.4651,67.0121
"164","EMSE",37,"EMSE - European Masters Programme in Software Engineering","http://em-se.eu/","Free University of Bozen-Bolzano","Italy","Bolzano",46.4983,"11.3548",-5.7038,38.4168,27.4651,67.0121
"165","EMSHIP",450,"EMSHIP - European Education in Advanced Ship Design","http://www.emship.eu/","University of Genova","Italy","Genova",44.4056,"8.9463",-3.5536,42.4056,30.008,56.0924
"166","EMSHIP",244,"EMSHIP - European Education in Advanced Ship Design","http://www.emship.eu/","University of Galati Dunarea de Jos","Romania","Galati",45.4353,"28.008",-3.5536,42.4056,30.008,56.0924
"167","EMSHIP",38,"EMSHIP - European Education in Advanced Ship Design","http://www.emship.eu/","University of Liège","Belgium","Liège",50.5831,"5.5591",-3.5536,42.4056,30.008,56.0924
"168","EMSHIP",141,"EMSHIP - European Education in Advanced Ship Design","http://www.emship.eu/","École centrale de Nantes","France","Nantes",47.2184,"-1.5536",-3.5536,42.4056,30.008,56.0924
"169","EMSHIP",347,"EMSHIP - European Education in Advanced Ship Design","http://www.emship.eu/","University of Rostock","Germany","Rostock",54.0924,"12.0991",-3.5536,42.4056,30.008,56.0924
"170","EMSHIP",553,"EMSHIP - European Education in Advanced Ship Design","http://www.emship.eu/","West Pomeranian University of Technology","Poland","Szczecin",53.4285,"14.5528",-3.5536,42.4056,30.008,56.0924
"171","EMTM",39,"EMTM - European Master in Tourism Management","http://www.emtmmaster.net/","University of Southern Denmark","Denmark","Kolding",55.496,"9.4731",0.8214,39.9794,16.5058,57.496
"172","EMTM",245,"EMTM - European Master in Tourism Management","http://www.emtmmaster.net/","University of Girona","Spain","Girona",41.9794,"2.8214",0.8214,39.9794,16.5058,57.496
"173","EMTM",142,"EMTM - European Master in Tourism Management","http://www.emtmmaster.net/","University of Ljubljana","Slovenia","Ljubljana",46.0569,"14.5058",0.8214,39.9794,16.5058,57.496
"174","EPOG",246,"EPOG - Master's Course - Economic Policies in the age of Globalisation : knowledge, finance and development","http://www.epog.eu/","Kingston University","UK","Kingston",51.4123,"-0.3007",-2.3007,-28.2041,30.0473,54.52
"175","EPOG",143,"EPOG - Master's Course - Economic Policies in the age of Globalisation : knowledge, finance and development","http://www.epog.eu/","Berlin School of Economics and Law","Germany","Berlin",52.52,"13.405",-2.3007,-28.2041,30.0473,54.52
"176","EPOG",40,"EPOG - Master's Course - Economic Policies in the age of Globalisation : knowledge, finance and development","http://www.epog.eu/","University of Paris XIII-Nord","France","Paris",48.8566,"2.3522",-2.3007,-28.2041,30.0473,54.52
"177","EPOG",349,"EPOG - Master's Course - Economic Policies in the age of Globalisation : knowledge, finance and development","http://www.epog.eu/","Wits University","South Africa","Johannesburg",-26.2041,"28.0473",-2.3007,-28.2041,30.0473,54.52
"178","EPOG",452,"EPOG - Master's Course - Economic Policies in the age of Globalisation : knowledge, finance and development","http://www.epog.eu/","University of Turin","Italy","Turin",45.0703,"7.6869",-2.3007,-28.2041,30.0473,54.52
"179","EU4M - EMMC",45,"EU4M - EMMC Mechatronic Engineering","http://www.eu4m.eu/","University of Oviedo","Spain","Oviedo",43.3619,"-5.8494",-7.8494,28.0131,42.9766,59.0051
"180","EU4M - EMMC",457,"EU4M - EMMC Mechatronic Engineering","http://www.eu4m.eu/","Ivanovo State Power Engineering University","Russia","Ivanovo",57.0051,"40.9766",-7.8494,28.0131,42.9766,59.0051
"181","EU4M - EMMC",354,"EU4M - EMMC Mechatronic Engineering","http://www.eu4m.eu/","Nile University","Egypt","Giza",30.0131,"31.2089",-7.8494,28.0131,42.9766,59.0051
"182","EU4M - EMMC",251,"EU4M - EMMC Mechatronic Engineering","http://www.eu4m.eu/","ƒcole Nationale SupŽrieure de MŽcanique et des Microtechniques","France","Besanon",47.2378,"6.0241",-7.8494,28.0131,42.9766,59.0051
"183","EU4M - EMMC",148,"EU4M - EMMC Mechatronic Engineering","http://www.eu4m.eu/","Karlsruhe University of Applied Sciences","Germany","Karlsruhe",49.0069,"8.4037",-7.8494,28.0131,42.9766,59.0051
"184","EUCOMOR",144,"EUCOMOR - European Master in Comparative Morphology","http://www.eucomor.net/","Justus Liebig University Giessen","Germany","Giessen",50.5841,"8.6784",2.4025,38.8518,18.9252,54.4064
"185","EUCOMOR",350,"EUCOMOR - European Master in Comparative Morphology","http://www.eucomor.net/","Poznań University of Life Sciences","Poland","Poznań",52.4064,"16.9252",2.4025,38.8518,18.9252,54.4064
"186","EUCOMOR",453,"EUCOMOR - European Master in Comparative Morphology","http://www.eucomor.net/","University of Naples Federico II","Italy","Napoli",40.8518,"14.2681",2.4025,38.8518,18.9252,54.4064
"187","EUCOMOR",247,"EUCOMOR - European Master in Comparative Morphology","http://www.eucomor.net/","University of Veterinary Medicine","Austria","Vienna",48.2082,"16.3738",2.4025,38.8518,18.9252,54.4064
"188","EUCOMOR",41,"EUCOMOR - European Master in Comparative Morphology","http://www.eucomor.net/","University of Antwerp","Belgium","Antwerp",51.2194,"4.4025",2.4025,38.8518,18.9252,54.4064
"189","EUPADRA",149,"EUPADRA - PARLIAMENTARY PROCEDURES AND LEGISLATIVE DRAFTING","http://eupadra.eu/","University of London","UK","London",51.5074,"-0.1278",-5.7038,38.4168,14.4964,53.5074
"190","EUPADRA",252,"EUPADRA - PARLIAMENTARY PROCEDURES AND LEGISLATIVE DRAFTING","http://eupadra.eu/","Complutense University of Madrid","Spain","Madrid",40.4168,"-3.7038",-5.7038,38.4168,14.4964,53.5074
"191","EUPADRA",46,"EUPADRA - PARLIAMENTARY PROCEDURES AND LEGISLATIVE DRAFTING","http://eupadra.eu/","Free International University of Social Studies","Italy","Rome",41.9028,"12.4964",-5.7038,38.4168,14.4964,53.5074
"192","EUROCULTURE",145,"EUROCULTURE - Society, Politics and Culture in a Global Context","https://www.euroculturemaster.eu/","Palacky University of Olomouc","Czech Republic","Olomouc",49.5938,"17.2509",-104.5528,16.5204,137.5022,61.8586
"193","EUROCULTURE",1175,"EUROCULTURE - Society, Politics and Culture in a Global Context","https://www.euroculturemaster.eu/","Indiana University-Purdue University","USA","Indianapolis",39.7684,"-86.1581",-104.5528,16.5204,137.5022,61.8586
"194","EUROCULTURE",351,"EUROCULTURE - Society, Politics and Culture in a Global Context","https://www.euroculturemaster.eu/","University of Göttingen","Germany","Göttingen",51.5413,"9.9158",-104.5528,16.5204,137.5022,61.8586
"195","EUROCULTURE",866,"EUROCULTURE - Society, Politics and Culture in a Global Context","https://www.euroculturemaster.eu/","Jagiellonian University","Poland","Krakow",50.0647,"19.945",-104.5528,16.5204,137.5022,61.8586
"196","EUROCULTURE",969,"EUROCULTURE - Society, Politics and Culture in a Global Context","https://www.euroculturemaster.eu/","University of Deusto","Spain","Bilbao",43.263,"-2.935",-104.5528,16.5204,137.5022,61.8586
"197","EUROCULTURE",557,"EUROCULTURE - Society, Politics and Culture in a Global Context","https://www.euroculturemaster.eu/","University of Udine","Italy","Udine",46.0711,"13.2346",-104.5528,16.5204,137.5022,61.8586
"198","EUROCULTURE",248,"EUROCULTURE - Society, Politics and Culture in a Global Context","https://www.euroculturemaster.eu/","University of Strasbourg","France","Strasbourg",48.5734,"7.7521",-104.5528,16.5204,137.5022,61.8586
"199","EUROCULTURE",763,"EUROCULTURE - Society, Politics and Culture in a Global Context","https://www.euroculturemaster.eu/","National Autonomous University of Mexico","Mexico","Mexico City",23.6345,"-102.5528",-104.5528,16.5204,137.5022,61.8586
"200","EUROCULTURE",660,"EUROCULTURE - Society, Politics and Culture in a Global Context","https://www.euroculturemaster.eu/","Osaka University","Japan","Osaka",34.6937,"135.5022",-104.5528,16.5204,137.5022,61.8586
"201","EUROCULTURE",454,"EUROCULTURE - Society, Politics and Culture in a Global Context","https://www.euroculturemaster.eu/","Vidhyapeeth University in Pune","India","Pune",18.5204,"73.8567",-104.5528,16.5204,137.5022,61.8586
"202","EUROCULTURE",1072,"EUROCULTURE - Society, Politics and Culture in a Global Context","https://www.euroculturemaster.eu/","Uppsala University","Sweden","Uppsala",59.8586,"17.6389",-104.5528,16.5204,137.5022,61.8586
"203","EUROCULTURE",42,"EUROCULTURE - Society, Politics and Culture in a Global Context","https://www.euroculturemaster.eu/","University of Groningen","Netherlands","Groningen",53.2194,"6.5665",-104.5528,16.5204,137.5022,61.8586
"204","EUROPHILOSOPHIE",146,"EUROPHILOSOPHIE - Philosophies allemande et franaise dans l’espace européen","http://europhilomem.hypotheses.org/","University of Bonn","Germany","Bonn",50.7374,"7.0982",-92.049,-24.0087,141.6917,53.2562
"205","EUROPHILOSOPHIE",661,"EUROPHILOSOPHIE - Philosophies allemande et franaise dans l’espace européen","http://europhilomem.hypotheses.org/","Charles University in Prague","Czech Republic","Prague",50.0755,"14.4378",-92.049,-24.0087,141.6917,53.2562
"206","EUROPHILOSOPHIE",558,"EUROPHILOSOPHIE - Philosophies allemande et franaise dans l’espace européen","http://europhilomem.hypotheses.org/","University of Memphis","USA","Memphis",35.1495,"-90.049",-92.049,-24.0087,141.6917,53.2562
"207","EUROPHILOSOPHIE",764,"EUROPHILOSOPHIE - Philosophies allemande et franaise dans l’espace européen","http://europhilomem.hypotheses.org/","Federal University of Sao Carlos","Brazil","Sao Carlos",-22.0087,"-47.8909",-92.049,-24.0087,141.6917,53.2562
"208","EUROPHILOSOPHIE",249,"EUROPHILOSOPHIE - Philosophies allemande et franaise dans l’espace européen","http://europhilomem.hypotheses.org/","University of Coimbra","Portugal","Coimbra",40.2048,"-8.4404",-92.049,-24.0087,141.6917,53.2562
"209","EUROPHILOSOPHIE",867,"EUROPHILOSOPHIE - Philosophies allemande et franaise dans l’espace européen","http://europhilomem.hypotheses.org/","University of Wuppertal","Germany","Wuppertal",51.2562,"7.1508",-92.049,-24.0087,141.6917,53.2562
"210","EUROPHILOSOPHIE",352,"EUROPHILOSOPHIE - Philosophies allemande et franaise dans l’espace européen","http://europhilomem.hypotheses.org/","Hosei University","Japan","Tokyo",35.6895,"139.6917",-92.049,-24.0087,141.6917,53.2562
"211","EUROPHILOSOPHIE",455,"EUROPHILOSOPHIE - Philosophies allemande et franaise dans l’espace européen","http://europhilomem.hypotheses.org/","Catholic University of Leuven","Belgium","Leuven",50.8798,"4.7005",-92.049,-24.0087,141.6917,53.2562
"212","EUROPHILOSOPHIE",43,"EUROPHILOSOPHIE - Philosophies allemande et franaise dans l’espace européen","http://europhilomem.hypotheses.org/","University of Toulouse Jean-Jaures","France","Toulouse",43.6047,"1.4442",-92.049,-24.0087,141.6917,53.2562
"213","EUROPHOTONICS",662,"EUROPHOTONICS - Master in Photonics Engineering, Nanophotonics and Biophotonics","http://www.europhotonics.org/wordpress/","École centrale de Marseille","France","Marseille",43.2965,"5.3698",0.1734,39.3851,27.2797,56.6872
"214","EUROPHOTONICS",765,"EUROPHOTONICS - Master in Photonics Engineering, Nanophotonics and Biophotonics","http://www.europhotonics.org/wordpress/","Vilnius University","Lithuania","Vilnius",54.6872,"25.2797",0.1734,39.3851,27.2797,56.6872
"215","EUROPHOTONICS",559,"EUROPHOTONICS - Master in Photonics Engineering, Nanophotonics and Biophotonics","http://www.europhotonics.org/wordpress/","Institute of Photonic Sciences","Spain","Barcelona",41.3851,"2.1734",0.1734,39.3851,27.2797,56.6872
"216","EUROPHOTONICS",250,"EUROPHOTONICS - Master in Photonics Engineering, Nanophotonics and Biophotonics","http://www.europhotonics.org/wordpress/","Technical University of Catalunya","Spain","Barcelona",41.3851,"2.1734",0.1734,39.3851,27.2797,56.6872
"217","EUROPHOTONICS",456,"EUROPHOTONICS - Master in Photonics Engineering, Nanophotonics and Biophotonics","http://www.europhotonics.org/wordpress/","University of Barcelona","Spain","Barcelona",41.3851,"2.1734",0.1734,39.3851,27.2797,56.6872
"218","EUROPHOTONICS",44,"EUROPHOTONICS - Master in Photonics Engineering, Nanophotonics and Biophotonics","http://www.europhotonics.org/wordpress/","University of Aix-Marseille III Paul Cezanne","France","Marseille",43.2965,"5.3698",0.1734,39.3851,27.2797,56.6872
"219","EUROPHOTONICS",353,"EUROPHOTONICS - Master in Photonics Engineering, Nanophotonics and Biophotonics","http://www.europhotonics.org/wordpress/","Autonomous University of Barcelona","Spain","Barcelona",41.3851,"2.1734",0.1734,39.3851,27.2797,56.6872
"220","EUROPHOTONICS",147,"EUROPHOTONICS - Master in Photonics Engineering, Nanophotonics and Biophotonics","http://www.europhotonics.org/wordpress/","University of Karlsruhe","Germany","Karlsruhe",49.0069,"8.4037",0.1734,39.3851,27.2797,56.6872
"221","EWEM",253,"EWEM - European Wind Energy Master","http://www.windenergymaster.eu/","Norwegian University of Science and Technology","Norway","Trondheim",63.4305,"10.3951",2.3571,50.0116,14.4949,65.4305
"222","EWEM",356,"EWEM - European Wind Energy Master","http://www.windenergymaster.eu/","Carl von Ossietzky University of Oldenburg","Germany","Oldenburg",53.1435,"8.2146",2.3571,50.0116,14.4949,65.4305
"223","EWEM",150,"EWEM - European Wind Energy Master","http://www.windenergymaster.eu/","Technical University of Denmark","Denmark","Kongens Lyngby",55.7635,"12.4949",2.3571,50.0116,14.4949,65.4305
"224","EWEM",47,"EWEM - European Wind Energy Master","http://www.windenergymaster.eu/","Delft University of Technology","Netherlands","Delft",52.0116,"4.3571",2.3571,50.0116,14.4949,65.4305
"225","FAME",254,"FAME - Functionalised Advanced Materials and Engineering","http://www.fame-master.com/","Technical University of Darmstadt","Germany","Darmstadt",49.8728,"8.6512",-10.6538,38.6405,12.8978,52.8798
"226","FAME",357,"FAME - Functionalised Advanced Materials and Engineering","http://www.fame-master.com/","Grenoble Institute of Technology","France","Grenoble",45.1885,"5.7245",-10.6538,38.6405,12.8978,52.8798
"227","FAME",151,"FAME - Functionalised Advanced Materials and Engineering","http://www.fame-master.com/","University of Aveiro","Portugal","Aveiro",40.6405,"-8.6538",-10.6538,38.6405,12.8978,52.8798
"228","FAME",666,"FAME - Functionalised Advanced Materials and Engineering","http://www.fame-master.com/","University of Augsburg","Germany","Augsburg",48.3705,"10.8978",-10.6538,38.6405,12.8978,52.8798
"229","FAME",563,"FAME - Functionalised Advanced Materials and Engineering","http://www.fame-master.com/","Catholic University of Leuven","Belgium","Leuven",50.8798,"4.7005",-10.6538,38.6405,12.8978,52.8798
"230","FAME",48,"FAME - Functionalised Advanced Materials and Engineering","http://www.fame-master.com/","University of Bordeaux 1","France","Bordeaux",44.8378,"-0.5792",-10.6538,38.6405,12.8978,52.8798
"231","FAME",460,"FAME - Functionalised Advanced Materials and Engineering","http://www.fame-master.com/","University of Liège","Belgium","Liège",50.5831,"5.5591",-10.6538,38.6405,12.8978,52.8798
"232","GEMMA",256,"GEMMA - Master's Degree in Women's and Gender Studies","http://masteres.ugr.es/gemma/","Central European University","Hungary","Budapest",47.4979,"19.0402",-76.4518,35.1773,21.456,55.7457
"233","GEMMA",771,"GEMMA - Master's Degree in Women's and Gender Studies","http://masteres.ugr.es/gemma/","Rutgers, The State University of New Jersey","USA","New Brunswick",40.4862,"-74.4518",-76.4518,35.1773,21.456,55.7457
"234","GEMMA",153,"GEMMA - Master's Degree in Women's and Gender Studies","http://masteres.ugr.es/gemma/","University of Oviedo","Spain","Oviedo",43.3619,"-5.8494",-76.4518,35.1773,21.456,55.7457
"235","GEMMA",668,"GEMMA - Master's Degree in Women's and Gender Studies","http://masteres.ugr.es/gemma/","University of Hull","UK","Hull",53.7457,"-0.3367",-76.4518,35.1773,21.456,55.7457
"236","GEMMA",50,"GEMMA - Master's Degree in Women's and Gender Studies","http://masteres.ugr.es/gemma/","University of Granada","Spain","Granada",37.1773,"-3.5986",-76.4518,35.1773,21.456,55.7457
"237","GEMMA",359,"GEMMA - Master's Degree in Women's and Gender Studies","http://masteres.ugr.es/gemma/","University of Bologna","Italy","Bologna",44.4949,"11.3426",-76.4518,35.1773,21.456,55.7457
"238","GEMMA",462,"GEMMA - Master's Degree in Women's and Gender Studies","http://masteres.ugr.es/gemma/","University of Utrecht","Netherlands","Utrecht",52.0907,"5.1214",-76.4518,35.1773,21.456,55.7457
"239","GEMMA",565,"GEMMA - Master's Degree in Women's and Gender Studies","http://masteres.ugr.es/gemma/","University of Lodz","Poland","Lodz",51.7592,"19.456",-76.4518,35.1773,21.456,55.7457
"240","GeoTech",257,"GeoTech - Master of Science in Geospatial Technologies","http://mastergeotech.info/","New University of Lisbon","Portugal","Lisbon",38.7223,"-9.1393",-11.1393,36.7223,9.6261,53.9607
"241","GeoTech",51,"GeoTech - Master of Science in Geospatial Technologies","http://mastergeotech.info/","University of Münster","Germany","Münster",51.9607,"7.6261",-11.1393,36.7223,9.6261,53.9607
"242","GeoTech",154,"GeoTech - Master of Science in Geospatial Technologies","http://mastergeotech.info/","University Jaume I","Spain","Castellón de la Plana",39.9864,"-0.0513",-11.1393,36.7223,9.6261,53.9607
"243","GLOBED",155,"GLOBED Erasmus Mundus Joint Master Degree on Education Policies for Global Development","http://globed.eu/","University of Oslo","Norway","Oslo",59.9139,"10.7522",0.1734,33.8956,16.4869,61.9139
"244","GLOBED",361,"GLOBED Erasmus Mundus Joint Master Degree on Education Policies for Global Development","http://globed.eu/","University of Amsterdam","The Netherlands","Amsterdam",52.3702,"4.8952",0.1734,33.8956,16.4869,61.9139
"245","GLOBED",258,"GLOBED Erasmus Mundus Joint Master Degree on Education Policies for Global Development","http://globed.eu/","University of Malta","Malta","Msida",35.8956,"14.4869",0.1734,33.8956,16.4869,61.9139
"246","GLOBED",52,"GLOBED Erasmus Mundus Joint Master Degree on Education Policies for Global Development","http://globed.eu/","Autonomous University of Barcelona","Spain","Barcelona",41.3851,"2.1734",0.1734,33.8956,16.4869,61.9139
"247","GroundwatCH",49,"GroundwatCH - Groundwater and Global Change - Impacts and Adaptation","http://www.groundwatermaster.eu/","Technical Institute of Lisbon","Portugal","Lisbon",38.7223,"-9.1393",-11.1393,36.7223,15.7373,54.0116
"248","GroundwatCH",152,"GroundwatCH - Groundwater and Global Change - Impacts and Adaptation","http://www.groundwatermaster.eu/","UNESCO-IHE Institute for Water Education","Netherlands","Delft",52.0116,"4.3571",-11.1393,36.7223,15.7373,54.0116
"249","GroundwatCH",255,"GroundwatCH - Groundwater and Global Change - Impacts and Adaptation","http://www.groundwatermaster.eu/","Dresden University of Technology","Germany","Dresden",51.0504,"13.7373",-11.1393,36.7223,15.7373,54.0116
"250","IMAE",53,"IMAE - International Master in Applied Ecology","http://www.emmc-imae.org/","University of Poitiers","France","Poitiers",46.5802,"0.3404",-53.2177,-32.0346,12.1228,56.3233
"251","IMAE",156,"IMAE - International Master in Applied Ecology","http://www.emmc-imae.org/","University Christian-Albrechts","Germany","Kiel",54.3233,"10.1228",-53.2177,-32.0346,12.1228,56.3233
"252","IMAE",362,"IMAE - International Master in Applied Ecology","http://www.emmc-imae.org/","University of East Anglia","UK","Norwich",52.6309,"1.2974",-53.2177,-32.0346,12.1228,56.3233
"253","IMAE",465,"IMAE - International Master in Applied Ecology","http://www.emmc-imae.org/","Federal University of Rio Grande do Sul","Brazil","Porto Alegre",-30.0346,"-51.2177",-53.2177,-32.0346,12.1228,56.3233
"254","IMAE",259,"IMAE - International Master in Applied Ecology","http://www.emmc-imae.org/","University of Coimbra","Portugal","Coimbra",40.2048,"-8.4404",-53.2177,-32.0346,12.1228,56.3233
"255","IMAESC",157,"IMAESC - International Master in Adult Education for Social Change","http://www.gla.ac.uk/postgraduate/erasmusmundus/imaesc/","University of Malta","Malta","Msida",35.8956,"14.4869",-6.2518,33.8956,26.7536,61.437
"256","IMAESC",260,"IMAESC - International Master in Adult Education for Social Change","http://www.gla.ac.uk/postgraduate/erasmusmundus/imaesc/","Tallinn University","Estonia","Tallinn",59.437,"24.7536",-6.2518,33.8956,26.7536,61.437
"257","IMAESC",54,"IMAESC - International Master in Adult Education for Social Change","http://www.gla.ac.uk/postgraduate/erasmusmundus/imaesc/","University of Glasgow","UK","Glasgow",55.8642,"-4.2518",-6.2518,33.8956,26.7536,61.437
"258","IMFSE",261,"IMFSE - International Master of Science in Fire Safety Engineering","http://www.imfse.ugent.be/","The University of Edinburgh","UK","Edinburgh",55.9533,"-3.1883",-5.1883,49.0543,15.191,57.9533
"259","IMFSE",158,"IMFSE - International Master of Science in Fire Safety Engineering","http://www.imfse.ugent.be/","Lund University","Sweden","Lund",55.7047,"13.191",-5.1883,49.0543,15.191,57.9533
"260","IMFSE",55,"IMFSE - International Master of Science in Fire Safety Engineering","http://www.imfse.ugent.be/","Ghent University","Belgium","Ghent",51.0543,"3.7174",-5.1883,49.0543,15.191,57.9533
"261","IMIM",365,"IMIM - International Master in Industrial Management","http://www.imim.polimi.it/","Technical University of Munich","Germany","Munich",48.1351,"11.582",-5.7038,38.4168,13.582,57.9533
"262","IMIM",56,"IMIM - International Master in Industrial Management","http://www.imim.polimi.it/","Technical University of Madrid","Spain","Madrid",40.4168,"-3.7038",-5.7038,38.4168,13.582,57.9533
"263","IMIM",262,"IMIM - International Master in Industrial Management","http://www.imim.polimi.it/","Heriot-Watt University","UK","Edinburgh",55.9533,"-3.1883",-5.7038,38.4168,13.582,57.9533
"264","IMIM",159,"IMIM - International Master in Industrial Management","http://www.imim.polimi.it/","Polytechnic University of Milan","Italy","Milan",45.4654,"9.1859",-5.7038,38.4168,13.582,57.9533
"265","IMIM Med",263,"IMIM - International Master in Innovative Medicine","http://www.innovativemedicine.eu/","Uppsala University","Sweden","Uppsala",59.8586,"17.6389",4.5665,47.3988,19.6389,61.8586
"266","IMIM Med",160,"IMIM - International Master in Innovative Medicine","http://www.innovativemedicine.eu/","Heidelberg University","Germany","Heidelberg",49.3988,"8.6724",4.5665,47.3988,19.6389,61.8586
"267","IMIM Med",57,"IMIM - International Master in Innovative Medicine","http://www.innovativemedicine.eu/","University of Groningen","The Netherlands","Groningen",53.2194,"6.5665",4.5665,47.3988,19.6389,61.8586
"268","IMQP",58,"IMQP - Erasmus Mundus Master in Quaternary and Prehistory","https://sites.google.com/a/unife.it/quaternary-prehistory/","University of Ferrara","Italy","Ferrara",44.8381,"11.6198",-10.4043,37.6052,13.6198,50.8566
"269","IMQP",264,"IMQP - Erasmus Mundus Master in Quaternary and Prehistory","https://sites.google.com/a/unife.it/quaternary-prehistory/","Polytechnic Institute of Tomar","Portugal","Tomar",39.6052,"-8.4043",-10.4043,37.6052,13.6198,50.8566
"270","IMQP",470,"IMQP - Erasmus Mundus Master in Quaternary and Prehistory","https://sites.google.com/a/unife.it/quaternary-prehistory/","National Museum of Natural History","France","Paris",48.8566,"2.3522",-10.4043,37.6052,13.6198,50.8566
"271","IMQP",161,"IMQP - Erasmus Mundus Master in Quaternary and Prehistory","https://sites.google.com/a/unife.it/quaternary-prehistory/","Rovira i Virgili University","Spain","Tarragona",41.1189,"1.2445",-10.4043,37.6052,13.6198,50.8566
"272","IMQP",367,"IMQP - Erasmus Mundus Master in Quaternary and Prehistory","https://sites.google.com/a/unife.it/quaternary-prehistory/","University of Trás-os-Montes and Alto Douro","Portugal","Vila Rea",41.301,"-7.7422",-10.4043,37.6052,13.6198,50.8566
"273","IMRCEES",780,"IMRCEES - International Masters in Russian, Central and East European Studies","http://www.gla.ac.uk/postgraduate/erasmusmundus/imrcees/","National University of Kyiv-Mohyla Academy","Ukraine","Kiev",50.4501,"30.5234",-6.2518,39.7151,78.8512,60.3776
"274","IMRCEES",59,"IMRCEES - International Masters in Russian, Central and East European Studies","http://www.gla.ac.uk/postgraduate/erasmusmundus/imrcees/","Jagiellonian University","Poland","Krakow",50.0647,"19.945",-6.2518,39.7151,78.8512,60.3776
"275","IMRCEES",368,"IMRCEES - International Masters in Russian, Central and East European Studies","http://www.gla.ac.uk/postgraduate/erasmusmundus/imrcees/","University of Tartu","Estonia","Tartu",58.3776,"6.729",-6.2518,39.7151,78.8512,60.3776
"276","IMRCEES",677,"IMRCEES - International Masters in Russian, Central and East European Studies","http://www.gla.ac.uk/postgraduate/erasmusmundus/imrcees/","Lobachevsky State University of Nizhni Novgorod","Russia","Nizhni Novgorod",56.2965,"43.9361",-6.2518,39.7151,78.8512,60.3776
"277","IMRCEES",265,"IMRCEES - International Masters in Russian, Central and East European Studies","http://www.gla.ac.uk/postgraduate/erasmusmundus/imrcees/","Corvinus University of Budapest","Hungary","Budapest",47.4979,"19.0402",-6.2518,39.7151,78.8512,60.3776
"278","IMRCEES",471,"IMRCEES - International Masters in Russian, Central and East European Studies","http://www.gla.ac.uk/postgraduate/erasmusmundus/imrcees/","KIMEP University","Kazakhstan","Almaty",43.222,"76.8512",-6.2518,39.7151,78.8512,60.3776
"279","IMRCEES",162,"IMRCEES - International Masters in Russian, Central and East European Studies","http://www.gla.ac.uk/postgraduate/erasmusmundus/imrcees/","University of Glasgow","UK","Glasgow",55.8642,"-4.2518",-6.2518,39.7151,78.8512,60.3776
"280","IMRCEES",574,"IMRCEES - International Masters in Russian, Central and East European Studies","http://www.gla.ac.uk/postgraduate/erasmusmundus/imrcees/","Ilia State University","Georgia","Tbilisi",41.7151,"44.8271",-6.2518,39.7151,78.8512,60.3776
"281","IMRD",266,"IMRD - International Master of Science in Rural Development","http://www.imrd.ugent.be/","Agrocampus Ouest","France","Rennes",48.1173,"-1.6778",-3.6778,41.7228,20.0764,54.52
"282","IMRD",472,"IMRD - International Master of Science in Rural Development","http://www.imrd.ugent.be/","Ghent University","Belgium","Ghent",51.0543,"3.7174",-3.6778,41.7228,20.0764,54.52
"283","IMRD",369,"IMRD - International Master of Science in Rural Development","http://www.imrd.ugent.be/","Humboldt University of Berlin","Germany","Berlin",52.52,"13.405",-3.6778,41.7228,20.0764,54.52
"284","IMRD",163,"IMRD - International Master of Science in Rural Development","http://www.imrd.ugent.be/","University of Pisa","Italy","Pisa",43.7228,"10.4017",-3.6778,41.7228,20.0764,54.52
"285","IMRD",60,"IMRD - International Master of Science in Rural Development","http://www.imrd.ugent.be/","Slovak University of Agriculture in Nitra","Slovakia","Nitra",48.3061,"18.0764",-3.6778,41.7228,20.0764,54.52
"286","IT4BI",370,"IT4BI - Information Technologies for Business Intelligence","http://it4bi.univ-tours.fr/","Technical University of Berlin","Germany","Berlin",52.52,"13.405",-1.3152,39.3851,15.405,54.52
"287","IT4BI",164,"IT4BI - Information Technologies for Business Intelligence","http://it4bi.univ-tours.fr/","University of Tours","France","Tours",47.3941,"0.6848",-1.3152,39.3851,15.405,54.52
"288","IT4BI",473,"IT4BI - Information Technologies for Business Intelligence","http://it4bi.univ-tours.fr/","École Centrale Paris","France","Paris",48.8566,"2.3522",-1.3152,39.3851,15.405,54.52
"289","IT4BI",267,"IT4BI - Information Technologies for Business Intelligence","http://it4bi.univ-tours.fr/","Technical University of Catalunya","Spain","Barcelona",41.3851,"2.1734",-1.3152,39.3851,15.405,54.52
"290","IT4BI",61,"IT4BI - Information Technologies for Business Intelligence","http://it4bi.univ-tours.fr/","Free University of Brussels","Belgium","Brussels",50.8503,"4.3517",-1.3152,39.3851,15.405,54.52
"291","JEMES",165,"JEMES - Joint European Master Programme in Environmental Studies","http://www.jemes-cisu.eu/","Aalborg University","Denmark","Aalborg",57.0488,"9.9217",-10.6538,38.6405,11.9937,59.0488
"292","JEMES",268,"JEMES - Joint European Master Programme in Environmental Studies","http://www.jemes-cisu.eu/","Autonomous University of Barcelona","Spain","Barcelona",41.3851,"2.1734",-10.6538,38.6405,11.9937,59.0488
"293","JEMES",62,"JEMES - Joint European Master Programme in Environmental Studies","http://www.jemes-cisu.eu/","Technical University of Hamburg-Harburg","Germany","Hamburg",53.5511,"9.9937",-10.6538,38.6405,11.9937,59.0488
"294","JEMES",371,"JEMES - Joint European Master Programme in Environmental Studies","http://www.jemes-cisu.eu/","University of Aveiro","Portugal","Aveiro",40.6405,"-8.6538",-10.6538,38.6405,11.9937,59.0488
"295","KINOEYES | KEM",63,"KINOEYES | KEM - The European Movie Masters","http://www.kinoeyes.eu/","Lusofona University","Portugal","Lisbon",38.7223,"-9.1393",-11.1393,36.7223,26.7536,61.437
"296","KINOEYES | KEM",269,"KINOEYES | KEM - The European Movie Masters","http://www.kinoeyes.eu/","Baltic Film and Media School","Estonia","Tallinn",59.437,"24.7536",-11.1393,36.7223,26.7536,61.437
"297","KINOEYES | KEM",166,"KINOEYES | KEM - The European Movie Masters","http://www.kinoeyes.eu/","Edinburgh Napier University","UK","Edinburgh",55.9533,"-3.1883",-11.1393,36.7223,26.7536,61.437
"298","LCT",64,"LCT - European Masters Program in Language and Communication Technologies","http://www.lct-master.org/","The University of the Basque Country","Spain","San Sebastian",43.3183,"-1.9812",-3.9812,33.8956,16.4869,55.2194
"299","LCT",476,"LCT - European Masters Program in Language and Communication Technologies","http://www.lct-master.org/","University of Trento","Italy","Trento",46.0748,"11.1217",-3.9812,33.8956,16.4869,55.2194
"300","LCT",579,"LCT - European Masters Program in Language and Communication Technologies","http://www.lct-master.org/","Saarland University","Germany","Saarbrücken",49.2402,"6.9969",-3.9812,33.8956,16.4869,55.2194
"301","LCT",682,"LCT - European Masters Program in Language and Communication Technologies","http://www.lct-master.org/","Charles University in Prague","Czech Republic","Prague",50.0755,"14.4378",-3.9812,33.8956,16.4869,55.2194
"302","LCT",373,"LCT - European Masters Program in Language and Communication Technologies","http://www.lct-master.org/","University of Malta","Malta","Msida",35.8956,"14.4869",-3.9812,33.8956,16.4869,55.2194
"303","LCT",270,"LCT - European Masters Program in Language and Communication Technologies","http://www.lct-master.org/","University of Lorraine","France","Nancy",48.6921,"6.1844",-3.9812,33.8956,16.4869,55.2194
"304","LCT",167,"LCT - European Masters Program in Language and Communication Technologies","http://www.lct-master.org/","University of Groningen","The Netherlands","Groningen",53.2194,"6.5665",-3.9812,33.8956,16.4869,55.2194
"305","LIVE",374,"LIVE - Leading International Vaccinology Education","http://live.univ-lyon1.fr/","Claude Bernard University Lyon 1","France","Lyon",45.764,"4.8357",0.1734,39.3851,6.8357,53.2194
"306","LIVE",168,"LIVE - Leading International Vaccinology Education","http://live.univ-lyon1.fr/","University of Barcelona","Spain","Barcelona",41.3851,"2.1734",0.1734,39.3851,6.8357,53.2194
"307","LIVE",271,"LIVE - Leading International Vaccinology Education","http://live.univ-lyon1.fr/","Autonomous University of Barcelona","Spain","Barcelona",41.3851,"2.1734",0.1734,39.3851,6.8357,53.2194
"308","LIVE",65,"LIVE - Leading International Vaccinology Education","http://live.univ-lyon1.fr/","University of Antwerp","Belgium","Antwerp",51.2194,"4.4025",0.1734,39.3851,6.8357,53.2194
"309","MAIA",66,"MAIA - Medical Imaging and Applications EMJMD","http://www.maiamaster.org/","University of Girona","Spain","Girona",41.9794,"2.8214",0.8214,39.4908,15.8334,49.322
"310","MAIA",272,"MAIA - Medical Imaging and Applications EMJMD","http://www.maiamaster.org/","University of Cassino and Southern Lazio","Italy","Cassino",41.4908,"13.8334",0.8214,39.4908,15.8334,49.322
"311","MAIA",169,"MAIA - Medical Imaging and Applications EMJMD","http://www.maiamaster.org/","University of Bourgogne","France","Dijon",47.322,"5.0415",0.8214,39.4908,15.8334,49.322
"312","MAMASELF",67,"MAMASELF - Master in material science exploring European large scale facilities","http://www.mamaself.eu/","University of Rennes 1","France","Rennes",48.1173,"-1.6778",-3.6778,41.6108,13.582,50.1351
"313","MAMASELF",376,"MAMASELF - Master in material science exploring European large scale facilities","http://www.mamaself.eu/","University of Torino","Italy","Torino",45.0703,"7.6869",-3.6778,41.6108,13.582,50.1351
"314","MAMASELF",479,"MAMASELF - Master in material science exploring European large scale facilities","http://www.mamaself.eu/","University of Montpellier","France","Montpellier",43.6108,"3.8767",-3.6778,41.6108,13.582,50.1351
"315","MAMASELF",170,"MAMASELF - Master in material science exploring European large scale facilities","http://www.mamaself.eu/","Technical University of Munich","Germany","Munich",48.1351,"11.582",-3.6778,41.6108,13.582,50.1351
"316","MAMASELF",273,"MAMASELF - Master in material science exploring European large scale facilities","http://www.mamaself.eu/","Ludwig Maximilian University","Germany","Munich",48.1351,"11.582",-3.6778,41.6108,13.582,50.1351
"317","MARIHE",377,"MARIHE - Research and Innovation in Higher Education","http://www.marihe.eu/","University of Applied Sciences Osnabrück","Germany","Osnabrück",52.2799,"8.0472",6.0472,37.9042,118.4074,63.4978
"318","MARIHE",68,"MARIHE - Research and Innovation in Higher Education","http://www.marihe.eu/","Danube University Krems","Austria","Krems an der Donau",48.41,"15.6038",6.0472,37.9042,118.4074,63.4978
"319","MARIHE",171,"MARIHE - Research and Innovation in Higher Education","http://www.marihe.eu/","University of Tampere","Finland","Tampere",61.4978,"23.761",6.0472,37.9042,118.4074,63.4978
"320","MARIHE",274,"MARIHE - Research and Innovation in Higher Education","http://www.marihe.eu/","Beijing Normal University","China","Beijing",39.9042,"116.4074",6.0472,37.9042,118.4074,63.4978
"321","MATHMODS",69,"MATHMODS - Mathematical Modelling in Engineering: Theory, Numerics, Applications","http://www.mathmods.eu/","University of L'Aquila","Italy","L'Aquila",42.3498,"13.3995",0.1734,39.3851,20.6466,56.352
"322","MATHMODS",378,"MATHMODS - Mathematical Modelling in Engineering: Theory, Numerics, Applications","http://www.mathmods.eu/","University of Hamburg","Germany","Hamburg",53.5511,"9.9937",0.1734,39.3851,20.6466,56.352
"323","MATHMODS",172,"MATHMODS - Mathematical Modelling in Engineering: Theory, Numerics, Applications","http://www.mathmods.eu/","Autonomous University - Barcelona","Spain","Barcelona",41.3851,"2.1734",0.1734,39.3851,20.6466,56.352
"324","MATHMODS",481,"MATHMODS - Mathematical Modelling in Engineering: Theory, Numerics, Applications","http://www.mathmods.eu/","University of Nice - Sophia Antipolis","France","Nice",43.7102,"7.262",0.1734,39.3851,20.6466,56.352
"325","MATHMODS",275,"MATHMODS - Mathematical Modelling in Engineering: Theory, Numerics, Applications","http://www.mathmods.eu/","Gdansk University of Technology","Poland","Gdansk",54.352,"18.6466",0.1734,39.3851,20.6466,56.352
"326","MCM",276,"MCM - Master of Science in Computational Mechanics","http://www.cimne.com/cm-master/","Polytechnic University of Catalonia","Spain","Barcelona",41.3851,"2.1734",-5.9436,39.3851,11.1829,53.6214
"327","MCM",379,"MCM - Master of Science in Computational Mechanics","http://www.cimne.com/cm-master/","Nantes Technical University","France","Nantes",47.2184,"-1.5536",-5.9436,39.3851,11.1829,53.6214
"328","MCM",173,"MCM - Master of Science in Computational Mechanics","http://www.cimne.com/cm-master/","Stuttgart University","Germany","Stuttgart",48.7758,"9.1829",-5.9436,39.3851,11.1829,53.6214
"329","MCM",70,"MCM - Master of Science in Computational Mechanics","http://www.cimne.com/cm-master/","Swansea University","UK","Swansea",51.6214,"-3.9436",-5.9436,39.3851,11.1829,53.6214
"330","ME3",277,"ME3 - European Joint Masters in Management and Engineering of Environment and Energy","http://www.emn.fr/z-de/me3-site/","The Technical University of Madrid","Spain","Madrid",40.4168,"-3.7038",-7.9301,38.4168,21.0402,61.3293
"331","ME3",71,"ME3 - European Joint Masters in Management and Engineering of Environment and Energy","http://www.emn.fr/z-de/me3-site/","Queen's University Belfast","UK","Belfast",54.5973,"-5.9301",-7.9301,38.4168,21.0402,61.3293
"332","ME3",380,"ME3 - European Joint Masters in Management and Engineering of Environment and Energy","http://www.emn.fr/z-de/me3-site/","The Royal Institute of Technology","Sweden","Stockholm",59.3293,"18.0686",-7.9301,38.4168,21.0402,61.3293
"333","ME3",174,"ME3 - European Joint Masters in Management and Engineering of Environment and Energy","http://www.emn.fr/z-de/me3-site/","Budapest University of Technology and Economics","Hungary","Budapest",47.4979,"19.0402",-7.9301,38.4168,21.0402,61.3293
"334","ME3",483,"ME3 - European Joint Masters in Management and Engineering of Environment and Energy","http://www.emn.fr/z-de/me3-site/","Nantes Mining University","France","Nantes",47.2184,"-1.5536",-7.9301,38.4168,21.0402,61.3293
"335","MEDfOR",278,"MEDfOR - Mediterranean Forestry and Natural Resources Management","http://www.medfor.eu/","University of Padova","Italy","Padova",45.4064,"11.8768",-11.1393,36.7223,41.7168,47.4064
"336","MEDfOR",587,"MEDfOR - Mediterranean Forestry and Natural Resources Management","http://www.medfor.eu/","Portuguese Catholic University in Porto","Portugal","Porto",41.1579,"-8.6291",-11.1393,36.7223,41.7168,47.4064
"337","MEDfOR",484,"MEDfOR - Mediterranean Forestry and Natural Resources Management","http://www.medfor.eu/","University of Tuscia","Italy","Viterbo",42.4207,"12.1077",-11.1393,36.7223,41.7168,47.4064
"338","MEDfOR",72,"MEDfOR - Mediterranean Forestry and Natural Resources Management","http://www.medfor.eu/","University of Lisbon","Portugal","Lisbon",38.7223,"-9.1393",-11.1393,36.7223,41.7168,47.4064
"339","MEDfOR",381,"MEDfOR - Mediterranean Forestry and Natural Resources Management","http://www.medfor.eu/","University of Valladolid","Spain","Valladolid",41.6523,"-4.7245",-11.1393,36.7223,41.7168,47.4064
"340","MEDfOR",690,"MEDfOR - Mediterranean Forestry and Natural Resources Management","http://www.medfor.eu/","Karadeniz Technical University","Turkey","Trabzon",41.0027,"39.7168",-11.1393,36.7223,41.7168,47.4064
"341","MEDfOR",175,"MEDfOR - Mediterranean Forestry and Natural Resources Management","http://www.medfor.eu/","University of Lleida","Spain","Lleida",41.6176,"0.62",-11.1393,36.7223,41.7168,47.4064
"342","Media AC",279,"Media AC Ð Media Arts Cultures","http://www.mediaartscultures.eu/","University of Lodz","Poland","Lodz",51.7592,"19.456",7.9217,20.3964,116.1095,59.0488
"343","Media AC",382,"Media AC Ð Media Arts Cultures","http://www.mediaartscultures.eu/","City University of Hong Kong","China","Hong Kong",22.3964,"114.1095",7.9217,20.3964,116.1095,59.0488
"344","Media AC",73,"Media AC Ð Media Arts Cultures","http://www.mediaartscultures.eu/","Danube University Krems","Austria","Krems an der Donau",48.41,"15.6038",7.9217,20.3964,116.1095,59.0488
"345","Media AC",176,"Media AC Ð Media Arts Cultures","http://www.mediaartscultures.eu/","Aalborg University","Denmark","Aalborg",57.0488,"9.9217",7.9217,20.3964,116.1095,59.0488
"346","MEEES",486,"MEEES - Masters in Earthquake Engineering and Engineering Seismology","http://www.meees.org/","University of Potsdam","Germany","Potsdam",52.401,"13.0119",3.7245,36.2466,34.8597,54.401
"347","MEEES",177,"MEEES - Masters in Earthquake Engineering and Engineering Seismology","http://www.meees.org/","University of Grenoble Joseph Fourier","France","Grenoble",45.1885,"5.7245",3.7245,36.2466,34.8597,54.401
"348","MEEES",280,"MEEES - Masters in Earthquake Engineering and Engineering Seismology","http://www.meees.org/","University of Patras","Greece","Patras",38.2466,"21.7346",3.7245,36.2466,34.8597,54.401
"349","MEEES",383,"MEEES - Masters in Earthquake Engineering and Engineering Seismology","http://www.meees.org/","Middle East Technical University","Turkey","Ankara",39.9334,"32.8597",3.7245,36.2466,34.8597,54.401
"350","MEEES",74,"MEEES - Masters in Earthquake Engineering and Engineering Seismology","http://www.meees.org/","Institute for Advanced Study/University of Pavia - UME School, Italy","Italy","Pavia",45.1847,"9.1582",3.7245,36.2466,34.8597,54.401
"351","MEGEI",384,"MEGEI - MA Economics of Globalisation and European Integration","http://www.ua.ac.be/egei","University of Economics","Czech Republic","Prague",50.0755,"14.4378",-49.8822,-17.7942,18.8719,55.0027
"352","MEGEI",178,"MEGEI - MA Economics of Globalisation and European Integration","http://www.ua.ac.be/egei","University of Bari Aldo Moro","Italy","Bari",41.1171,"16.8719",-49.8822,-17.7942,18.8719,55.0027
"353","MEGEI",487,"MEGEI - MA Economics of Globalisation and European Integration","http://www.ua.ac.be/egei","Lille University","France","Lille",50.6292,"3.0573",-49.8822,-17.7942,18.8719,55.0027
"354","MEGEI",693,"MEGEI - MA Economics of Globalisation and European Integration","http://www.ua.ac.be/egei","Free University of Brussels","Belgium","Brussels",50.8503,"4.3517",-49.8822,-17.7942,18.8719,55.0027
"355","MEGEI",796,"MEGEI - MA Economics of Globalisation and European Integration","http://www.ua.ac.be/egei","University of Brasilia","Brazil","Brasilia",-15.7942,"-47.8822",-49.8822,-17.7942,18.8719,55.0027
"356","MEGEI",75,"MEGEI - MA Economics of Globalisation and European Integration","http://www.ua.ac.be/egei","Antwerpen University","Belgium","Antwerp",51.2194,"4.4025",-49.8822,-17.7942,18.8719,55.0027
"357","MEGEI",590,"MEGEI - MA Economics of Globalisation and European Integration","http://www.ua.ac.be/egei","University of Cantabria","Spain","Santander",43.4623,"-3.81",-49.8822,-17.7942,18.8719,55.0027
"358","MEGEI",281,"MEGEI - MA Economics of Globalisation and European Integration","http://www.ua.ac.be/egei","Staffordshire University","UK","Stoke-on-Trent",53.0027,"-2.1794",-49.8822,-17.7942,18.8719,55.0027
"359","MEME",179,"MEME - Erasmus Mundus Master Programme in Evolutionary Biology","http://www.evobio.eu/","Ludwig Maximilians University of Munich","Germany","Munich",48.1351,"11.582",-73.1097,40.3736,19.6389,61.8586
"360","MEME",488,"MEME - Erasmus Mundus Master Programme in Evolutionary Biology","http://www.evobio.eu/","Harvard University","USA","Cambridge",42.3736,"-71.1097",-73.1097,40.3736,19.6389,61.8586
"361","MEME",76,"MEME - Erasmus Mundus Master Programme in Evolutionary Biology","http://www.evobio.eu/","University of Groningen","The Netherlands","Groningen",53.2194,"6.5665",-73.1097,40.3736,19.6389,61.8586
"362","MEME",385,"MEME - Erasmus Mundus Master Programme in Evolutionary Biology","http://www.evobio.eu/","University of Montpellier 2","France","Montpellier",43.6108,"3.8767",-73.1097,40.3736,19.6389,61.8586
"363","MEME",282,"MEME - Erasmus Mundus Master Programme in Evolutionary Biology","http://www.evobio.eu/","Uppsala University","Sweden","Uppsala",59.8586,"17.6389",-73.1097,40.3736,19.6389,61.8586
"364","MEREMMC",180,"MEREMMC - European MSc in Marine Environment and Resources","http://www.merconsortium.eu/","Bordeaux University","France","Bordeaux",44.8378,"-0.5792",-4.9901,41.3267,7.5591,52.9097
"365","MEREMMC",77,"MEREMMC - European MSc in Marine Environment and Resources","http://www.merconsortium.eu/","University of Southampton","UK","Southampton",50.9097,"-1.4044",-4.9901,41.3267,7.5591,52.9097
"366","MEREMMC",283,"MEREMMC - European MSc in Marine Environment and Resources","http://www.merconsortium.eu/","Liège University","Belgium","Liège",50.5831,"5.5591",-4.9901,41.3267,7.5591,52.9097
"367","MEREMMC",386,"MEREMMC - European MSc in Marine Environment and Resources","http://www.merconsortium.eu/","University of the Basque Country","Spain","Leioa",43.3267,"-2.9901",-4.9901,41.3267,7.5591,52.9097
"368","MFAMILY",181,"MFAMILY - European Master in Social Work with Families and Children","http://www.mfamily.eu/","University of Gothenburg","Sweden","Gothenburg",57.7089,"11.9746",-11.1393,-1.6524,34.5825,60.97
"369","MFAMILY",284,"MFAMILY - European Master in Social Work with Families and Children","http://www.mfamily.eu/","University of Stavanger","Norway","Stavanger",58.97,"5.7331",-11.1393,-1.6524,34.5825,60.97
"370","MFAMILY",78,"MFAMILY - European Master in Social Work with Families and Children","http://www.mfamily.eu/","University Institute of Lisbon","Portugal","Lisbon",38.7223,"-9.1393",-11.1393,-1.6524,34.5825,60.97
"371","MFAMILY",387,"MFAMILY - European Master in Social Work with Families and Children","http://www.mfamily.eu/","Makerere University","Uganda","Kampala",0.3476,"32.5825",-11.1393,-1.6524,34.5825,60.97
"372","MIM",285,"MIM - Crossing the Mediterranean: towards investment and integration","http://www.mastermimplus.eu/","Ca' Foscari University of Venice","Italy","Venice",45.4408,"12.3155",0.1734,39.3851,14.3155,47.4408
"373","MIM",79,"MIM - Crossing the Mediterranean: towards investment and integration","http://www.mastermimplus.eu/","Autonomous University of Barcelona","Spain","Barcelona",41.3851,"2.1734",0.1734,39.3851,14.3155,47.4408
"374","MIM",182,"MIM - Crossing the Mediterranean: towards investment and integration","http://www.mastermimplus.eu/","Paul-Valery Montpellier University","France","Montpellier",43.6108,"3.8767",0.1734,39.3851,14.3155,47.4408
"375","MITRA",80,"MITRA - Master en médiation interculturelle: identités, mobilités, conflits","http://mastermitra.univ-lille3.fr/","University of Lille","France","Lille",50.6292,"3.0573",-45.1729,-24.9068,25.6236,53.8969
"376","MITRA",595,"MITRA - Master en médiation interculturelle: identités, mobilités, conflits","http://mastermitra.univ-lille3.fr/","Federal University of Rio de Janeiro","Brazil","Rio de Janeiro",-22.9068,"-43.1729",-45.1729,-24.9068,25.6236,53.8969
"377","MITRA",389,"MITRA - Master en médiation interculturelle: identités, mobilités, conflits","http://mastermitra.univ-lille3.fr/","Babes-Bolyai University","Romania","Cluj",46.7712,"23.6236",-45.1729,-24.9068,25.6236,53.8969
"378","MITRA",492,"MITRA - Master en médiation interculturelle: identités, mobilités, conflits","http://mastermitra.univ-lille3.fr/","University Cheikh Anta Diop de Dakar","Senegal","Dakar",14.7645,"-17.366",-45.1729,-24.9068,25.6236,53.8969
"379","MITRA",183,"MITRA - Master en médiation interculturelle: identités, mobilités, conflits","http://mastermitra.univ-lille3.fr/","Katholieke KU Leuven","Belgium","Leuven",50.8798,"4.7005",-45.1729,-24.9068,25.6236,53.8969
"380","MITRA",286,"MITRA - Master en médiation interculturelle: identités, mobilités, conflits","http://mastermitra.univ-lille3.fr/","University College Cork","Ireland","Cork",51.8969,"-8.4863",-45.1729,-24.9068,25.6236,53.8969
"381","MONABIP",493,"MONABIP - Molecular Nano- and Biophotonics","http://www.monabiphot.ens-cachan.fr/","Paris Descartes University - Paris 5","France","Paris",48.8566,"2.3522",-5.7038,38.4168,19.0385,53.1079
"382","MONABIP",81,"MONABIP - Molecular Nano- and Biophotonics","http://www.monabiphot.ens-cachan.fr/","Cachan Normal Superior University","France","Cachan",48.7919,"2.3314",-5.7038,38.4168,19.0385,53.1079
"383","MONABIP",184,"MONABIP - Molecular Nano- and Biophotonics","http://www.monabiphot.ens-cachan.fr/","Complutense University of Madrid","Spain","Madrid",40.4168,"-3.7038",-5.7038,38.4168,19.0385,53.1079
"384","MONABIP",287,"MONABIP - Molecular Nano- and Biophotonics","http://www.monabiphot.ens-cachan.fr/","Wroclaw University of Technology","Poland","Wroclaw",51.1079,"17.0385",-5.7038,38.4168,19.0385,53.1079
"385","MONABIP",390,"MONABIP - Molecular Nano- and Biophotonics","http://www.monabiphot.ens-cachan.fr/","University of Wroclaw","Poland","Wroclaw",51.1079,"17.0385",-5.7038,38.4168,19.0385,53.1079
"386","MSPME",288,"MSPME - Masters in Strategic Project Management (European)","http://www.mspme.org/","Umea University","Sweden","Umea",63.8258,"20.263",-5.1883,43.4654,22.263,65.8258
"387","MSPME",185,"MSPME - Masters in Strategic Project Management (European)","http://www.mspme.org/","Polytechnic University of Milan","Italy","Milan",45.4654,"9.1859",-5.1883,43.4654,22.263,65.8258
"388","MSPME",82,"MSPME - Masters in Strategic Project Management (European)","http://www.mspme.org/","Heriot Watt Universit","UK","Edinburgh",55.9533,"-3.1883",-5.1883,43.4654,22.263,65.8258
"389","MUNDUS JOURNALISM",392,"MUNDUS JOURNALISM - Erasmus Mundus Masters Journalism, Media and Globalisation","http://www.mundusjournalism.com/","Swansea University","UK","Swansea",51.6214,"-3.9436",-5.9436,49.5074,11.9937,55.5511
"390","MUNDUS JOURNALISM",186,"MUNDUS JOURNALISM - Erasmus Mundus Masters Journalism, Media and Globalisation","http://www.mundusjournalism.com/","City University London","UK","London",51.5074,"-0.1278",-5.9436,49.5074,11.9937,55.5511
"391","MUNDUS JOURNALISM",289,"MUNDUS JOURNALISM - Erasmus Mundus Masters Journalism, Media and Globalisation","http://www.mundusjournalism.com/","University of Hamburg","Germany","Hamburg",53.5511,"9.9937",-5.9436,49.5074,11.9937,55.5511
"392","MUNDUS JOURNALISM",83,"MUNDUS JOURNALISM - Erasmus Mundus Masters Journalism, Media and Globalisation","http://www.mundusjournalism.com/","University of Amsterdam","The Netherlands","Amsterdam",52.3702,"4.8952",-5.9436,49.5074,11.9937,55.5511
"393","MUNDUS MAPP",187,"MUNDUS MAPP - Erasmus Mundus Master's in Public Policy","http://www.mundusmapp.org/","International Institute of Social Studies of Erasmus University Rotterdam","Netherlands","The Hague",52.0705,"4.3007",-3.0873,39.3851,21.0402,55.96
"394","MUNDUS MAPP",84,"MUNDUS MAPP - Erasmus Mundus Master's in Public Policy","http://www.mundusmapp.org/","Central European University","Hungary","Budapest",47.4979,"19.0402",-3.0873,39.3851,21.0402,55.96
"395","MUNDUS MAPP",393,"MUNDUS MAPP - Erasmus Mundus Master's in Public Policy","http://www.mundusmapp.org/","Barcelona University","Spain","Barcelona",41.3851,"2.1734",-3.0873,39.3851,21.0402,55.96
"396","MUNDUS MAPP",290,"MUNDUS MAPP - Erasmus Mundus Master's in Public Policy","http://www.mundusmapp.org/","University of York","UK","York",53.96,"-1.0873",-3.0873,39.3851,21.0402,55.96
"397","MUNDUS URBANO",188,"MUNDUS URBANO - Master of Science in International Cooperation and Urban Development","http://www.mundus-urbano.eu/","Darmstadt University","Germany","Darmstadt",49.8728,"8.6512",0.1734,39.3851,14.4964,51.8728
"398","MUNDUS URBANO",291,"MUNDUS URBANO - Master of Science in International Cooperation and Urban Development","http://www.mundus-urbano.eu/","University of Catalonia","Spain","Barcelona",41.3851,"2.1734",0.1734,39.3851,14.4964,51.8728
"399","MUNDUS URBANO",85,"MUNDUS URBANO - Master of Science in International Cooperation and Urban Development","http://www.mundus-urbano.eu/","University of Grenoble- Alpes","France","Grenoble",45.1885,"5.7245",0.1734,39.3851,14.4964,51.8728
"400","MUNDUS URBANO",394,"MUNDUS URBANO - Master of Science in International Cooperation and Urban Development","http://www.mundus-urbano.eu/","University of Rome Tor Vergata","Italy","Rome",41.9028,"12.4964",0.1734,39.3851,14.4964,51.8728
"401","NOMADS EMMC",292,"NOMADS EMMC - The ”Doc Nomads” Joint Master in Documentary Film Directing","http://www.docnomads.eu/","the National Royal Hungarian Academy of Music and Drama","Hungry","Budapest",47.4979,"19.0402",-11.1393,36.7223,21.0402,52.8503
"402","NOMADS EMMC",86,"NOMADS EMMC - The ”Doc Nomads” Joint Master in Documentary Film Directing","http://www.docnomads.eu/","Lusofona University","Portugal","Lisbon",38.7223,"-9.1393",-11.1393,36.7223,21.0402,52.8503
"403","NOMADS EMMC",189,"NOMADS EMMC - The ”Doc Nomads” Joint Master in Documentary Film Directing","http://www.docnomads.eu/","Luca School of Arts","Belgium","Brussels",50.8503,"4.3517",-11.1393,36.7223,21.0402,52.8503
"404","PERCCOM",190,"PERCCOM - PERvasive Computing & COMmunications for Sustainable Development","http://perccom.univ-lorraine.fr/","University of Lorraine","France","Nancy",48.6921,"6.1844",-1.6649,46.6921,30.1897,67.5848
"405","PERCCOM",87,"PERCCOM - PERvasive Computing & COMmunications for Sustainable Development","http://perccom.univ-lorraine.fr/","Lulea University of Technology","Sweden","Lulea",65.5848,"22.1567",-1.6649,46.6921,30.1897,67.5848
"406","PERCCOM",396,"PERCCOM - PERvasive Computing & COMmunications for Sustainable Development","http://perccom.univ-lorraine.fr/","Lappeenranta University of Technology","Finland","Lappeenranta",61.055,"28.1897",-1.6649,46.6921,30.1897,67.5848
"407","PERCCOM",293,"PERCCOM - PERvasive Computing & COMmunications for Sustainable Development","http://perccom.univ-lorraine.fr/","ITMO University","Russia","Saint Petersburg",59.9343,"0.3351",-1.6649,46.6921,30.1897,67.5848
"408","PLANET Europe",294,"PLANET Europe - Joint Masters Programme on European Spatial Planning, Environmental Policies and Regional Development","http://www.planet-europe.eu/","Cardiff University","UK","Cardiff",51.4816,"-3.1791",-5.1791,49.4816,17.5869,58.1612
"409","PLANET Europe",88,"PLANET Europe - Joint Masters Programme on European Spatial Planning, Environmental Policies and Regional Development","http://www.planet-europe.eu/","Radboud University Nijmegen","The Netherlands","Nijmegen",51.8126,"5.8372",-5.1791,49.4816,17.5869,58.1612
"410","PLANET Europe",191,"PLANET Europe - Joint Masters Programme on European Spatial Planning, Environmental Policies and Regional Development","http://www.planet-europe.eu/","Blekinge Institute of Technology","Sweden","Karlskrona",56.1612,"15.5869",-5.1791,49.4816,17.5869,58.1612
"411","PlantHealth",398,"PlantHealth - European Master degree in Plant Health in Sustainable Cropping Systems","http://planthealth.upv.es/","AgroParisTech","France","Paris",48.8566,"2.3522",-3.6778,37.4699,13.8768,53.5413
"412","PlantHealth",192,"PlantHealth - European Master degree in Plant Health in Sustainable Cropping Systems","http://planthealth.upv.es/","University of Göttingen","Germany","Göttingen",51.5413,"9.9158",-3.6778,37.4699,13.8768,53.5413
"413","PlantHealth",295,"PlantHealth - European Master degree in Plant Health in Sustainable Cropping Systems","http://planthealth.upv.es/","Agrocampus Ouest","France","Rennes",48.1173,"-1.6778",-3.6778,37.4699,13.8768,53.5413
"414","PlantHealth",89,"PlantHealth - European Master degree in Plant Health in Sustainable Cropping Systems","http://planthealth.upv.es/","Technical University of Valencia","Spain","Valencia",39.4699,"-0.3763",-3.6778,37.4699,13.8768,53.5413
"415","PlantHealth",604,"PlantHealth - European Master degree in Plant Health in Sustainable Cropping Systems","http://planthealth.upv.es/","University of Padova","Italy","Padova",45.4064,"11.8768",-3.6778,37.4699,13.8768,53.5413
"416","PlantHealth",501,"PlantHealth - European Master degree in Plant Health in Sustainable Cropping Systems","http://planthealth.upv.es/","Montpellier SupAgro","France","Montpellier",43.6108,"3.8767",-3.6778,37.4699,13.8768,53.5413
"417","QEM",90,"QEM - Models and Methods of Quantitative Economics","http://erasmusmundus-qem.univ-paris1.fr/","Bielefeld University","Germany","Bielefeld",52.0302,"8.5325",0.1734,39.3851,14.3155,54.0302
"418","QEM",296,"QEM - Models and Methods of Quantitative Economics","http://erasmusmundus-qem.univ-paris1.fr/","Autonomous University of Barcelona","Spain","Barcelona",41.3851,"2.1734",0.1734,39.3851,14.3155,54.0302
"419","QEM",193,"QEM - Models and Methods of Quantitative Economics","http://erasmusmundus-qem.univ-paris1.fr/","Pantheon-Sorbonne University","France","Paris",48.8566,"2.3522",0.1734,39.3851,14.3155,54.0302
"420","QEM",399,"QEM - Models and Methods of Quantitative Economics","http://erasmusmundus-qem.univ-paris1.fr/","Ca' Foscari University of Venice","Italy","Venice",45.4408,"12.3155",0.1734,39.3851,14.3155,54.0302
"421","SAHC",400,"SAHC - Advanced Masters in Structural Analysis of Monuments and Historical Constructions","http://www.msc-sahc.org/","University of Padova","Italy","Padova",45.4064,"11.8768",-10.2918,39.3851,16.4378,52.0755
"422","SAHC",194,"SAHC - Advanced Masters in Structural Analysis of Monuments and Historical Constructions","http://www.msc-sahc.org/","Czech Technical University in Prague","Czech Republic","Prague",50.0755,"14.4378",-10.2918,39.3851,16.4378,52.0755
"423","SAHC",91,"SAHC - Advanced Masters in Structural Analysis of Monuments and Historical Constructions","http://www.msc-sahc.org/","University of Minho","Portugal","Guimarães",41.4425,"-8.2918",-10.2918,39.3851,16.4378,52.0755
"424","SAHC",297,"SAHC - Advanced Masters in Structural Analysis of Monuments and Historical Constructions","http://www.msc-sahc.org/","Technical University of Catalonia","Spain","Barcelona",41.3851,"2.1734",-10.2918,39.3851,16.4378,52.0755
"425","SPACEMASTER",710,"SPACEMASTER - EMMC in Space Science and Technology","http://www.spacemaster.eu/","University of Tokyo","Japan","Tokyo",35.6895,"139.6917",-2.6087,33.6895,141.6917,67.5848
"426","SPACEMASTER",607,"SPACEMASTER - EMMC in Space Science and Technology","http://www.spacemaster.eu/","Paul Sabatier University","France","Toulouse",43.6047,"1.4442",-2.6087,33.6895,141.6917,67.5848
"427","SPACEMASTER",92,"SPACEMASTER - EMMC in Space Science and Technology","http://www.spacemaster.eu/","Lulea University of Technology","Sweden","Lulea",65.5848,"22.1567",-2.6087,33.6895,141.6917,67.5848
"428","SPACEMASTER",504,"SPACEMASTER - EMMC in Space Science and Technology","http://www.spacemaster.eu/","Aalto University","Finland","Helsinki",60.1699,"24.9384",-2.6087,33.6895,141.6917,67.5848
"429","SPACEMASTER",195,"SPACEMASTER - EMMC in Space Science and Technology","http://www.spacemaster.eu/","University of Würzburg","Germany","Würzburg",49.7913,"9.9534",-2.6087,33.6895,141.6917,67.5848
"430","SPACEMASTER",298,"SPACEMASTER - EMMC in Space Science and Technology","http://www.spacemaster.eu/","Cranfield University","UK","Cranfield",52.0686,"-0.6087",-2.6087,33.6895,141.6917,67.5848
"431","SPACEMASTER",401,"SPACEMASTER - EMMC in Space Science and Technology","http://www.spacemaster.eu/","Czech Technical University","Czech Republic","Prague",50.0755,"14.4378",-2.6087,33.6895,141.6917,67.5848
"432","SSI",196,"SSI - Joint International Master in Smart Systems Integration","http://ssi-master.eu/","Buskerud and Vestfold University College","Norway","Vestfold",59.1708,"10.1144",-5.1883,45.4979,21.0402,61.1708
"433","SSI",93,"SSI - Joint International Master in Smart Systems Integration","http://ssi-master.eu/","Heriot Watt University","UK","Edinburgh",55.9533,"-3.1883",-5.1883,45.4979,21.0402,61.1708
"434","SSI",299,"SSI - Joint International Master in Smart Systems Integration","http://ssi-master.eu/","Budapest University of Technology and Economics","Hungary","Budapest",47.4979,"19.0402",-5.1883,45.4979,21.0402,61.1708
"435","STEPS",300,"STEPS - Erasmus Mundus Master Course in Sustainable Transportation and Electrical Power Systems","http://emmcsteps.uniovi.es/","University of Rome","Italy","Rome",41.9028,"12.4964",-10.4404,38.2048,14.4964,54.9548
"436","STEPS",197,"STEPS - Erasmus Mundus Master Course in Sustainable Transportation and Electrical Power Systems","http://emmcsteps.uniovi.es/","University of Nottingham","UK","Nottingham",52.9548,"-1.1581",-10.4404,38.2048,14.4964,54.9548
"437","STEPS",94,"STEPS - Erasmus Mundus Master Course in Sustainable Transportation and Electrical Power Systems","http://emmcsteps.uniovi.es/","University of Oviedo","Spain","Oviedo",43.3619,"-5.8494",-10.4404,38.2048,14.4964,54.9548
"438","STEPS",403,"STEPS - Erasmus Mundus Master Course in Sustainable Transportation and Electrical Power Systems","http://emmcsteps.uniovi.es/","Institute Polytechnic of Coimbra","Portugal","Coimbra",40.2048,"-8.4404",-10.4404,38.2048,14.4964,54.9548
"439","SUFONAMA",198,"SUFONAMA - Sustainable Forest and Nature Management","http://sufonama.eu/","Bangor University","UK","Bangor",53.2274,"-4.1239",-6.1239,43.4064,15.0824,57.6761
"440","SUFONAMA",507,"SUFONAMA - Sustainable Forest and Nature Management","http://sufonama.eu/","University of Padova","Italy","Padova",45.4064,"11.8768",-6.1239,43.4064,15.0824,57.6761
"441","SUFONAMA",301,"SUFONAMA - Sustainable Forest and Nature Management","http://sufonama.eu/","University of Göttingen","Germany","Göttingen",51.5413,"9.9158",-6.1239,43.4064,15.0824,57.6761
"442","SUFONAMA",404,"SUFONAMA - Sustainable Forest and Nature Management","http://sufonama.eu/","Swedish University of Agricultural Sciences, Alnarp","Sweden","Alnarp",55.6576,"13.0824",-6.1239,43.4064,15.0824,57.6761
"443","SUFONAMA",95,"SUFONAMA - Sustainable Forest and Nature Management","http://sufonama.eu/","University of Copenhagen","Denmark","Copenhagen",55.6761,"12.5683",-6.1239,43.4064,15.0824,57.6761
"444","SUSCOS",302,"SUSCOS - Sustainable Constructions under Natural Hazards and Catastrophic Events","http://steel.fsv.cvut.cz/suscos/","University of Naples Federico II","Italy","Napoli",40.8518,"14.2681",-10.4404,38.2048,24.1567,67.5848
"445","SUSCOS",611,"SUSCOS - Sustainable Constructions under Natural Hazards and Catastrophic Events","http://steel.fsv.cvut.cz/suscos/","Lulea University of Technology","Sweden","Lulea",65.5848,"22.1567",-10.4404,38.2048,24.1567,67.5848
"446","SUSCOS",508,"SUSCOS - Sustainable Constructions under Natural Hazards and Catastrophic Events","http://steel.fsv.cvut.cz/suscos/","Politehnica University of Timisoara","Romania","Timisoara",45.7489,"21.2087",-10.4404,38.2048,24.1567,67.5848
"447","SUSCOS",405,"SUSCOS - Sustainable Constructions under Natural Hazards and Catastrophic Events","http://steel.fsv.cvut.cz/suscos/","University of Coimbra","Portugal","Coimbra",40.2048,"-8.4404",-10.4404,38.2048,24.1567,67.5848
"448","SUSCOS",199,"SUSCOS - Sustainable Constructions under Natural Hazards and Catastrophic Events","http://steel.fsv.cvut.cz/suscos/","University of Liège","Belgium","Liège",50.5831,"5.5591",-10.4404,38.2048,24.1567,67.5848
"449","SUSCOS",96,"SUSCOS - Sustainable Constructions under Natural Hazards and Catastrophic Events","http://steel.fsv.cvut.cz/suscos/","Czech Technical University in Prague","Czech Republic","Prague",50.0755,"14.4378",-10.4404,38.2048,24.1567,67.5848
"450","TCCM",715,"TCCM - Euromaster on Theoretical Chemistry and Computational Modelling","http://www.emtccm.org/","University of Porto","Portugal","Porto",41.1579,"-8.6291",-10.6291,37.4699,14.3908,55.2194
"451","TCCM",509,"TCCM - Euromaster on Theoretical Chemistry and Computational Modelling","http://www.emtccm.org/","University of Perugia","Italy","Perugia",43.1107,"12.3908",-10.6291,37.4699,14.3908,55.2194
"452","TCCM",612,"TCCM - Euromaster on Theoretical Chemistry and Computational Modelling","http://www.emtccm.org/","Paul Sabatier University","France","Toulouse",43.6047,"1.4442",-10.6291,37.4699,14.3908,55.2194
"453","TCCM",200,"TCCM - Euromaster on Theoretical Chemistry and Computational Modelling","http://www.emtccm.org/","University of Valencia","Spain","Valencia",39.4699,"-0.3763",-10.6291,37.4699,14.3908,55.2194
"454","TCCM",303,"TCCM - Euromaster on Theoretical Chemistry and Computational Modelling","http://www.emtccm.org/","University of Groningen","Netherlands","Groningen",53.2194,"6.5665",-10.6291,37.4699,14.3908,55.2194
"455","TCCM",406,"TCCM - Euromaster on Theoretical Chemistry and Computational Modelling","http://www.emtccm.org/","Catholic University of Leuven","Belgium","Leuven",50.8798,"4.7005",-10.6291,37.4699,14.3908,55.2194
"456","TCCM",97,"TCCM - Euromaster on Theoretical Chemistry and Computational Modelling","http://www.emtccm.org/","Autonomous University of Madrid","Spain","Madrid",40.4168,"-3.7038",-10.6291,37.4699,14.3908,55.2194
"457","TPTI",201,"TPTI - Techniques, Patrimoine, Territoires de l'Industrie","http://www.tpti.eu/","University of Evora","Portugal","Evora",38.5707,"-7.9093",-9.9093,36.5707,13.8768,50.8566
"458","TPTI",304,"TPTI - Techniques, Patrimoine, Territoires de l'Industrie","http://www.tpti.eu/","University of Padova","Italy","Padova",45.4064,"11.8768",-9.9093,36.5707,13.8768,50.8566
"459","TPTI",98,"TPTI - Techniques, Patrimoine, Territoires de l'Industrie","http://www.tpti.eu/","University of Paris 1 Pantheon-Sorbonne","France","Paris",48.8566,"2.3522",-9.9093,36.5707,13.8768,50.8566
"460","TRIBOS",408,"TRIBOS - Joint European master in tribology of surfaces and interfaces","http://www.master-tribos.eu/","Lulea University of Technology","Sweden","Lulea",65.5848,"22.1567",-10.4404,38.2048,24.1567,67.5848
"461","TRIBOS",305,"TRIBOS - Joint European master in tribology of surfaces and interfaces","http://www.master-tribos.eu/","University of Coimbra","Portugal","Coimbra",40.2048,"-8.4404",-10.4404,38.2048,24.1567,67.5848
"462","TRIBOS",202,"TRIBOS - Joint European master in tribology of surfaces and interfaces","http://www.master-tribos.eu/","University of Ljubljana","Slovenia","Ljubljana",46.0569,"14.5058",-10.4404,38.2048,24.1567,67.5848
"463","TRIBOS",99,"TRIBOS - Joint European master in tribology of surfaces and interfaces","http://www.master-tribos.eu/","University of Leeds","UK","Leeds",53.8008,"-1.5491",-10.4404,38.2048,24.1567,67.5848
"464","TROPIMUNDO",512,"TROPIMUNDO - Erasmus Mundus Masters Course in Tropical Biodiversity and Ecosystems","http://www.tropimundo.eu/","Université de Dschang","Cameroon","Dschang",5.4459,"10.0472",0.3522,-29.4954,155.012,52.8503
"465","TROPIMUNDO",306,"TROPIMUNDO - Erasmus Mundus Masters Course in Tropical Biodiversity and Ecosystems","http://www.tropimundo.eu/","Pierre and Marie Curie University","France","Paris",48.8566,"2.3522",0.3522,-29.4954,155.012,52.8503
"466","TROPIMUNDO",615,"TROPIMUNDO - Erasmus Mundus Masters Course in Tropical Biodiversity and Ecosystems","http://www.tropimundo.eu/","Universiti Malaysia Terengganu","Malaysia","Kuala Terengganu",5.3296,"103.137",0.3522,-29.4954,155.012,52.8503
"467","TROPIMUNDO",100,"TROPIMUNDO - Erasmus Mundus Masters Course in Tropical Biodiversity and Ecosystems","http://www.tropimundo.eu/","Free University of Brussels","Belgium","Brussels",50.8503,"4.3517",0.3522,-29.4954,155.012,52.8503
"468","TROPIMUNDO",409,"TROPIMUNDO - Erasmus Mundus Masters Course in Tropical Biodiversity and Ecosystems","http://www.tropimundo.eu/","University of Florence","Italy","Florence",43.7696,"11.2558",0.3522,-29.4954,155.012,52.8503
"469","TROPIMUNDO",203,"TROPIMUNDO - Erasmus Mundus Masters Course in Tropical Biodiversity and Ecosystems","http://www.tropimundo.eu/","Free University of Brussels","Belgium","Brussels",50.8503,"4.3517",0.3522,-29.4954,155.012,52.8503
"470","TROPIMUNDO",718,"TROPIMUNDO - Erasmus Mundus Masters Course in Tropical Biodiversity and Ecosystems","http://www.tropimundo.eu/","University of Queensland","Australia","Brisbane",-27.4954,"153.012",0.3522,-29.4954,155.012,52.8503
"471","VINIFERA",410,"VINIFERA EuroMaster - European Master of Science of Viticulture and Enology","http://vinifera-euromaster.eu/","Udine University","Italy","Udine",46.0711,"13.2346",-11.1393,36.7223,15.2346,51.9844
"472","VINIFERA",822,"VINIFERA EuroMaster - European Master of Science of Viticulture and Enology","http://vinifera-euromaster.eu/","School of Agronomy Ð University of Lisbon","Portugal","Lisbon",38.7223,"-9.1393",-11.1393,36.7223,15.2346,51.9844
"473","VINIFERA",719,"VINIFERA EuroMaster - European Master of Science of Viticulture and Enology","http://vinifera-euromaster.eu/","Technical University of Madrid","Spain","Madrid",40.4168,"-3.7038",-11.1393,36.7223,15.2346,51.9844
"474","VINIFERA",616,"VINIFERA EuroMaster - European Master of Science of Viticulture and Enology","http://vinifera-euromaster.eu/","University of Lisbon","Portugal","Lisbon",38.7223,"-9.1393",-11.1393,36.7223,15.2346,51.9844
"475","VINIFERA",925,"VINIFERA EuroMaster - European Master of Science of Viticulture and Enology","http://vinifera-euromaster.eu/","Polytechnic University of Madrid","Spain","Madrid",40.4168,"-3.7038",-11.1393,36.7223,15.2346,51.9844
"476","VINIFERA",1028,"VINIFERA EuroMaster - European Master of Science of Viticulture and Enology","http://vinifera-euromaster.eu/","University of Turin","Italy","Turin",45.0703,"7.6869",-11.1393,36.7223,15.2346,51.9844
"477","VINIFERA",204,"VINIFERA EuroMaster - European Master of Science of Viticulture and Enology","http://vinifera-euromaster.eu/","Bordeaux Sciences Agro","France","Bordeaux",44.8378,"-0.5792",-11.1393,36.7223,15.2346,51.9844
"478","VINIFERA",513,"VINIFERA EuroMaster - European Master of Science of Viticulture and Enology","http://vinifera-euromaster.eu/","University of Turin","Italy","Turin",45.0703,"7.6869",-11.1393,36.7223,15.2346,51.9844
"479","VINIFERA",101,"VINIFERA EuroMaster - European Master of Science of Viticulture and Enology","http://vinifera-euromaster.eu/","Montpellier SupAgro","France","Montpellier",43.6108,"3.8767",-11.1393,36.7223,15.2346,51.9844
"480","VINIFERA",307,"VINIFERA EuroMaster - European Master of Science of Viticulture and Enology","http://vinifera-euromaster.eu/","Hochschule Geisenheim University","Germany","Geisenheim",49.9844,"7.9614",-11.1393,36.7223,15.2346,51.9844
"481","WACOMA",617,"WACOMA - Erasmus Mundus Master in Water and Coastal Management","http://erasmusmundus.uca.es/en/content,3,erasmus-mundus","University of Algarve","Portugal","Faro",37.0194,"-7.9304",-48.330376,-25.944841,123.544,61.9343
"482","WACOMA",205,"WACOMA - Erasmus Mundus Master in Water and Coastal Management","http://erasmusmundus.uca.es/en/content,3,erasmus-mundus","University of Cadiz","Spain","Cadiz",36.5271,"-6.2886",-48.330376,-25.944841,123.544,61.9343
"483","WACOMA",102,"WACOMA - Erasmus Mundus Master in Water and Coastal Management","http://erasmusmundus.uca.es/en/content,3,erasmus-mundus","University of Bologna","Italy","Bologna",44.4949,"11.3426",-48.330376,-25.944841,123.544,61.9343
"484","WACOMA",411,"WACOMA - Erasmus Mundus Master in Water and Coastal Management","http://erasmusmundus.uca.es/en/content,3,erasmus-mundus","University of Santa Cecilia","Brazil","Santos",-23.944841,"-46.330376",-48.330376,-25.944841,123.544,61.9343
"485","WACOMA",308,"WACOMA - Erasmus Mundus Master in Water and Coastal Management","http://erasmusmundus.uca.es/en/content,3,erasmus-mundus","University of Ningbo","China","Ningbo",29.8683,"121.544",-48.330376,-25.944841,123.544,61.9343
"486","WACOMA",514,"WACOMA - Erasmus Mundus Master in Water and Coastal Management","http://erasmusmundus.uca.es/en/content,3,erasmus-mundus","Russian State Hydrometeorological University","Russia","Saint Petersburg",59.9343,"0.3351",-48.330376,-25.944841,123.544,61.9343
"487","WINTOUR",103,"WINTOUR - EMJMD on Wine Tourism Innovation","http://www.wintour-master.eu/en_index/","University Rovira i Virgili","Spain","Tarragona",41.1189,"1.2445",-10.6291,39.1189,3.2445,46.8378
"488","WINTOUR",309,"WINTOUR - EMJMD on Wine Tourism Innovation","http://www.wintour-master.eu/en_index/","University of Porto","Portugal","Porto",41.1579,"-8.6291",-10.6291,39.1189,3.2445,46.8378
"489","WINTOUR",206,"WINTOUR - EMJMD on Wine Tourism Innovation","http://www.wintour-master.eu/en_index/","University of Bordeaux","France","Bordeaux",44.8378,"-0.5792",-10.6291,39.1189,3.2445,46.8378
