X,Y,field_1,city,course1,course2,course3,course4,course5,course6,course7,course8,course9,course10,course11,course12,course13,course14,course15,course16,lon,lat,website1,website2,website3,website4,website5,website6,website7,website8,website9,website10,website11,website12,website13,website14,website15,website16,code,title
9.921747,57.0488195,1,Aalborg,JEMES,Media AC,ADVANCES,DCLead,NA,NA,NA,NA,NA,NA,NA,NA,NA,NA,NA,NA,9.921747,57.0488195,http://www.jemes-cisu.eu/,http://www.mediaartscultures.eu/,http://www.socialworkadvances.org/,http://www.dclead.eu/,NA,NA,NA,NA,NA,NA,NA,NA,NA,NA,NA,NA,Aalborg,Aalborg
10.203921,56.162939,2,Aarhus,EM-SANF,NA,NA,NA,NA,NA,NA,NA,NA,NA,NA,NA,NA,NA,NA,NA,10.203921,56.162939,http://www.emsanf.eu/UK/,NA,NA,NA,NA,NA,NA,NA,NA,NA,NA,NA,NA,NA,NA,NA,Aarhus,Aarhus
5.447427,43.529742,3,Aix-en-Provence,EMLE,NA,NA,NA,NA,NA,NA,NA,NA,NA,NA,NA,NA,NA,NA,NA,5.447427,43.529742,http://www.emle.org/,NA,NA,NA,NA,NA,NA,NA,NA,NA,NA,NA,NA,NA,NA,NA,Aix-en-Provence,Aix-en-Provence
76.8512485,43.2220146,4,Almaty,IMRCEES,NA,NA,NA,NA,NA,NA,NA,NA,NA,NA,NA,NA,NA,NA,NA,76.8512485,43.2220146,http://www.gla.ac.uk/postgraduate/erasmusmundus/imrcees/,NA,NA,NA,NA,NA,NA,NA,NA,NA,NA,NA,NA,NA,NA,NA,Almaty,Almaty
13.0823602,55.6576454,5,Alnarp,SUFONAMA,NA,NA,NA,NA,NA,NA,NA,NA,NA,NA,NA,NA,NA,NA,NA,13.0823602,55.6576454,http://sufonama.eu/,NA,NA,NA,NA,NA,NA,NA,NA,NA,NA,NA,NA,NA,NA,NA,Alnarp,Alnarp
4.8951679,52.3702157,6,Amsterdam,ATOSIM,MUNDUS JOURNALISM,GLOBED,NA,NA,NA,NA,NA,NA,NA,NA,NA,NA,NA,NA,NA,4.8951679,52.3702157,http://www.erasmusmundus-atosim.cecam.org/,http://www.mundusjournalism.com/,http://globed.eu/,NA,NA,NA,NA,NA,NA,NA,NA,NA,NA,NA,NA,NA,Amsterdam,Amsterdam
32.8597419,39.9333635,7,Ankara,MEEES,NA,NA,NA,NA,NA,NA,NA,NA,NA,NA,NA,NA,NA,NA,NA,32.8597419,39.9333635,http://www.meees.org/,NA,NA,NA,NA,NA,NA,NA,NA,NA,NA,NA,NA,NA,NA,NA,Ankara,Ankara
4.4024643,51.2194475,8,Antwerp,MEGEI,EUCOMOR,LIVE,NA,NA,NA,NA,NA,NA,NA,NA,NA,NA,NA,NA,NA,4.4024643,51.2194475,http://www.ua.ac.be/egei,http://www.eucomor.net/,http://live.univ-lyon1.fr/,NA,NA,NA,NA,NA,NA,NA,NA,NA,NA,NA,NA,NA,Antwerp,Antwerp
10.89779,48.3705449,9,Augsburg,FAME,NA,NA,NA,NA,NA,NA,NA,NA,NA,NA,NA,NA,NA,NA,NA,10.89779,48.3705449,http://www.fame-master.com/,NA,NA,NA,NA,NA,NA,NA,NA,NA,NA,NA,NA,NA,NA,NA,Augsburg,Augsburg
-8.6536321,40.6413266,10,Aveiro,JEMES,FAME,NA,NA,NA,NA,NA,NA,NA,NA,NA,NA,NA,NA,NA,NA,-8.6536321,40.6413266,http://www.jemes-cisu.eu/,http://www.fame-master.com/,NA,NA,NA,NA,NA,NA,NA,NA,NA,NA,NA,NA,NA,NA,Aveiro,Aveiro
-4.129263,53.22739,11,Bangor,SUFONAMA,NA,NA,NA,NA,NA,NA,NA,NA,NA,NA,NA,NA,NA,NA,NA,-4.129263,53.22739,http://sufonama.eu/,NA,NA,NA,NA,NA,NA,NA,NA,NA,NA,NA,NA,NA,NA,NA,Bangor,Bangor
2.1734035,41.3850639,12,Barcelona,MATHMODS,GLOBED,LIVE,EUROPHOTONICS,QEM,JEMES,MIM,MUNDUS MAPP,ChiR,MCM,AMASE,SAHC,CoMEM,IT4BI,EMQAL,MUNDUS URBANO,2.1734035,41.3850639,http://www.mathmods.eu/,http://globed.eu/,http://live.univ-lyon1.fr/,http://www.europhotonics.org/wordpress/,http://erasmusmundus-qem.univ-paris1.fr/,http://www.jemes-cisu.eu/,http://www.mastermimplus.eu/,http://www.mundusmapp.org/,NA,http://www.cimne.com/cm-master/,http://www.amase-master.net/,http://www.msc-sahc.org/,http://www.ntnu.edu/studies/mscomem,http://it4bi.univ-tours.fr/,http://www.emqal.org/,http://www.mundus-urbano.eu/,Barcelona,Barcelona
16.8719083,41.1171488,13,Bari,MEGEI,NA,NA,NA,NA,NA,NA,NA,NA,NA,NA,NA,NA,NA,NA,NA,16.8719083,41.1171488,http://www.ua.ac.be/egei,NA,NA,NA,NA,NA,NA,NA,NA,NA,NA,NA,NA,NA,NA,NA,Bari,Bari
116.407395,39.904211,14,Beijing,MARIHE,NA,NA,NA,NA,NA,NA,NA,NA,NA,NA,NA,NA,NA,NA,NA,116.407395,39.904211,http://www.marihe.eu/,NA,NA,NA,NA,NA,NA,NA,NA,NA,NA,NA,NA,NA,NA,NA,Beijing,Beijing
-5.93012,54.597285,15,Belfast,ME3,NA,NA,NA,NA,NA,NA,NA,NA,NA,NA,NA,NA,NA,NA,NA,-5.93012,54.597285,http://www.emn.fr/z-de/me3-site/,NA,NA,NA,NA,NA,NA,NA,NA,NA,NA,NA,NA,NA,NA,NA,Belfast,Belfast
20.4489216,44.786568,16,Belgrade,ASTROMUNDUS,NA,NA,NA,NA,NA,NA,NA,NA,NA,NA,NA,NA,NA,NA,NA,20.4489216,44.786568,http://www.astromundus.eu/,NA,NA,NA,NA,NA,NA,NA,NA,NA,NA,NA,NA,NA,NA,NA,Belgrade,Belgrade
9.6772698,45.6982642,17,Bergamo,CWCN,NA,NA,NA,NA,NA,NA,NA,NA,NA,NA,NA,NA,NA,NA,NA,9.6772698,45.6982642,http://www.munduscrossways.eu/,NA,NA,NA,NA,NA,NA,NA,NA,NA,NA,NA,NA,NA,NA,NA,Bergamo,Bergamo
5.3220544,60.3912628,18,Bergen,EMSD,EMQAL,NA,NA,NA,NA,NA,NA,NA,NA,NA,NA,NA,NA,NA,NA,5.3220544,60.3912628,http://www.europeansystemdynamics.eu/,http://www.emqal.org/,NA,NA,NA,NA,NA,NA,NA,NA,NA,NA,NA,NA,NA,NA,Bergen,Bergen
13.404954,52.5200066,19,Berlin,EPOG,IMRD,IT4BI,NA,NA,NA,NA,NA,NA,NA,NA,NA,NA,NA,NA,NA,13.404954,52.5200066,http://www.epog.eu/,http://www.imrd.ugent.be/,http://it4bi.univ-tours.fr/,NA,NA,NA,NA,NA,NA,NA,NA,NA,NA,NA,NA,NA,Berlin,Berlin
11.7537327,51.7833579,20,Bernburg,BIFTEC,NA,NA,NA,NA,NA,NA,NA,NA,NA,NA,NA,NA,NA,NA,NA,11.7537327,51.7833579,http://www.fet.kuleuven.be/biftec,NA,NA,NA,NA,NA,NA,NA,NA,NA,NA,NA,NA,NA,NA,NA,Bernburg,Bernburg
6.02956865709876,47.2123199389988,21,"Besançon
",EU4M - EMMC,NA,NA,NA,NA,NA,NA,NA,NA,NA,NA,NA,NA,NA,NA,NA,6.0241,47.2378,http://www.eu4m.eu/,NA,NA,NA,NA,NA,NA,NA,NA,NA,NA,NA,NA,NA,NA,NA,"Besançon
","Besançon
"
8.5324708,52.0302285,22,Bielefeld,QEM,NA,NA,NA,NA,NA,NA,NA,NA,NA,NA,NA,NA,NA,NA,NA,8.5324708,52.0302285,http://erasmusmundus-qem.univ-paris1.fr/,NA,NA,NA,NA,NA,NA,NA,NA,NA,NA,NA,NA,NA,NA,NA,Bielefeld,Bielefeld
-2.9349852,43.2630126,23,Bilbao,EUROCULTURE,EM HRPP,NA,NA,NA,NA,NA,NA,NA,NA,NA,NA,NA,NA,NA,NA,-2.9349852,43.2630126,https://www.euroculturemaster.eu/,http://ws1.roehampton.ac.uk/admissions/erasmusmundus/hrp/index.html,NA,NA,NA,NA,NA,NA,NA,NA,NA,NA,NA,NA,NA,NA,Bilbao,Bilbao
11.3426163,44.494887,24,Bologna,ChIR,CLE,EMLE,ASC,GEMMA,WACOMA,NA,NA,NA,NA,NA,NA,NA,NA,NA,NA,11.3426163,44.494887,http://www.emmcchir.org/,http://www.cle.unibo.it/site/,http://www.emle.org/,http://www.master-asc.org/,http://masteres.ugr.es/gemma/,"http://erasmusmundus.uca.es/en/content,3,erasmus-mundus",NA,NA,NA,NA,NA,NA,NA,NA,NA,NA,Bologna,Bologna
11.3547582,46.4982953,25,Bolzano,EMSE,NA,NA,NA,NA,NA,NA,NA,NA,NA,NA,NA,NA,NA,NA,NA,11.3547582,46.4982953,http://em-se.eu/,NA,NA,NA,NA,NA,NA,NA,NA,NA,NA,NA,NA,NA,NA,NA,Bolzano,Bolzano
7.0982068,50.73743,26,Bonn,EUROPHILOSOPHIE,NA,NA,NA,NA,NA,NA,NA,NA,NA,NA,NA,NA,NA,NA,NA,7.0982068,50.73743,http://europhilomem.hypotheses.org/,NA,NA,NA,NA,NA,NA,NA,NA,NA,NA,NA,NA,NA,NA,NA,Bonn,Bonn
-0.57918,44.837789,27,Bordeaux,VINIFERA,MEREMMC,WINTOUR,FAME,NA,NA,NA,NA,NA,NA,NA,NA,NA,NA,NA,NA,-0.57918,44.837789,http://vinifera-euromaster.eu/,http://www.merconsortium.eu/,http://www.wintour-master.eu/en_index/,http://www.fame-master.com/,NA,NA,NA,NA,NA,NA,NA,NA,NA,NA,NA,NA,Bordeaux,Bordeaux
-8.4265071,41.5454714,28,Braga,EMLex ,NA,NA,NA,NA,NA,NA,NA,NA,NA,NA,NA,NA,NA,NA,NA,-8.4265071,41.5454714,http://www.emlex.phil.uni-erlangen.de/,NA,NA,NA,NA,NA,NA,NA,NA,NA,NA,NA,NA,NA,NA,NA,Braga,Braga
-47.8821658,-15.7942287,29,Brasilia,MEGEI,NA,NA,NA,NA,NA,NA,NA,NA,NA,NA,NA,NA,NA,NA,NA,-47.8821658,-15.7942287,http://www.ua.ac.be/egei,NA,NA,NA,NA,NA,NA,NA,NA,NA,NA,NA,NA,NA,NA,NA,Brasilia,Brasilia
153.0251235,-27.4697707,30,Brisbane,TROPIMUNDO,NA,NA,NA,NA,NA,NA,NA,NA,NA,NA,NA,NA,NA,NA,NA,153.0251235,-27.4697707,http://www.tropimundo.eu/,NA,NA,NA,NA,NA,NA,NA,NA,NA,NA,NA,NA,NA,NA,NA,Brisbane,Brisbane
4.3517211,50.8503463,31,Brussels,DCLead,4CITIES,TROPIMUNDO,IT4BI,MEGEI,NOMADS EMMC,NA,NA,NA,NA,NA,NA,NA,NA,NA,NA,4.3517211,50.8503463,http://www.dclead.eu/,http://www.4cities.eu/,http://www.tropimundo.eu/,http://it4bi.univ-tours.fr/,http://www.ua.ac.be/egei,http://www.docnomads.eu/,NA,NA,NA,NA,NA,NA,NA,NA,NA,NA,Brussels,Brussels
19.040235,47.497912,32,Budapest,SSI,ME3,GEMMA,MUNDUS MAPP,CoDe,IMRCEES,EMLex ,NOMADS EMMC,NA,NA,NA,NA,NA,NA,NA,NA,19.040235,47.497912,http://ssi-master.eu/,http://www.emn.fr/z-de/me3-site/,http://masteres.ugr.es/gemma/,http://www.mundusmapp.org/,http://www.erasmusmundus-code.eu/,http://www.gla.ac.uk/postgraduate/erasmusmundus/imrcees/,http://www.emlex.phil.uni-erlangen.de/,http://www.docnomads.eu/,NA,NA,NA,NA,NA,NA,NA,NA,Budapest,Budapest
2.331433,48.791855,33,Cachan,MONABIP,NA,NA,NA,NA,NA,NA,NA,NA,NA,NA,NA,NA,NA,NA,NA,2.331433,48.791855,http://www.monabiphot.ens-cachan.fr/,NA,NA,NA,NA,NA,NA,NA,NA,NA,NA,NA,NA,NA,NA,NA,Cachan,Cachan
-6.2885962,36.5270612,34,Cadiz,WACOMA,EMQAL,NA,NA,NA,NA,NA,NA,NA,NA,NA,NA,NA,NA,NA,NA,-6.2885962,36.5270612,"http://erasmusmundus.uca.es/en/content,3,erasmus-mundus",http://www.emqal.org/,NA,NA,NA,NA,NA,NA,NA,NA,NA,NA,NA,NA,NA,NA,Cadiz,Cadiz
-71.1097335,42.3736158,35,Cambridge,MEME,NA,NA,NA,NA,NA,NA,NA,NA,NA,NA,NA,NA,NA,NA,NA,-71.1097335,42.3736158,http://www.evobio.eu/,NA,NA,NA,NA,NA,NA,NA,NA,NA,NA,NA,NA,NA,NA,NA,Cambridge,Cambridge
-3.17909,51.481581,36,Cardiff,PLANET Europe,NA,NA,NA,NA,NA,NA,NA,NA,NA,NA,NA,NA,NA,NA,NA,-3.17909,51.481581,http://www.planet-europe.eu/,NA,NA,NA,NA,NA,NA,NA,NA,NA,NA,NA,NA,NA,NA,NA,Cardiff,Cardiff
13.8333776,41.4907889,37,Cassino,MAIA,NA,NA,NA,NA,NA,NA,NA,NA,NA,NA,NA,NA,NA,NA,NA,13.8333776,41.4907889,http://www.maiamaster.org/,NA,NA,NA,NA,NA,NA,NA,NA,NA,NA,NA,NA,NA,NA,NA,Cassino,Cassino
-0.0513246,39.9863563,38,Castellón de la Plana,EMARO+,GeoTech,NA,NA,NA,NA,NA,NA,NA,NA,NA,NA,NA,NA,NA,NA,-0.0513246,39.9863563,http://emaro.irccyn.ec-nantes.fr/,http://mastergeotech.info/,NA,NA,NA,NA,NA,NA,NA,NA,NA,NA,NA,NA,NA,NA,Castellón de la Plana,Castellón de la Plana
24.0180367,35.5138298,39,Chania,EDAMUS,NA,NA,NA,NA,NA,NA,NA,NA,NA,NA,NA,NA,NA,NA,NA,24.0180367,35.5138298,http://www.master-edamus.eu/,NA,NA,NA,NA,NA,NA,NA,NA,NA,NA,NA,NA,NA,NA,NA,Chania,Chania
3.087025,45.777222,40,Clermont-Ferrand,CHOREOMUNDUS,NA,NA,NA,NA,NA,NA,NA,NA,NA,NA,NA,NA,NA,NA,NA,3.087025,45.777222,http://www.choreomundus.org/,NA,NA,NA,NA,NA,NA,NA,NA,NA,NA,NA,NA,NA,NA,NA,Clermont-Ferrand,Clermont-Ferrand
23.6236353,46.7712101,41,Cluj,MITRA,NA,NA,NA,NA,NA,NA,NA,NA,NA,NA,NA,NA,NA,NA,NA,23.6236353,46.7712101,http://mastermitra.univ-lille3.fr/,NA,NA,NA,NA,NA,NA,NA,NA,NA,NA,NA,NA,NA,NA,NA,Cluj,Cluj
-8.4403573,40.2048286,42,Coimbra,STEPS,EUROPHILOSOPHIE,IMAE,SUSCOS,TRIBOS,NA,NA,NA,NA,NA,NA,NA,NA,NA,NA,NA,-8.4403573,40.2048286,http://emmcsteps.uniovi.es/,http://europhilomem.hypotheses.org/,http://www.emmc-imae.org/,http://steel.fsv.cvut.cz/suscos/,http://www.master-tribos.eu/,NA,NA,NA,NA,NA,NA,NA,NA,NA,NA,NA,Coimbra,Coimbra
6.642433,36.360155,43,Constantine,EDAMUS,NA,NA,NA,NA,NA,NA,NA,NA,NA,NA,NA,NA,NA,NA,NA,6.642433,36.360155,http://www.master-edamus.eu/,NA,NA,NA,NA,NA,NA,NA,NA,NA,NA,NA,NA,NA,NA,NA,Constantine,Constantine
12.5683371,55.6760968,44,Copenhagen,4CITIES,SUFONAMA,NA,NA,NA,NA,NA,NA,NA,NA,NA,NA,NA,NA,NA,NA,12.5683371,55.6760968,http://www.4cities.eu/,http://sufonama.eu/,NA,NA,NA,NA,NA,NA,NA,NA,NA,NA,NA,NA,NA,NA,Copenhagen,Copenhagen
-8.4863157,51.8968917,45,Cork,MITRA,NA,NA,NA,NA,NA,NA,NA,NA,NA,NA,NA,NA,NA,NA,NA,-8.4863157,51.8968917,http://mastermitra.univ-lille3.fr/,NA,NA,NA,NA,NA,NA,NA,NA,NA,NA,NA,NA,NA,NA,NA,Cork,Cork
-0.6087411,52.0686347,46,Cranfield,SPACEMASTER,NA,NA,NA,NA,NA,NA,NA,NA,NA,NA,NA,NA,NA,NA,NA,-0.6087411,52.0686347,http://www.spacemaster.eu/,NA,NA,NA,NA,NA,NA,NA,NA,NA,NA,NA,NA,NA,NA,NA,Cranfield,Cranfield
-17.3660286,14.7645042,47,Dakar,CLE,MITRA,NA,NA,NA,NA,NA,NA,NA,NA,NA,NA,NA,NA,NA,NA,-17.3660286,14.7645042,http://www.cle.unibo.it/site/,http://mastermitra.univ-lille3.fr/,NA,NA,NA,NA,NA,NA,NA,NA,NA,NA,NA,NA,NA,NA,Dakar,Dakar
8.6511929,49.8728253,48,Darmstadt,MUNDUS URBANO,FAME,NA,NA,NA,NA,NA,NA,NA,NA,NA,NA,NA,NA,NA,NA,8.6511929,49.8728253,http://www.mundus-urbano.eu/,http://www.fame-master.com/,NA,NA,NA,NA,NA,NA,NA,NA,NA,NA,NA,NA,NA,NA,Darmstadt,Darmstadt
21.6273123,47.5316049,49,Debrecen,EM-SANF,NA,NA,NA,NA,NA,NA,NA,NA,NA,NA,NA,NA,NA,NA,NA,21.6273123,47.5316049,http://www.emsanf.eu/UK/,NA,NA,NA,NA,NA,NA,NA,NA,NA,NA,NA,NA,NA,NA,NA,Debrecen,Debrecen
4.3570677,52.0115769,50,Delft,CoMEM,EWEM,GroundwatCH,NA,NA,NA,NA,NA,NA,NA,NA,NA,NA,NA,NA,NA,4.3570677,52.0115769,http://www.ntnu.edu/studies/mscomem,http://www.windenergymaster.eu/,http://www.groundwatermaster.eu/,NA,NA,NA,NA,NA,NA,NA,NA,NA,NA,NA,NA,NA,Delft,Delft
5.04148,47.322047,51,Dijon,MAIA,NA,NA,NA,NA,NA,NA,NA,NA,NA,NA,NA,NA,NA,NA,NA,5.04148,47.322047,http://www.maiamaster.org/,NA,NA,NA,NA,NA,NA,NA,NA,NA,NA,NA,NA,NA,NA,NA,Dijon,Dijon
13.7372621,51.0504088,52,Dresden,EMM-Nano,GroundwatCH,CARTO,NA,NA,NA,NA,NA,NA,NA,NA,NA,NA,NA,NA,NA,13.7372621,51.0504088,http://www.emm-nano.org/,http://www.groundwatermaster.eu/,http://www.cartographymaster.eu/,NA,NA,NA,NA,NA,NA,NA,NA,NA,NA,NA,NA,NA,Dresden,Dresden
10.0471549,5.4459387,53,Dschang,TROPIMUNDO,NA,NA,NA,NA,NA,NA,NA,NA,NA,NA,NA,NA,NA,NA,NA,10.0471549,5.4459387,http://www.tropimundo.eu/,NA,NA,NA,NA,NA,NA,NA,NA,NA,NA,NA,NA,NA,NA,NA,Dschang,Dschang
-3.188267,55.953252,54,Edinburgh,KINOEYES | KEM,IMIM,MSPME,SSI,ChIR,IMFSE,NA,NA,NA,NA,NA,NA,NA,NA,NA,NA,-3.188267,55.953252,http://www.kinoeyes.eu/,http://www.imim.polimi.it/,http://www.mspme.org/,http://ssi-master.eu/,http://www.emmcchir.org/,http://www.imfse.ugent.be/,NA,NA,NA,NA,NA,NA,NA,NA,NA,NA,Edinburgh,Edinburgh
6.8936619,52.2215372,55,Enschede,CARTO,NA,NA,NA,NA,NA,NA,NA,NA,NA,NA,NA,NA,NA,NA,NA,6.8936619,52.2215372,http://www.cartographymaster.eu/,NA,NA,NA,NA,NA,NA,NA,NA,NA,NA,NA,NA,NA,NA,NA,Enschede,Enschede
-7.9093074,38.5707119,56,Evora,TPTI,ARCHMAT,NA,NA,NA,NA,NA,NA,NA,NA,NA,NA,NA,NA,NA,NA,-7.9093074,38.5707119,http://www.tpti.eu/,http://www.erasmusmundus-archmat.uevora.pt/,NA,NA,NA,NA,NA,NA,NA,NA,NA,NA,NA,NA,NA,NA,Evora,Evora
-7.9374948,37.0103271,57,Faro,WACOMA,ChIR,EMECC NURSING,EMQAL,NA,NA,NA,NA,NA,NA,NA,NA,NA,NA,NA,NA,-7.9374948,37.0103271,"http://erasmusmundus.uca.es/en/content,3,erasmus-mundus",http://www.emmcchir.org/,http://masternursing.uniovi.es/,http://www.emqal.org/,NA,NA,NA,NA,NA,NA,NA,NA,NA,NA,NA,NA,Faro,Faro
11.619787,44.8381237,58,Ferrara,IMQP,NA,NA,NA,NA,NA,NA,NA,NA,NA,NA,NA,NA,NA,NA,NA,11.619787,44.8381237,https://sites.google.com/a/unife.it/quaternary-prehistory/,NA,NA,NA,NA,NA,NA,NA,NA,NA,NA,NA,NA,NA,NA,NA,Ferrara,Ferrara
11.2558136,43.7695604,59,Florence,TROPIMUNDO,NA,NA,NA,NA,NA,NA,NA,NA,NA,NA,NA,NA,NA,NA,NA,11.2558136,43.7695604,http://www.tropimundo.eu/,NA,NA,NA,NA,NA,NA,NA,NA,NA,NA,NA,NA,NA,NA,NA,Florence,Florence
13.341727,50.9128283,60,Freiberg,EMERALD,NA,NA,NA,NA,NA,NA,NA,NA,NA,NA,NA,NA,NA,NA,NA,13.341727,50.9128283,http://em-georesources.eu/,NA,NA,NA,NA,NA,NA,NA,NA,NA,NA,NA,NA,NA,NA,NA,Freiberg,Freiberg
28.0079945,45.4353208,61,Galati,EMSHIP,NA,NA,NA,NA,NA,NA,NA,NA,NA,NA,NA,NA,NA,NA,NA,28.0079945,45.4353208,http://www.emship.eu/,NA,NA,NA,NA,NA,NA,NA,NA,NA,NA,NA,NA,NA,NA,NA,Galati,Galati
18.6466384,54.3520252,62,Gdansk,MATHMODS,EMQAL,NA,NA,NA,NA,NA,NA,NA,NA,NA,NA,NA,NA,NA,NA,18.6466384,54.3520252,http://www.mathmods.eu/,http://www.emqal.org/,NA,NA,NA,NA,NA,NA,NA,NA,NA,NA,NA,NA,NA,NA,Gdansk,Gdansk
7.9666942,49.9864335,63,Geisenheim,VINIFERA,NA,NA,NA,NA,NA,NA,NA,NA,NA,NA,NA,NA,NA,NA,NA,7.9666942,49.9864335,http://vinifera-euromaster.eu/,NA,NA,NA,NA,NA,NA,NA,NA,NA,NA,NA,NA,NA,NA,NA,Geisenheim,Geisenheim
8.946256,44.4056499,64,Genova,EMSHIP,EMARO+,NA,NA,NA,NA,NA,NA,NA,NA,NA,NA,NA,NA,NA,NA,8.946256,44.4056499,http://www.emship.eu/,http://emaro.irccyn.ec-nantes.fr/,NA,NA,NA,NA,NA,NA,NA,NA,NA,NA,NA,NA,NA,NA,Genova,Genova
3.7174243,51.0543422,65,Ghent,IMRD,IMFSE,EMLE,BIFTEC,NA,NA,NA,NA,NA,NA,NA,NA,NA,NA,NA,NA,3.7174243,51.0543422,http://www.imrd.ugent.be/,http://www.imfse.ugent.be/,http://www.emle.org/,http://www.fet.kuleuven.be/biftec,NA,NA,NA,NA,NA,NA,NA,NA,NA,NA,NA,NA,Ghent,Ghent
8.6784031,50.5840512,66,Giessen,EUCOMOR,NA,NA,NA,NA,NA,NA,NA,NA,NA,NA,NA,NA,NA,NA,NA,8.6784031,50.5840512,http://www.eucomor.net/,NA,NA,NA,NA,NA,NA,NA,NA,NA,NA,NA,NA,NA,NA,NA,Giessen,Giessen
2.8214264,41.9794005,67,Girona,MAIA,EMTM,NA,NA,NA,NA,NA,NA,NA,NA,NA,NA,NA,NA,NA,NA,2.8214264,41.9794005,http://www.maiamaster.org/,http://www.emtmmaster.net/,NA,NA,NA,NA,NA,NA,NA,NA,NA,NA,NA,NA,NA,NA,Girona,Girona
31.2088526,30.0130557,68,Giza,EU4M - EMMC,NA,NA,NA,NA,NA,NA,NA,NA,NA,NA,NA,NA,NA,NA,NA,31.2088526,30.0130557,http://www.eu4m.eu/,NA,NA,NA,NA,NA,NA,NA,NA,NA,NA,NA,NA,NA,NA,NA,Giza,Giza
10.6916303,60.7954302,69,Gjovik,COSI,NA,NA,NA,NA,NA,NA,NA,NA,NA,NA,NA,NA,NA,NA,NA,10.6916303,60.7954302,http://www.master-colorscience.eu/,NA,NA,NA,NA,NA,NA,NA,NA,NA,NA,NA,NA,NA,NA,NA,Gjovik,Gjovik
-4.251806,55.864237,70,Glasgow,IMRCEES,IMAESC,NA,NA,NA,NA,NA,NA,NA,NA,NA,NA,NA,NA,NA,NA,-4.251806,55.864237,http://www.gla.ac.uk/postgraduate/erasmusmundus/imrcees/,http://www.gla.ac.uk/postgraduate/erasmusmundus/imaesc/,NA,NA,NA,NA,NA,NA,NA,NA,NA,NA,NA,NA,NA,NA,Glasgow,Glasgow
11.97456,57.70887,71,Gothenburg,EMM-Nano,EM HRPP,MFAMILY,NA,NA,NA,NA,NA,NA,NA,NA,NA,NA,NA,NA,NA,11.97456,57.70887,http://www.emm-nano.org/,http://ws1.roehampton.ac.uk/admissions/erasmusmundus/hrp/index.html,http://www.mfamily.eu/,NA,NA,NA,NA,NA,NA,NA,NA,NA,NA,NA,NA,NA,Gothenburg,Gothenburg
9.9158035,51.5412804,72,Göttingen,ASTROMUNDUS,SUFONAMA,PlantHealth,EUROCULTURE,NA,NA,NA,NA,NA,NA,NA,NA,NA,NA,NA,NA,9.9158035,51.5412804,http://www.astromundus.eu/,http://sufonama.eu/,http://planthealth.upv.es/,https://www.euroculturemaster.eu/,NA,NA,NA,NA,NA,NA,NA,NA,NA,NA,NA,NA,Göttingen,Göttingen
-3.5985571,37.1773363,73,Granada,COSI,GEMMA,NA,NA,NA,NA,NA,NA,NA,NA,NA,NA,NA,NA,NA,NA,-3.5985571,37.1773363,http://www.master-colorscience.eu/,http://masteres.ugr.es/gemma/,NA,NA,NA,NA,NA,NA,NA,NA,NA,NA,NA,NA,NA,NA,Granada,Granada
5.724524,45.188529,74,Grenoble,FAME,EMM-Nano,MUNDUS URBANO,MEEES,NA,NA,NA,NA,NA,NA,NA,NA,NA,NA,NA,NA,5.724524,45.188529,http://www.fame-master.com/,http://www.emm-nano.org/,http://www.mundus-urbano.eu/,http://www.meees.org/,NA,NA,NA,NA,NA,NA,NA,NA,NA,NA,NA,NA,Grenoble,Grenoble
6.5665018,53.2193835,75,Groningen,MEME,IMIM Med,LCT,TCCM,EUROCULTURE,NA,NA,NA,NA,NA,NA,NA,NA,NA,NA,NA,6.5665018,53.2193835,http://www.evobio.eu/,http://www.innovativemedicine.eu/,http://www.lct-master.org/,http://www.emtccm.org/,https://www.euroculturemaster.eu/,NA,NA,NA,NA,NA,NA,NA,NA,NA,NA,NA,Groningen,Groningen
-80.2481666,43.5448048,76,Guelph,CWCN,NA,NA,NA,NA,NA,NA,NA,NA,NA,NA,NA,NA,NA,NA,NA,-80.2481666,43.5448048,http://www.munduscrossways.eu/,NA,NA,NA,NA,NA,NA,NA,NA,NA,NA,NA,NA,NA,NA,NA,Guelph,Guelph
-8.2917589,41.4425179,77,Guimarães,SAHC,NA,NA,NA,NA,NA,NA,NA,NA,NA,NA,NA,NA,NA,NA,NA,-8.2917589,41.4425179,http://www.msc-sahc.org/,NA,NA,NA,NA,NA,NA,NA,NA,NA,NA,NA,NA,NA,NA,NA,Guimarães,Guimarães
34.989571,32.7940463,78,Haifa,EMLE,NA,NA,NA,NA,NA,NA,NA,NA,NA,NA,NA,NA,NA,NA,NA,34.989571,32.7940463,http://www.emle.org/,NA,NA,NA,NA,NA,NA,NA,NA,NA,NA,NA,NA,NA,NA,NA,Haifa,Haifa
9.9936818,53.5510846,79,Hamburg,JEMES,MATHMODS,MUNDUS JOURNALISM,EMLE,NA,NA,NA,NA,NA,NA,NA,NA,NA,NA,NA,NA,9.9936818,53.5510846,http://www.jemes-cisu.eu/,http://www.mathmods.eu/,http://www.mundusjournalism.com/,http://www.emle.org/,NA,NA,NA,NA,NA,NA,NA,NA,NA,NA,NA,NA,Hamburg,Hamburg
8.6724335,49.3987524,80,Heidelberg,IMIM Med,NA,NA,NA,NA,NA,NA,NA,NA,NA,NA,NA,NA,NA,NA,NA,8.6724335,49.3987524,http://www.innovativemedicine.eu/,NA,NA,NA,NA,NA,NA,NA,NA,NA,NA,NA,NA,NA,NA,NA,Heidelberg,Heidelberg
24.938379,60.1698557,81,Helsinki,SPACEMASTER,EMECC NURSING,ASC,NA,NA,NA,NA,NA,NA,NA,NA,NA,NA,NA,NA,NA,24.938379,60.1698557,http://www.spacemaster.eu/,http://masternursing.uniovi.es/,http://www.master-asc.org/,NA,NA,NA,NA,NA,NA,NA,NA,NA,NA,NA,NA,NA,Helsinki,Helsinki
25.1442126,35.3387352,82,Heraklion,ACES,NA,NA,NA,NA,NA,NA,NA,NA,NA,NA,NA,NA,NA,NA,NA,25.1442126,35.3387352,http://www.sams.ac.uk/aces-erasmus,NA,NA,NA,NA,NA,NA,NA,NA,NA,NA,NA,NA,NA,NA,NA,Heraklion,Heraklion
9.9579652,52.154778,83,Hildesheim,EMLex ,NA,NA,NA,NA,NA,NA,NA,NA,NA,NA,NA,NA,NA,NA,NA,9.9579652,52.154778,http://www.emlex.phil.uni-erlangen.de/,NA,NA,NA,NA,NA,NA,NA,NA,NA,NA,NA,NA,NA,NA,NA,Hildesheim,Hildesheim
114.109497,22.396428,84,Hong Kong,Media AC,NA,NA,NA,NA,NA,NA,NA,NA,NA,NA,NA,NA,NA,NA,NA,114.109497,22.396428,http://www.mediaartscultures.eu/,NA,NA,NA,NA,NA,NA,NA,NA,NA,NA,NA,NA,NA,NA,NA,Hong Kong,Hong Kong
-0.3367413,53.7456709,85,Hull,GEMMA,NA,NA,NA,NA,NA,NA,NA,NA,NA,NA,NA,NA,NA,NA,NA,-0.3367413,53.7456709,http://masteres.ugr.es/gemma/,NA,NA,NA,NA,NA,NA,NA,NA,NA,NA,NA,NA,NA,NA,NA,Hull,Hull
-86.158068,39.768403,86,Indianapolis,EUROCULTURE,NA,NA,NA,NA,NA,NA,NA,NA,NA,NA,NA,NA,NA,NA,NA,-86.158068,39.768403,https://www.euroculturemaster.eu/,NA,NA,NA,NA,NA,NA,NA,NA,NA,NA,NA,NA,NA,NA,NA,Indianapolis,Indianapolis
11.4041024,47.2692124,87,Innsbruck,ASTROMUNDUS,NA,NA,NA,NA,NA,NA,NA,NA,NA,NA,NA,NA,NA,NA,NA,11.4041024,47.2692124,http://www.astromundus.eu/,NA,NA,NA,NA,NA,NA,NA,NA,NA,NA,NA,NA,NA,NA,NA,Innsbruck,Innsbruck
40.9766453,57.0050671,88,Ivanovo,EU4M - EMMC,NA,NA,NA,NA,NA,NA,NA,NA,NA,NA,NA,NA,NA,NA,NA,40.9766453,57.0050671,http://www.eu4m.eu/,NA,NA,NA,NA,NA,NA,NA,NA,NA,NA,NA,NA,NA,NA,NA,Ivanovo,Ivanovo
29.7635719,62.6010155,89,Joensuu,COSI,NA,NA,NA,NA,NA,NA,NA,NA,NA,NA,NA,NA,NA,NA,NA,29.7635719,62.6010155,http://www.master-colorscience.eu/,NA,NA,NA,NA,NA,NA,NA,NA,NA,NA,NA,NA,NA,NA,NA,Joensuu,Joensuu
28.0473051,-26.2041028,90,Johannesburg,EPOG,NA,NA,NA,NA,NA,NA,NA,NA,NA,NA,NA,NA,NA,NA,NA,28.0473051,-26.2041028,http://www.epog.eu/,NA,NA,NA,NA,NA,NA,NA,NA,NA,NA,NA,NA,NA,NA,NA,Johannesburg,Johannesburg
7.7491265,49.4400657,91,Kaiserslautern,EMSE,EMECS,NA,NA,NA,NA,NA,NA,NA,NA,NA,NA,NA,NA,NA,NA,7.7491265,49.4400657,http://em-se.eu/,http://www.emecs.eu/,NA,NA,NA,NA,NA,NA,NA,NA,NA,NA,NA,NA,NA,NA,Kaiserslautern,Kaiserslautern
32.5825197,0.3475964,92,Kampala,MFAMILY,NA,NA,NA,NA,NA,NA,NA,NA,NA,NA,NA,NA,NA,NA,NA,32.5825197,0.3475964,http://www.mfamily.eu/,NA,NA,NA,NA,NA,NA,NA,NA,NA,NA,NA,NA,NA,NA,NA,Kampala,Kampala
15.5869,56.161224,93,Karlskrona,PLANET Europe,NA,NA,NA,NA,NA,NA,NA,NA,NA,NA,NA,NA,NA,NA,NA,15.5869,56.161224,http://www.planet-europe.eu/,NA,NA,NA,NA,NA,NA,NA,NA,NA,NA,NA,NA,NA,NA,NA,Karlskrona,Karlskrona
8.4036527,49.0068901,94,Karlsruhe,EU4M - EMMC,EUROPHOTONICS,NA,NA,NA,NA,NA,NA,NA,NA,NA,NA,NA,NA,NA,NA,8.4036527,49.0068901,http://www.eu4m.eu/,http://www.europhotonics.org/wordpress/,NA,NA,NA,NA,NA,NA,NA,NA,NA,NA,NA,NA,NA,NA,Karlsruhe,Karlsruhe
19.0237815,50.2648919,95,Katowice,EMLex ,NA,NA,NA,NA,NA,NA,NA,NA,NA,NA,NA,NA,NA,NA,NA,19.0237815,50.2648919,http://www.emlex.phil.uni-erlangen.de/,NA,NA,NA,NA,NA,NA,NA,NA,NA,NA,NA,NA,NA,NA,NA,Katowice,Katowice
10.1227652,54.3232927,96,Kiel,IMAE,NA,NA,NA,NA,NA,NA,NA,NA,NA,NA,NA,NA,NA,NA,NA,10.1227652,54.3232927,http://www.emmc-imae.org/,NA,NA,NA,NA,NA,NA,NA,NA,NA,NA,NA,NA,NA,NA,NA,Kiel,Kiel
30.5234,50.4501,97,Kiev,IMRCEES,NA,NA,NA,NA,NA,NA,NA,NA,NA,NA,NA,NA,NA,NA,NA,30.5234,50.4501,http://www.gla.ac.uk/postgraduate/erasmusmundus/imrcees/,NA,NA,NA,NA,NA,NA,NA,NA,NA,NA,NA,NA,NA,NA,NA,Kiev,Kiev
-0.300689,51.41233,98,Kingston,EPOG,NA,NA,NA,NA,NA,NA,NA,NA,NA,NA,NA,NA,NA,NA,NA,-0.300689,51.41233,http://www.epog.eu/,NA,NA,NA,NA,NA,NA,NA,NA,NA,NA,NA,NA,NA,NA,NA,Kingston,Kingston
9.4730519,55.495973,99,Kolding,EMTM,NA,NA,NA,NA,NA,NA,NA,NA,NA,NA,NA,NA,NA,NA,NA,9.4730519,55.495973,http://www.emtmmaster.net/,NA,NA,NA,NA,NA,NA,NA,NA,NA,NA,NA,NA,NA,NA,NA,Kolding,Kolding
12.4949429,55.763516,100,Kongens Lyngby,EWEM,NA,NA,NA,NA,NA,NA,NA,NA,NA,NA,NA,NA,NA,NA,NA,12.4949429,55.763516,http://www.windenergymaster.eu/,NA,NA,NA,NA,NA,NA,NA,NA,NA,NA,NA,NA,NA,NA,NA,Kongens Lyngby,Kongens Lyngby
19.9449799,50.0646501,101,Krakow,ASC,IMRCEES,EUROCULTURE,NA,NA,NA,NA,NA,NA,NA,NA,NA,NA,NA,NA,NA,19.9449799,50.0646501,http://www.master-asc.org/,http://www.gla.ac.uk/postgraduate/erasmusmundus/imrcees/,https://www.euroculturemaster.eu/,NA,NA,NA,NA,NA,NA,NA,NA,NA,NA,NA,NA,NA,Krakow,Krakow
15.60384,48.40999,102,Krems an der Donau,Media AC,MARIHE,NA,NA,NA,NA,NA,NA,NA,NA,NA,NA,NA,NA,NA,NA,15.60384,48.40999,http://www.mediaartscultures.eu/,http://www.marihe.eu/,NA,NA,NA,NA,NA,NA,NA,NA,NA,NA,NA,NA,NA,NA,Krems an der Donau,Krems an der Donau
103.1370142,5.329624,103,Kuala Terengganu,TROPIMUNDO,NA,NA,NA,NA,NA,NA,NA,NA,NA,NA,NA,NA,NA,NA,NA,103.1370142,5.329624,http://www.tropimundo.eu/,NA,NA,NA,NA,NA,NA,NA,NA,NA,NA,NA,NA,NA,NA,NA,Kuala Terengganu,Kuala Terengganu
13.3995091,42.3498479,104,L'Aquila,MATHMODS,NA,NA,NA,NA,NA,NA,NA,NA,NA,NA,NA,NA,NA,NA,NA,13.3995091,42.3498479,http://www.mathmods.eu/,NA,NA,NA,NA,NA,NA,NA,NA,NA,NA,NA,NA,NA,NA,NA,L'Aquila,L'Aquila
28.1896628,61.0549929,105,Lappeenranta,PERCCOM,NA,NA,NA,NA,NA,NA,NA,NA,NA,NA,NA,NA,NA,NA,NA,28.1896628,61.0549929,http://perccom.univ-lorraine.fr/,NA,NA,NA,NA,NA,NA,NA,NA,NA,NA,NA,NA,NA,NA,NA,Lappeenranta,Lappeenranta
-1.5490774,53.8007554,106,Leeds,TRIBOS,NA,NA,NA,NA,NA,NA,NA,NA,NA,NA,NA,NA,NA,NA,NA,-1.5490774,53.8007554,http://www.master-tribos.eu/,NA,NA,NA,NA,NA,NA,NA,NA,NA,NA,NA,NA,NA,NA,NA,Leeds,Leeds
-2.990057,43.3267036,107,Leioa,MEREMMC,NA,NA,NA,NA,NA,NA,NA,NA,NA,NA,NA,NA,NA,NA,NA,-2.990057,43.3267036,http://www.merconsortium.eu/,NA,NA,NA,NA,NA,NA,NA,NA,NA,NA,NA,NA,NA,NA,NA,Leioa,Leioa
12.3730747,51.3396955,108,Leipzig,ASC,EMGS,NA,NA,NA,NA,NA,NA,NA,NA,NA,NA,NA,NA,NA,NA,12.3730747,51.3396955,http://www.master-asc.org/,http://www.globalstudies-masters.info/,NA,NA,NA,NA,NA,NA,NA,NA,NA,NA,NA,NA,NA,NA,Leipzig,Leipzig
4.7005176,50.8798438,109,Leuven,EMM-Nano,EMPHID,TCCM,EUROPHILOSOPHIE,FAME,MITRA,NA,NA,NA,NA,NA,NA,NA,NA,NA,NA,4.7005176,50.8798438,http://www.emm-nano.org/,http://www.pubhealthdisasters.eu/,http://www.emtccm.org/,http://europhilomem.hypotheses.org/,http://www.fame-master.com/,http://mastermitra.univ-lille3.fr/,NA,NA,NA,NA,NA,NA,NA,NA,NA,NA,Leuven,Leuven
5.5796662,50.6325574,110,Liège,MEREMMC,SUSCOS,FAME,EMSHIP,EMERALD,NA,NA,NA,NA,NA,NA,NA,NA,NA,NA,NA,5.5796662,50.6325574,http://www.merconsortium.eu/,http://steel.fsv.cvut.cz/suscos/,http://www.fame-master.com/,http://www.emship.eu/,http://em-georesources.eu/,NA,NA,NA,NA,NA,NA,NA,NA,NA,NA,NA,Liège,Liège
3.057256,50.62925,111,Lille,MEGEI,ASC,MITRA,NA,NA,NA,NA,NA,NA,NA,NA,NA,NA,NA,NA,NA,3.057256,50.62925,http://www.ua.ac.be/egei,http://www.master-asc.org/,http://mastermitra.univ-lille3.fr/,NA,NA,NA,NA,NA,NA,NA,NA,NA,NA,NA,NA,NA,Lille,Lille
-0.540579,53.230688,112,Lincoln,ADVANCES,NA,NA,NA,NA,NA,NA,NA,NA,NA,NA,NA,NA,NA,NA,NA,-0.540579,53.230688,http://www.socialworkadvances.org/,NA,NA,NA,NA,NA,NA,NA,NA,NA,NA,NA,NA,NA,NA,NA,Lincoln,Lincoln
-9.1393366,38.7222524,113,Lisbon,KINOEYES | KEM,NOMADS EMMC,GeoTech,CWCN,EMSD,VINIFERA,GroundwatCH,MFAMILY,MEDfOR,ADVANCES,NA,NA,NA,NA,NA,NA,-9.1393366,38.7222524,http://www.kinoeyes.eu/,http://www.docnomads.eu/,http://mastergeotech.info/,http://www.munduscrossways.eu/,http://www.europeansystemdynamics.eu/,http://vinifera-euromaster.eu/,http://www.groundwatermaster.eu/,http://www.mfamily.eu/,http://www.medfor.eu/,http://www.socialworkadvances.org/,NA,NA,NA,NA,NA,NA,Lisbon,Lisbon
14.5057515,46.0569465,114,Ljubljana,TRIBOS,EMTM,CoDe,NA,NA,NA,NA,NA,NA,NA,NA,NA,NA,NA,NA,NA,14.5057515,46.0569465,http://www.master-tribos.eu/,http://www.emtmmaster.net/,http://www.erasmusmundus-code.eu/,NA,NA,NA,NA,NA,NA,NA,NA,NA,NA,NA,NA,NA,Ljubljana,Ljubljana
0.6200146,41.6175899,115,Lleida,MEDfOR,NA,NA,NA,NA,NA,NA,NA,NA,NA,NA,NA,NA,NA,NA,NA,0.6200146,41.6175899,http://www.medfor.eu/,NA,NA,NA,NA,NA,NA,NA,NA,NA,NA,NA,NA,NA,NA,NA,Lleida,Lleida
19.4559833,51.7592485,116,Lodz,Media AC,GEMMA,NA,NA,NA,NA,NA,NA,NA,NA,NA,NA,NA,NA,NA,NA,19.4559833,51.7592485,http://www.mediaartscultures.eu/,http://masteres.ugr.es/gemma/,NA,NA,NA,NA,NA,NA,NA,NA,NA,NA,NA,NA,NA,NA,Lodz,Lodz
-0.1277583,51.5073509,117,London,MUNDUS JOURNALISM,CoMEM,EMGS,EM HRPP,EUPADRA,CHOREOMUNDUS,NA,NA,NA,NA,NA,NA,NA,NA,NA,NA,-0.1277583,51.5073509,http://www.mundusjournalism.com/,http://www.ntnu.edu/studies/mscomem,http://www.globalstudies-masters.info/,http://ws1.roehampton.ac.uk/admissions/erasmusmundus/hrp/index.html,http://eupadra.eu/,http://www.choreomundus.org/,NA,NA,NA,NA,NA,NA,NA,NA,NA,NA,London,London
22.1567026,65.584819,118,Lulea,AMASE,EMERALD,PERCCOM,SPACEMASTER,TRIBOS,SUSCOS,NA,NA,NA,NA,NA,NA,NA,NA,NA,NA,22.1567026,65.584819,http://www.amase-master.net/,http://em-georesources.eu/,http://perccom.univ-lorraine.fr/,http://www.spacemaster.eu/,http://www.master-tribos.eu/,http://steel.fsv.cvut.cz/suscos/,NA,NA,NA,NA,NA,NA,NA,NA,NA,NA,Lulea,Lulea
13.1910073,55.7046601,119,Lund,IMFSE,NA,NA,NA,NA,NA,NA,NA,NA,NA,NA,NA,NA,NA,NA,NA,13.1910073,55.7046601,http://www.imfse.ugent.be/,NA,NA,NA,NA,NA,NA,NA,NA,NA,NA,NA,NA,NA,NA,NA,Lund,Lund
4.835659,45.764043,120,Lyon,LIVE,EACH,ATOSIM,NA,NA,NA,NA,NA,NA,NA,NA,NA,NA,NA,NA,NA,4.835659,45.764043,http://live.univ-lyon1.fr/,http://www.analyticalchemistry.eu/,http://www.erasmusmundus-atosim.cecam.org/,NA,NA,NA,NA,NA,NA,NA,NA,NA,NA,NA,NA,NA,Lyon,Lyon
-3.7037902,40.4167754,121,Madrid,TCCM,4CITIES,MONABIP,EUPADRA,ME3,VINIFERA,EMSE,IMIM,NA,NA,NA,NA,NA,NA,NA,NA,-3.7037902,40.4167754,http://www.emtccm.org/,http://www.4cities.eu/,http://www.monabiphot.ens-cachan.fr/,http://eupadra.eu/,http://www.emn.fr/z-de/me3-site/,http://vinifera-euromaster.eu/,http://em-se.eu/,http://www.imim.polimi.it/,NA,NA,NA,NA,NA,NA,NA,NA,Madrid,Madrid
8.4660395,49.4874592,122,Mannheim,EMLex ,NA,NA,NA,NA,NA,NA,NA,NA,NA,NA,NA,NA,NA,NA,NA,8.4660395,49.4874592,http://www.emlex.phil.uni-erlangen.de/,NA,NA,NA,NA,NA,NA,NA,NA,NA,NA,NA,NA,NA,NA,NA,Mannheim,Mannheim
5.36978,43.296482,123,Marseille,EUROPHOTONICS,NA,NA,NA,NA,NA,NA,NA,NA,NA,NA,NA,NA,NA,NA,NA,5.36978,43.296482,http://www.europhotonics.org/wordpress/,NA,NA,NA,NA,NA,NA,NA,NA,NA,NA,NA,NA,NA,NA,NA,Marseille,Marseille
-6.5918499,53.3812896,124,Maynooth,DESEM,NA,NA,NA,NA,NA,NA,NA,NA,NA,NA,NA,NA,NA,NA,NA,-6.5918499,53.3812896,http://www.cs.nuim.ie/courses/desem/,NA,NA,NA,NA,NA,NA,NA,NA,NA,NA,NA,NA,NA,NA,NA,Maynooth,Maynooth
-90.0489801,35.1495343,125,Memphis,EUROPHILOSOPHIE,NA,NA,NA,NA,NA,NA,NA,NA,NA,NA,NA,NA,NA,NA,NA,-90.0489801,35.1495343,http://europhilomem.hypotheses.org/,NA,NA,NA,NA,NA,NA,NA,NA,NA,NA,NA,NA,NA,NA,NA,Memphis,Memphis
-99.133208,19.4326077,126,Mexico City,EUROCULTURE,NA,NA,NA,NA,NA,NA,NA,NA,NA,NA,NA,NA,NA,NA,NA,-99.133208,19.4326077,https://www.euroculturemaster.eu/,NA,NA,NA,NA,NA,NA,NA,NA,NA,NA,NA,NA,NA,NA,NA,Mexico City,Mexico City
9.1859243,45.4654219,127,Milan,MSPME,IMIM,NA,NA,NA,NA,NA,NA,NA,NA,NA,NA,NA,NA,NA,NA,9.1859243,45.4654219,http://www.mspme.org/,http://www.imim.polimi.it/,NA,NA,NA,NA,NA,NA,NA,NA,NA,NA,NA,NA,NA,NA,Milan,Milan
3.876716,43.610769,128,Montpellier,VINIFERA,PlantHealth,MIM,EDAMUS,MAMASELF,MEME,NA,NA,NA,NA,NA,NA,NA,NA,NA,NA,3.876716,43.610769,http://vinifera-euromaster.eu/,http://planthealth.upv.es/,http://www.mastermimplus.eu/,http://www.master-edamus.eu/,http://www.mamaself.eu/,http://www.evobio.eu/,NA,NA,NA,NA,NA,NA,NA,NA,NA,NA,Montpellier,Montpellier
14.4868883,35.8956388,129,Msida,LCT,GLOBED,IMAESC,NA,NA,NA,NA,NA,NA,NA,NA,NA,NA,NA,NA,NA,14.4868883,35.8956388,http://www.lct-master.org/,http://globed.eu/,http://www.gla.ac.uk/postgraduate/erasmusmundus/imaesc/,NA,NA,NA,NA,NA,NA,NA,NA,NA,NA,NA,NA,NA,Msida,Msida
7.335888,47.750839,130,Mulhouse,CLE,NA,NA,NA,NA,NA,NA,NA,NA,NA,NA,NA,NA,NA,NA,NA,7.335888,47.750839,http://www.cle.unibo.it/site/,NA,NA,NA,NA,NA,NA,NA,NA,NA,NA,NA,NA,NA,NA,NA,Mulhouse,Mulhouse
72.8776559,19.0759837,131,Mumbai,EMLE,NA,NA,NA,NA,NA,NA,NA,NA,NA,NA,NA,NA,NA,NA,NA,72.8776559,19.0759837,http://www.emle.org/,NA,NA,NA,NA,NA,NA,NA,NA,NA,NA,NA,NA,NA,NA,NA,Mumbai,Mumbai
11.5819806,48.1351253,132,Munich,MAMASELF,MEME,CARTO,IMIM,NA,NA,NA,NA,NA,NA,NA,NA,NA,NA,NA,NA,11.5819806,48.1351253,http://www.mamaself.eu/,http://www.evobio.eu/,http://www.cartographymaster.eu/,http://www.imim.polimi.it/,NA,NA,NA,NA,NA,NA,NA,NA,NA,NA,NA,NA,Munich,Munich
7.6261347,51.9606649,133,Münster,GeoTech,NA,NA,NA,NA,NA,NA,NA,NA,NA,NA,NA,NA,NA,NA,NA,7.6261347,51.9606649,http://mastergeotech.info/,NA,NA,NA,NA,NA,NA,NA,NA,NA,NA,NA,NA,NA,NA,NA,Münster,Münster
6.184417,48.692054,134,Nancy,EMERALD,LCT,EMLex ,DESEM,AMASE,PERCCOM,NA,NA,NA,NA,NA,NA,NA,NA,NA,NA,6.184417,48.692054,http://em-georesources.eu/,http://www.lct-master.org/,http://www.emlex.phil.uni-erlangen.de/,http://www.cs.nuim.ie/courses/desem/,http://www.amase-master.net/,http://perccom.univ-lorraine.fr/,NA,NA,NA,NA,NA,NA,NA,NA,NA,NA,Nancy,Nancy
-1.553621,47.218371,135,Nantes,EMSHIP,EMARO+,ME3,MCM,ACES,NA,NA,NA,NA,NA,NA,NA,NA,NA,NA,NA,-1.553621,47.218371,http://www.emship.eu/,http://emaro.irccyn.ec-nantes.fr/,http://www.emn.fr/z-de/me3-site/,http://www.cimne.com/cm-master/,http://www.sams.ac.uk/aces-erasmus,NA,NA,NA,NA,NA,NA,NA,NA,NA,NA,NA,Nantes,Nantes
14.2681244,40.8517746,136,Napoli,SUSCOS,EUCOMOR,Dyclam,NA,NA,NA,NA,NA,NA,NA,NA,NA,NA,NA,NA,NA,14.2681244,40.8517746,http://steel.fsv.cvut.cz/suscos/,http://www.eucomor.net/,http://www.dyclam.eu/fr/,NA,NA,NA,NA,NA,NA,NA,NA,NA,NA,NA,NA,NA,Napoli,Napoli
-74.4518188,40.4862157,137,New Brunswick,GEMMA,NA,NA,NA,NA,NA,NA,NA,NA,NA,NA,NA,NA,NA,NA,NA,-74.4518188,40.4862157,http://masteres.ugr.es/gemma/,NA,NA,NA,NA,NA,NA,NA,NA,NA,NA,NA,NA,NA,NA,NA,New Brunswick,New Brunswick
7.2619532,43.7101728,138,Nice,MATHMODS,NA,NA,NA,NA,NA,NA,NA,NA,NA,NA,NA,NA,NA,NA,NA,7.2619532,43.7101728,http://www.mathmods.eu/,NA,NA,NA,NA,NA,NA,NA,NA,NA,NA,NA,NA,NA,NA,NA,Nice,Nice
5.8372264,51.8125626,139,Nijmegen,EMSD,PLANET Europe,NA,NA,NA,NA,NA,NA,NA,NA,NA,NA,NA,NA,NA,NA,5.8372264,51.8125626,http://www.europeansystemdynamics.eu/,http://www.planet-europe.eu/,NA,NA,NA,NA,NA,NA,NA,NA,NA,NA,NA,NA,NA,NA,Nijmegen,Nijmegen
121.54399,29.868336,140,Ningbo,WACOMA,NA,NA,NA,NA,NA,NA,NA,NA,NA,NA,NA,NA,NA,NA,NA,121.54399,29.868336,"http://erasmusmundus.uca.es/en/content,3,erasmus-mundus",NA,NA,NA,NA,NA,NA,NA,NA,NA,NA,NA,NA,NA,NA,NA,Ningbo,Ningbo
18.076376,48.3061414,141,Nitra,IMRD,NA,NA,NA,NA,NA,NA,NA,NA,NA,NA,NA,NA,NA,NA,NA,18.076376,48.3061414,http://www.imrd.ugent.be/,NA,NA,NA,NA,NA,NA,NA,NA,NA,NA,NA,NA,NA,NA,NA,Nitra,Nitra
43.9360589,56.2965039,142,Nizhni Novgorod,IMRCEES,NA,NA,NA,NA,NA,NA,NA,NA,NA,NA,NA,NA,NA,NA,NA,43.9360589,56.2965039,http://www.gla.ac.uk/postgraduate/erasmusmundus/imrcees/,NA,NA,NA,NA,NA,NA,NA,NA,NA,NA,NA,NA,NA,NA,NA,Nizhni Novgorod,Nizhni Novgorod
1.297355,52.6308859,143,Norwich,IMAE,NA,NA,NA,NA,NA,NA,NA,NA,NA,NA,NA,NA,NA,NA,NA,1.297355,52.6308859,http://www.emmc-imae.org/,NA,NA,NA,NA,NA,NA,NA,NA,NA,NA,NA,NA,NA,NA,NA,Norwich,Norwich
-1.1581086,52.9547832,144,Nottingham,STEPS,NA,NA,NA,NA,NA,NA,NA,NA,NA,NA,NA,NA,NA,NA,NA,-1.1581086,52.9547832,http://emmcsteps.uniovi.es/,NA,NA,NA,NA,NA,NA,NA,NA,NA,NA,NA,NA,NA,NA,NA,Nottingham,Nottingham
-5.471047,56.415157,145,Oban,ACES,NA,NA,NA,NA,NA,NA,NA,NA,NA,NA,NA,NA,NA,NA,NA,-5.471047,56.415157,http://www.sams.ac.uk/aces-erasmus,NA,NA,NA,NA,NA,NA,NA,NA,NA,NA,NA,NA,NA,NA,NA,Oban,Oban
8.2145521,53.1434501,146,Oldenburg,EWEM,NA,NA,NA,NA,NA,NA,NA,NA,NA,NA,NA,NA,NA,NA,NA,8.2145521,53.1434501,http://www.windenergymaster.eu/,NA,NA,NA,NA,NA,NA,NA,NA,NA,NA,NA,NA,NA,NA,NA,Oldenburg,Oldenburg
17.2508787,49.593778,147,Olomouc,EUROCULTURE,NA,NA,NA,NA,NA,NA,NA,NA,NA,NA,NA,NA,NA,NA,NA,17.2508787,49.593778,https://www.euroculturemaster.eu/,NA,NA,NA,NA,NA,NA,NA,NA,NA,NA,NA,NA,NA,NA,NA,Olomouc,Olomouc
135.5021651,34.6937378,148,Osaka,EUROCULTURE,NA,NA,NA,NA,NA,NA,NA,NA,NA,NA,NA,NA,NA,NA,NA,135.5021651,34.6937378,https://www.euroculturemaster.eu/,NA,NA,NA,NA,NA,NA,NA,NA,NA,NA,NA,NA,NA,NA,NA,Osaka,Osaka
10.7522454,59.9138688,149,Oslo,GLOBED,NA,NA,NA,NA,NA,NA,NA,NA,NA,NA,NA,NA,NA,NA,NA,10.7522454,59.9138688,http://globed.eu/,NA,NA,NA,NA,NA,NA,NA,NA,NA,NA,NA,NA,NA,NA,NA,Oslo,Oslo
8.0471788,52.2799112,150,Osnabrück,MARIHE,NA,NA,NA,NA,NA,NA,NA,NA,NA,NA,NA,NA,NA,NA,NA,8.0471788,52.2799112,http://www.marihe.eu/,NA,NA,NA,NA,NA,NA,NA,NA,NA,NA,NA,NA,NA,NA,NA,Osnabrück,Osnabrück
25.4650773,65.0120888,151,Oulu,EMSE,NA,NA,NA,NA,NA,NA,NA,NA,NA,NA,NA,NA,NA,NA,NA,25.4650773,65.0120888,http://em-se.eu/,NA,NA,NA,NA,NA,NA,NA,NA,NA,NA,NA,NA,NA,NA,NA,Oulu,Oulu
-5.8493887,43.3619145,152,Oviedo,EMPHID,EU4M - EMMC,EMECC NURSING,STEPS,GEMMA,NA,NA,NA,NA,NA,NA,NA,NA,NA,NA,NA,-5.8493887,43.3619145,http://www.pubhealthdisasters.eu/,http://www.eu4m.eu/,http://masternursing.uniovi.es/,http://emmcsteps.uniovi.es/,http://masteres.ugr.es/gemma/,NA,NA,NA,NA,NA,NA,NA,NA,NA,NA,NA,Oviedo,Oviedo
11.8767611,45.4064349,153,Padova,PlantHealth,ASTROMUNDUS,TPTI,SUFONAMA,SAHC,MEDfOR,NA,NA,NA,NA,NA,NA,NA,NA,NA,NA,11.8767611,45.4064349,http://planthealth.upv.es/,http://www.astromundus.eu/,http://www.tpti.eu/,http://sufonama.eu/,http://www.msc-sahc.org/,http://www.medfor.eu/,NA,NA,NA,NA,NA,NA,NA,NA,NA,NA,Padova,Padova
13.3612671,38.1156879,154,Palermo,EMSD,NA,NA,NA,NA,NA,NA,NA,NA,NA,NA,NA,NA,NA,NA,NA,13.3612671,38.1156879,http://www.europeansystemdynamics.eu/,NA,NA,NA,NA,NA,NA,NA,NA,NA,NA,NA,NA,NA,NA,NA,Palermo,Palermo
2.3522219,48.856614,155,Paris,PlantHealth,IT4BI,Dyclam,IMQP,QEM,MONABIP,TROPIMUNDO,ADVANCES,TPTI,EPOG,NA,NA,NA,NA,NA,NA,2.3522219,48.856614,http://planthealth.upv.es/,http://it4bi.univ-tours.fr/,http://www.dyclam.eu/fr/,https://sites.google.com/a/unife.it/quaternary-prehistory/,http://erasmusmundus-qem.univ-paris1.fr/,http://www.monabiphot.ens-cachan.fr/,http://www.tropimundo.eu/,http://www.socialworkadvances.org/,http://www.tpti.eu/,http://www.epog.eu/,NA,NA,NA,NA,NA,NA,Paris,Paris
21.734574,38.2466395,156,Patras,MEEES,NA,NA,NA,NA,NA,NA,NA,NA,NA,NA,NA,NA,NA,NA,NA,21.734574,38.2466395,http://www.meees.org/,NA,NA,NA,NA,NA,NA,NA,NA,NA,NA,NA,NA,NA,NA,NA,Patras,Patras
9.1582069,45.1847248,157,Pavia,MEEES,NA,NA,NA,NA,NA,NA,NA,NA,NA,NA,NA,NA,NA,NA,NA,9.1582069,45.1847248,http://www.meees.org/,NA,NA,NA,NA,NA,NA,NA,NA,NA,NA,NA,NA,NA,NA,NA,Pavia,Pavia
2.8948332,42.6886591,158,Perpignan,CWCN,NA,NA,NA,NA,NA,NA,NA,NA,NA,NA,NA,NA,NA,NA,NA,2.8948332,42.6886591,http://www.munduscrossways.eu/,NA,NA,NA,NA,NA,NA,NA,NA,NA,NA,NA,NA,NA,NA,NA,Perpignan,Perpignan
12.3908279,43.1107168,159,Perugia,TCCM,NA,NA,NA,NA,NA,NA,NA,NA,NA,NA,NA,NA,NA,NA,NA,12.3908279,43.1107168,http://www.emtccm.org/,NA,NA,NA,NA,NA,NA,NA,NA,NA,NA,NA,NA,NA,NA,NA,Perugia,Perugia
10.4016888,43.7228386,160,Pisa,IMRD,NA,NA,NA,NA,NA,NA,NA,NA,NA,NA,NA,NA,NA,NA,NA,10.4016888,43.7228386,http://www.imrd.ugent.be/,NA,NA,NA,NA,NA,NA,NA,NA,NA,NA,NA,NA,NA,NA,NA,Pisa,Pisa
0.340375,46.580224,161,Poitiers,IMAE,NA,NA,NA,NA,NA,NA,NA,NA,NA,NA,NA,NA,NA,NA,NA,0.340375,46.580224,http://www.emmc-imae.org/,NA,NA,NA,NA,NA,NA,NA,NA,NA,NA,NA,NA,NA,NA,NA,Poitiers,Poitiers
-25.6805868,37.7428301,162,Ponta Delgada,EMMCMSP,NA,NA,NA,NA,NA,NA,NA,NA,NA,NA,NA,NA,NA,NA,NA,-25.6805868,37.7428301,http://www.iuav.it/Didattica1/master/master---I1/Erasmus-Mu/,NA,NA,NA,NA,NA,NA,NA,NA,NA,NA,NA,NA,NA,NA,NA,Ponta Delgada,Ponta Delgada
-8.6291053,41.1579438,163,Porto,BIFTEC,MEDfOR,WINTOUR,TCCM,NA,NA,NA,NA,NA,NA,NA,NA,NA,NA,NA,NA,-8.6291053,41.1579438,http://www.fet.kuleuven.be/biftec,http://www.medfor.eu/,http://www.wintour-master.eu/en_index/,http://www.emtccm.org/,NA,NA,NA,NA,NA,NA,NA,NA,NA,NA,NA,NA,Porto,Porto
-51.2176584,-30.0346471,164,Porto Alegre,IMAE,NA,NA,NA,NA,NA,NA,NA,NA,NA,NA,NA,NA,NA,NA,NA,-51.2176584,-30.0346471,http://www.emmc-imae.org/,NA,NA,NA,NA,NA,NA,NA,NA,NA,NA,NA,NA,NA,NA,NA,Porto Alegre,Porto Alegre
15.8056041,40.6404067,165,Potenza,EDAMUS,NA,NA,NA,NA,NA,NA,NA,NA,NA,NA,NA,NA,NA,NA,NA,15.8056041,40.6404067,http://www.master-edamus.eu/,NA,NA,NA,NA,NA,NA,NA,NA,NA,NA,NA,NA,NA,NA,NA,Potenza,Potenza
13.0644729,52.3905689,166,Potsdam,MEEES,NA,NA,NA,NA,NA,NA,NA,NA,NA,NA,NA,NA,NA,NA,NA,13.0644729,52.3905689,http://www.meees.org/,NA,NA,NA,NA,NA,NA,NA,NA,NA,NA,NA,NA,NA,NA,NA,Potsdam,Potsdam
16.9251681,52.406374,167,Poznań,CWCN,EUCOMOR,NA,NA,NA,NA,NA,NA,NA,NA,NA,NA,NA,NA,NA,NA,16.9251681,52.406374,http://www.munduscrossways.eu/,http://www.eucomor.net/,NA,NA,NA,NA,NA,NA,NA,NA,NA,NA,NA,NA,NA,NA,Poznań,Poznań
14.4378005,50.0755381,168,Prague,LCT,EUROPHILOSOPHIE,SPACEMASTER,SAHC,SUSCOS,MEGEI,NA,NA,NA,NA,NA,NA,NA,NA,NA,NA,14.4378005,50.0755381,http://www.lct-master.org/,http://europhilomem.hypotheses.org/,http://www.spacemaster.eu/,http://www.msc-sahc.org/,http://steel.fsv.cvut.cz/suscos/,http://www.ua.ac.be/egei,NA,NA,NA,NA,NA,NA,NA,NA,NA,NA,Prague,Prague
73.8567437,18.5204303,169,Pune,EUROCULTURE,NA,NA,NA,NA,NA,NA,NA,NA,NA,NA,NA,NA,NA,NA,NA,73.8567437,18.5204303,https://www.euroculturemaster.eu/,NA,NA,NA,NA,NA,NA,NA,NA,NA,NA,NA,NA,NA,NA,NA,Pune,Pune
12.101631,49.0134074,170,Regensburg,CoDe,NA,NA,NA,NA,NA,NA,NA,NA,NA,NA,NA,NA,NA,NA,NA,12.101631,49.0134074,http://www.erasmusmundus-code.eu/,NA,NA,NA,NA,NA,NA,NA,NA,NA,NA,NA,NA,NA,NA,NA,Regensburg,Regensburg
-1.6777926,48.117266,171,Rennes,PlantHealth,IMRD,MAMASELF,NA,NA,NA,NA,NA,NA,NA,NA,NA,NA,NA,NA,NA,-1.6777926,48.117266,http://planthealth.upv.es/,http://www.imrd.ugent.be/,http://www.mamaself.eu/,NA,NA,NA,NA,NA,NA,NA,NA,NA,NA,NA,NA,NA,Rennes,Rennes
-43.1728965,-22.9068467,172,Rio de Janeiro,MITRA,NA,NA,NA,NA,NA,NA,NA,NA,NA,NA,NA,NA,NA,NA,NA,-43.1728965,-22.9068467,http://mastermitra.univ-lille3.fr/,NA,NA,NA,NA,NA,NA,NA,NA,NA,NA,NA,NA,NA,NA,NA,Rio de Janeiro,Rio de Janeiro
12.4963655,41.9027835,173,Rome,EUPADRA,EMLex ,ARCHMAT,ATOSIM,STEPS,ASTROMUNDUS,MUNDUS URBANO,NA,NA,NA,NA,NA,NA,NA,NA,NA,12.4963655,41.9027835,http://eupadra.eu/,http://www.emlex.phil.uni-erlangen.de/,http://www.erasmusmundus-archmat.uevora.pt/,http://www.erasmusmundus-atosim.cecam.org/,http://emmcsteps.uniovi.es/,http://www.astromundus.eu/,http://www.mundus-urbano.eu/,NA,NA,NA,NA,NA,NA,NA,NA,NA,Rome,Rome
12.087845,55.64191,174,Roskilde,EMGS,NA,NA,NA,NA,NA,NA,NA,NA,NA,NA,NA,NA,NA,NA,NA,12.087845,55.64191,http://www.globalstudies-masters.info/,NA,NA,NA,NA,NA,NA,NA,NA,NA,NA,NA,NA,NA,NA,NA,Roskilde,Roskilde
12.0991466,54.0924406,175,Rostock,EMSHIP,NA,NA,NA,NA,NA,NA,NA,NA,NA,NA,NA,NA,NA,NA,NA,12.0991466,54.0924406,http://www.emship.eu/,NA,NA,NA,NA,NA,NA,NA,NA,NA,NA,NA,NA,NA,NA,NA,Rostock,Rostock
4.4777325,51.9244201,176,Rotterdam,EMLE,NA,NA,NA,NA,NA,NA,NA,NA,NA,NA,NA,NA,NA,NA,NA,4.4777325,51.9244201,http://www.emle.org/,NA,NA,NA,NA,NA,NA,NA,NA,NA,NA,NA,NA,NA,NA,NA,Rotterdam,Rotterdam
6.9969327,49.2401572,177,Saarbrücken,AMASE,LCT,NA,NA,NA,NA,NA,NA,NA,NA,NA,NA,NA,NA,NA,NA,6.9969327,49.2401572,http://www.amase-master.net/,http://www.lct-master.org/,NA,NA,NA,NA,NA,NA,NA,NA,NA,NA,NA,NA,NA,NA,Saarbrücken,Saarbrücken
4.40334368092866,45.4495638357423,178,Saint-Etienne,Dyclam,COSI,NA,NA,NA,NA,NA,NA,NA,NA,NA,NA,NA,NA,NA,NA,30.3350986,59.9342802,http://www.dyclam.eu/fr/,http://www.master-colorscience.eu/,NA,NA,NA,NA,NA,NA,NA,NA,NA,NA,NA,NA,NA,NA,Saint-Etienne,Saint-Etienne
30.3266237812179,59.9150156990742,179,Saint Petersburg,PERCCOM,WACOMA,NA,NA,NA,NA,NA,NA,NA,NA,NA,NA,NA,NA,NA,NA,4.3871779,45.439695,http://perccom.univ-lorraine.fr/,"http://erasmusmundus.uca.es/en/content,3,erasmus-mundus",NA,NA,NA,NA,NA,NA,NA,NA,NA,NA,NA,NA,NA,NA,Saint Petersburg,Saint Petersburg
13.05501,47.80949,180,Salzburg,DCLead,NA,NA,NA,NA,NA,NA,NA,NA,NA,NA,NA,NA,NA,NA,NA,13.05501,47.80949,http://www.dclead.eu/,NA,NA,NA,NA,NA,NA,NA,NA,NA,NA,NA,NA,NA,NA,NA,Salzburg,Salzburg
-1.9812313,43.318334,181,San Sebastian,LCT,NA,NA,NA,NA,NA,NA,NA,NA,NA,NA,NA,NA,NA,NA,NA,-1.9812313,43.318334,http://www.lct-master.org/,NA,NA,NA,NA,NA,NA,NA,NA,NA,NA,NA,NA,NA,NA,NA,San Sebastian,San Sebastian
-3.8099803,43.4623057,182,Santander,MEGEI,NA,NA,NA,NA,NA,NA,NA,NA,NA,NA,NA,NA,NA,NA,NA,-3.8099803,43.4623057,http://www.ua.ac.be/egei,NA,NA,NA,NA,NA,NA,NA,NA,NA,NA,NA,NA,NA,NA,NA,Santander,Santander
-8.704075,39.2848804,183,Santarém,EMECC NURSING,NA,NA,NA,NA,NA,NA,NA,NA,NA,NA,NA,NA,NA,NA,NA,-8.704075,39.2848804,http://masternursing.uniovi.es/,NA,NA,NA,NA,NA,NA,NA,NA,NA,NA,NA,NA,NA,NA,NA,Santarém,Santarém
-8.5448445,42.8782132,184,Santiago de Compostela,EMLex ,CWCN,NA,NA,NA,NA,NA,NA,NA,NA,NA,NA,NA,NA,NA,NA,-8.5448445,42.8782132,http://www.emlex.phil.uni-erlangen.de/,http://www.munduscrossways.eu/,NA,NA,NA,NA,NA,NA,NA,NA,NA,NA,NA,NA,NA,NA,Santiago de Compostela,Santiago de Compostela
-46.3288865,-23.9678823,185,Santos,WACOMA,NA,NA,NA,NA,NA,NA,NA,NA,NA,NA,NA,NA,NA,NA,NA,-46.3288865,-23.9678823,"http://erasmusmundus.uca.es/en/content,3,erasmus-mundus",NA,NA,NA,NA,NA,NA,NA,NA,NA,NA,NA,NA,NA,NA,NA,Santos,Santos
-47.8909142,-22.0087086,186,Sao Carlos,EUROPHILOSOPHIE,NA,NA,NA,NA,NA,NA,NA,NA,NA,NA,NA,NA,NA,NA,NA,-47.8909142,-22.0087086,http://europhilomem.hypotheses.org/,NA,NA,NA,NA,NA,NA,NA,NA,NA,NA,NA,NA,NA,NA,NA,Sao Carlos,Sao Carlos
-5.9844589,37.3890924,187,Seville,EMMCMSP,NA,NA,NA,NA,NA,NA,NA,NA,NA,NA,NA,NA,NA,NA,NA,-5.9844589,37.3890924,http://www.iuav.it/Didattica1/master/master---I1/Erasmus-Mu/,NA,NA,NA,NA,NA,NA,NA,NA,NA,NA,NA,NA,NA,NA,NA,Seville,Seville
-1.470085,53.381129,188,Sheffield,CWCN,NA,NA,NA,NA,NA,NA,NA,NA,NA,NA,NA,NA,NA,NA,NA,-1.470085,53.381129,http://www.munduscrossways.eu/,NA,NA,NA,NA,NA,NA,NA,NA,NA,NA,NA,NA,NA,NA,NA,Sheffield,Sheffield
18.0084334,59.3688791,189,Solna,EMPHID,NA,NA,NA,NA,NA,NA,NA,NA,NA,NA,NA,NA,NA,NA,NA,18.0084334,59.3688791,http://www.pubhealthdisasters.eu/,NA,NA,NA,NA,NA,NA,NA,NA,NA,NA,NA,NA,NA,NA,NA,Solna,Solna
-1.4043509,50.9097004,190,Southampton,MEREMMC,CoMEM,EMECS,NA,NA,NA,NA,NA,NA,NA,NA,NA,NA,NA,NA,NA,-1.4043509,50.9097004,http://www.merconsortium.eu/,http://www.ntnu.edu/studies/mscomem,http://www.emecs.eu/,NA,NA,NA,NA,NA,NA,NA,NA,NA,NA,NA,NA,NA,Southampton,Southampton
-2.7967214,56.3397753,191,St. Andrews,CWCN,DESEM,NA,NA,NA,NA,NA,NA,NA,NA,NA,NA,NA,NA,NA,NA,-2.7967214,56.3397753,http://www.munduscrossways.eu/,http://www.cs.nuim.ie/courses/desem/,NA,NA,NA,NA,NA,NA,NA,NA,NA,NA,NA,NA,NA,NA,St. Andrews,St. Andrews
5.7331073,58.9699756,192,Stavanger,MFAMILY,NA,NA,NA,NA,NA,NA,NA,NA,NA,NA,NA,NA,NA,NA,NA,5.7331073,58.9699756,http://www.mfamily.eu/,NA,NA,NA,NA,NA,NA,NA,NA,NA,NA,NA,NA,NA,NA,NA,Stavanger,Stavanger
18.860152,-33.9321045,193,Stellenbosch,EMLex ,NA,NA,NA,NA,NA,NA,NA,NA,NA,NA,NA,NA,NA,NA,NA,18.860152,-33.9321045,http://www.emlex.phil.uni-erlangen.de/,NA,NA,NA,NA,NA,NA,NA,NA,NA,NA,NA,NA,NA,NA,NA,Stellenbosch,Stellenbosch
18.0685808,59.3293235,194,Stockholm,ME3,NA,NA,NA,NA,NA,NA,NA,NA,NA,NA,NA,NA,NA,NA,NA,18.0685808,59.3293235,http://www.emn.fr/z-de/me3-site/,NA,NA,NA,NA,NA,NA,NA,NA,NA,NA,NA,NA,NA,NA,NA,Stockholm,Stockholm
-2.179404,53.002668,195,Stoke-on-Trent,MEGEI,NA,NA,NA,NA,NA,NA,NA,NA,NA,NA,NA,NA,NA,NA,NA,-2.179404,53.002668,http://www.ua.ac.be/egei,NA,NA,NA,NA,NA,NA,NA,NA,NA,NA,NA,NA,NA,NA,NA,Stoke-on-Trent,Stoke-on-Trent
7.7521113,48.5734053,196,Strasbourg,CLE,EUROCULTURE,NA,NA,NA,NA,NA,NA,NA,NA,NA,NA,NA,NA,NA,NA,7.7521113,48.5734053,http://www.cle.unibo.it/site/,https://www.euroculturemaster.eu/,NA,NA,NA,NA,NA,NA,NA,NA,NA,NA,NA,NA,NA,NA,Strasbourg,Strasbourg
9.1829321,48.7758459,197,Stuttgart,MCM,Dyclam,NA,NA,NA,NA,NA,NA,NA,NA,NA,NA,NA,NA,NA,NA,9.1829321,48.7758459,http://www.cimne.com/cm-master/,http://www.dyclam.eu/fr/,NA,NA,NA,NA,NA,NA,NA,NA,NA,NA,NA,NA,NA,NA,Stuttgart,Stuttgart
-3.943646,51.62144,198,Swansea,MUNDUS JOURNALISM,MCM,NA,NA,NA,NA,NA,NA,NA,NA,NA,NA,NA,NA,NA,NA,-3.943646,51.62144,http://www.mundusjournalism.com/,http://www.cimne.com/cm-master/,NA,NA,NA,NA,NA,NA,NA,NA,NA,NA,NA,NA,NA,NA,Swansea,Swansea
14.5528116,53.4285438,199,Szczecin,EMSHIP,NA,NA,NA,NA,NA,NA,NA,NA,NA,NA,NA,NA,NA,NA,NA,14.5528116,53.4285438,http://www.emship.eu/,NA,NA,NA,NA,NA,NA,NA,NA,NA,NA,NA,NA,NA,NA,NA,Szczecin,Szczecin
20.1414253,46.2530102,200,Szeged,CHOREOMUNDUS,NA,NA,NA,NA,NA,NA,NA,NA,NA,NA,NA,NA,NA,NA,NA,20.1414253,46.2530102,http://www.choreomundus.org/,NA,NA,NA,NA,NA,NA,NA,NA,NA,NA,NA,NA,NA,NA,NA,Szeged,Szeged
24.7535746,59.4369608,201,Tallinn,KINOEYES | KEM,IMAESC,NA,NA,NA,NA,NA,NA,NA,NA,NA,NA,NA,NA,NA,NA,24.7535746,59.4369608,http://www.kinoeyes.eu/,http://www.gla.ac.uk/postgraduate/erasmusmundus/imaesc/,NA,NA,NA,NA,NA,NA,NA,NA,NA,NA,NA,NA,NA,NA,Tallinn,Tallinn
23.7609535,61.4977524,202,Tampere,MARIHE,NA,NA,NA,NA,NA,NA,NA,NA,NA,NA,NA,NA,NA,NA,NA,23.7609535,61.4977524,http://www.marihe.eu/,NA,NA,NA,NA,NA,NA,NA,NA,NA,NA,NA,NA,NA,NA,NA,Tampere,Tampere
1.2444909,41.1188827,203,Tarragona,IMQP,WINTOUR,NA,NA,NA,NA,NA,NA,NA,NA,NA,NA,NA,NA,NA,NA,1.2444909,41.1188827,https://sites.google.com/a/unife.it/quaternary-prehistory/,http://www.wintour-master.eu/en_index/,NA,NA,NA,NA,NA,NA,NA,NA,NA,NA,NA,NA,NA,NA,Tarragona,Tarragona
26.7290063,58.3776252,204,Tartu,IMRCEES,EACH,NA,NA,NA,NA,NA,NA,NA,NA,NA,NA,NA,NA,NA,NA,26.7290063,58.3776252,http://www.gla.ac.uk/postgraduate/erasmusmundus/imrcees/,http://www.analyticalchemistry.eu/,NA,NA,NA,NA,NA,NA,NA,NA,NA,NA,NA,NA,NA,NA,Tartu,Tartu
44.827096,41.7151377,205,Tbilisi,IMRCEES,NA,NA,NA,NA,NA,NA,NA,NA,NA,NA,NA,NA,NA,NA,NA,44.827096,41.7151377,http://www.gla.ac.uk/postgraduate/erasmusmundus/imrcees/,NA,NA,NA,NA,NA,NA,NA,NA,NA,NA,NA,NA,NA,NA,NA,Tbilisi,Tbilisi
4.3006999,52.0704978,206,The Hague,MUNDUS MAPP,NA,NA,NA,NA,NA,NA,NA,NA,NA,NA,NA,NA,NA,NA,NA,4.3006999,52.0704978,http://www.mundusmapp.org/,NA,NA,NA,NA,NA,NA,NA,NA,NA,NA,NA,NA,NA,NA,NA,The Hague,The Hague
22.9444191,40.6400629,207,Thessaloniki,ARCHMAT,CLE,NA,NA,NA,NA,NA,NA,NA,NA,NA,NA,NA,NA,NA,NA,22.9444191,40.6400629,http://www.erasmusmundus-archmat.uevora.pt/,http://www.cle.unibo.it/site/,NA,NA,NA,NA,NA,NA,NA,NA,NA,NA,NA,NA,NA,NA,Thessaloniki,Thessaloniki
21.2086793,45.7488716,208,Timisoara,SUSCOS,NA,NA,NA,NA,NA,NA,NA,NA,NA,NA,NA,NA,NA,NA,NA,21.2086793,45.7488716,http://steel.fsv.cvut.cz/suscos/,NA,NA,NA,NA,NA,NA,NA,NA,NA,NA,NA,NA,NA,NA,NA,Timisoara,Timisoara
139.6917064,35.6894875,209,Tokyo,EUROPHILOSOPHIE,SPACEMASTER,NA,NA,NA,NA,NA,NA,NA,NA,NA,NA,NA,NA,NA,NA,139.6917064,35.6894875,http://europhilomem.hypotheses.org/,http://www.spacemaster.eu/,NA,NA,NA,NA,NA,NA,NA,NA,NA,NA,NA,NA,NA,NA,Tokyo,Tokyo
-8.4042526,39.6052067,210,Tomar,IMQP,Dyclam,NA,NA,NA,NA,NA,NA,NA,NA,NA,NA,NA,NA,NA,NA,-8.4042526,39.6052067,https://sites.google.com/a/unife.it/quaternary-prehistory/,http://www.dyclam.eu/fr/,NA,NA,NA,NA,NA,NA,NA,NA,NA,NA,NA,NA,NA,NA,Tomar,Tomar
7.6868565,45.070312,211,Torino,MAMASELF,NA,NA,NA,NA,NA,NA,NA,NA,NA,NA,NA,NA,NA,NA,NA,7.6868565,45.070312,http://www.mamaself.eu/,NA,NA,NA,NA,NA,NA,NA,NA,NA,NA,NA,NA,NA,NA,NA,Torino,Torino
1.444209,43.604652,212,Toulouse,SPACEMASTER,TCCM,EM-SANF,EUROPHILOSOPHIE,NA,NA,NA,NA,NA,NA,NA,NA,NA,NA,NA,NA,1.444209,43.604652,http://www.spacemaster.eu/,http://www.emtccm.org/,http://www.emsanf.eu/UK/,http://europhilomem.hypotheses.org/,NA,NA,NA,NA,NA,NA,NA,NA,NA,NA,NA,NA,Toulouse,Toulouse
0.68484,47.394144,213,Tours,IT4BI,NA,NA,NA,NA,NA,NA,NA,NA,NA,NA,NA,NA,NA,NA,NA,0.68484,47.394144,http://it4bi.univ-tours.fr/,NA,NA,NA,NA,NA,NA,NA,NA,NA,NA,NA,NA,NA,NA,NA,Tours,Tours
39.7167633,41.0026969,214,Trabzon,MEDfOR,NA,NA,NA,NA,NA,NA,NA,NA,NA,NA,NA,NA,NA,NA,NA,39.7167633,41.0026969,http://www.medfor.eu/,NA,NA,NA,NA,NA,NA,NA,NA,NA,NA,NA,NA,NA,NA,NA,Trabzon,Trabzon
11.1217486,46.0747793,215,Trento,LCT,CoDe,NA,NA,NA,NA,NA,NA,NA,NA,NA,NA,NA,NA,NA,NA,11.1217486,46.0747793,http://www.lct-master.org/,http://www.erasmusmundus-code.eu/,NA,NA,NA,NA,NA,NA,NA,NA,NA,NA,NA,NA,NA,NA,Trento,Trento
10.3950528,63.4305149,216,Trondheim,CoMEM,EWEM,EMECS,CHOREOMUNDUS,NA,NA,NA,NA,NA,NA,NA,NA,NA,NA,NA,NA,10.3950528,63.4305149,http://www.ntnu.edu/studies/mscomem,http://www.windenergymaster.eu/,http://www.emecs.eu/,http://www.choreomundus.org/,NA,NA,NA,NA,NA,NA,NA,NA,NA,NA,NA,NA,Trondheim,Trondheim
7.6868565,45.070312,217,Turin,VINIFERA,EPOG,NA,NA,NA,NA,NA,NA,NA,NA,NA,NA,NA,NA,NA,NA,7.6868565,45.070312,http://vinifera-euromaster.eu/,http://www.epog.eu/,NA,NA,NA,NA,NA,NA,NA,NA,NA,NA,NA,NA,NA,NA,Turin,Turin
22.2666303,60.4518126,218,Turku,EACH,NA,NA,NA,NA,NA,NA,NA,NA,NA,NA,NA,NA,NA,NA,NA,22.2666303,60.4518126,http://www.analyticalchemistry.eu/,NA,NA,NA,NA,NA,NA,NA,NA,NA,NA,NA,NA,NA,NA,NA,Turku,Turku
13.2345794,46.0710668,219,Udine,VINIFERA,EUROCULTURE,NA,NA,NA,NA,NA,NA,NA,NA,NA,NA,NA,NA,NA,NA,13.2345794,46.0710668,http://vinifera-euromaster.eu/,https://www.euroculturemaster.eu/,NA,NA,NA,NA,NA,NA,NA,NA,NA,NA,NA,NA,NA,NA,Udine,Udine
20.2630354,63.8258471,220,Umea,MSPME,NA,NA,NA,NA,NA,NA,NA,NA,NA,NA,NA,NA,NA,NA,NA,20.2630354,63.8258471,http://www.mspme.org/,NA,NA,NA,NA,NA,NA,NA,NA,NA,NA,NA,NA,NA,NA,NA,Umea,Umea
17.6389267,59.8585638,221,Uppsala,MEME,EACH,IMIM Med,EUROCULTURE,NA,NA,NA,NA,NA,NA,NA,NA,NA,NA,NA,NA,17.6389267,59.8585638,http://www.evobio.eu/,http://www.analyticalchemistry.eu/,http://www.innovativemedicine.eu/,https://www.euroculturemaster.eu/,NA,NA,NA,NA,NA,NA,NA,NA,NA,NA,NA,NA,Uppsala,Uppsala
5.1214201,52.0907374,222,Utrecht,GEMMA,NA,NA,NA,NA,NA,NA,NA,NA,NA,NA,NA,NA,NA,NA,NA,5.1214201,52.0907374,http://masteres.ugr.es/gemma/,NA,NA,NA,NA,NA,NA,NA,NA,NA,NA,NA,NA,NA,NA,NA,Utrecht,Utrecht
-0.3762881,39.4699075,223,Valencia,PlantHealth,TCCM,NA,NA,NA,NA,NA,NA,NA,NA,NA,NA,NA,NA,NA,NA,-0.3762881,39.4699075,http://planthealth.upv.es/,http://www.emtccm.org/,NA,NA,NA,NA,NA,NA,NA,NA,NA,NA,NA,NA,NA,NA,Valencia,Valencia
-4.7245321,41.652251,224,Valladolid,MEDfOR,NA,NA,NA,NA,NA,NA,NA,NA,NA,NA,NA,NA,NA,NA,NA,-4.7245321,41.652251,http://www.medfor.eu/,NA,NA,NA,NA,NA,NA,NA,NA,NA,NA,NA,NA,NA,NA,NA,Valladolid,Valladolid
12.3155151,45.4408474,225,Venice,MIM,QEM,EMMCMSP,NA,NA,NA,NA,NA,NA,NA,NA,NA,NA,NA,NA,NA,12.3155151,45.4408474,http://www.mastermimplus.eu/,http://erasmusmundus-qem.univ-paris1.fr/,http://www.iuav.it/Didattica1/master/master---I1/Erasmus-Mu/,NA,NA,NA,NA,NA,NA,NA,NA,NA,NA,NA,NA,NA,Venice,Venice
10.1144355,59.1707862,226,Vestfold,SSI,NA,NA,NA,NA,NA,NA,NA,NA,NA,NA,NA,NA,NA,NA,NA,10.1144355,59.1707862,http://ssi-master.eu/,NA,NA,NA,NA,NA,NA,NA,NA,NA,NA,NA,NA,NA,NA,NA,Vestfold,Vestfold
16.3738189,48.2081743,227,Vienna,EUCOMOR,EMGS,EMLE,4CITIES,CARTO,NA,NA,NA,NA,NA,NA,NA,NA,NA,NA,NA,16.3738189,48.2081743,http://www.eucomor.net/,http://www.globalstudies-masters.info/,http://www.emle.org/,http://www.4cities.eu/,http://www.cartographymaster.eu/,NA,NA,NA,NA,NA,NA,NA,NA,NA,NA,NA,Vienna,Vienna
-7.7457274,41.3003527,228,Vila Rea,IMQP,NA,NA,NA,NA,NA,NA,NA,NA,NA,NA,NA,NA,NA,NA,NA,-7.7457274,41.3003527,https://sites.google.com/a/unife.it/quaternary-prehistory/,NA,NA,NA,NA,NA,NA,NA,NA,NA,NA,NA,NA,NA,NA,NA,Vila Rea,Vila Rea
25.2796514,54.6871555,229,Vilnius,EUROPHOTONICS,NA,NA,NA,NA,NA,NA,NA,NA,NA,NA,NA,NA,NA,NA,NA,25.2796514,54.6871555,http://www.europhotonics.org/wordpress/,NA,NA,NA,NA,NA,NA,NA,NA,NA,NA,NA,NA,NA,NA,NA,Vilnius,Vilnius
12.107669,42.4206766,230,Viterbo,MEDfOR,NA,NA,NA,NA,NA,NA,NA,NA,NA,NA,NA,NA,NA,NA,NA,12.107669,42.4206766,http://www.medfor.eu/,NA,NA,NA,NA,NA,NA,NA,NA,NA,NA,NA,NA,NA,NA,NA,Viterbo,Viterbo
5.6653948,51.9691868,231,Wageningen,EM-SANF,NA,NA,NA,NA,NA,NA,NA,NA,NA,NA,NA,NA,NA,NA,NA,5.6653948,51.9691868,http://www.emsanf.eu/UK/,NA,NA,NA,NA,NA,NA,NA,NA,NA,NA,NA,NA,NA,NA,NA,Wageningen,Wageningen
21.0122287,52.2296756,232,Warsaw,EMLE,ADVANCES,EMARO+,NA,NA,NA,NA,NA,NA,NA,NA,NA,NA,NA,NA,NA,21.0122287,52.2296756,http://www.emle.org/,http://www.socialworkadvances.org/,http://emaro.irccyn.ec-nantes.fr/,NA,NA,NA,NA,NA,NA,NA,NA,NA,NA,NA,NA,NA,Warsaw,Warsaw
17.0385376,51.1078852,233,Wroclaw,MONABIP,EMGS,NA,NA,NA,NA,NA,NA,NA,NA,NA,NA,NA,NA,NA,NA,17.0385376,51.1078852,http://www.monabiphot.ens-cachan.fr/,http://www.globalstudies-masters.info/,NA,NA,NA,NA,NA,NA,NA,NA,NA,NA,NA,NA,NA,NA,Wroclaw,Wroclaw
7.1507636,51.2562128,234,Wuppertal,EUROPHILOSOPHIE,NA,NA,NA,NA,NA,NA,NA,NA,NA,NA,NA,NA,NA,NA,NA,7.1507636,51.2562128,http://europhilomem.hypotheses.org/,NA,NA,NA,NA,NA,NA,NA,NA,NA,NA,NA,NA,NA,NA,NA,Wuppertal,Wuppertal
9.9533548,49.7913044,235,Würzburg,SPACEMASTER,NA,NA,NA,NA,NA,NA,NA,NA,NA,NA,NA,NA,NA,NA,NA,9.9533548,49.7913044,http://www.spacemaster.eu/,NA,NA,NA,NA,NA,NA,NA,NA,NA,NA,NA,NA,NA,NA,NA,Würzburg,Würzburg
-1.0872979,53.9599651,236,York,MUNDUS MAPP,NA,NA,NA,NA,NA,NA,NA,NA,NA,NA,NA,NA,NA,NA,NA,-1.0872979,53.9599651,http://www.mundusmapp.org/,NA,NA,NA,NA,NA,NA,NA,NA,NA,NA,NA,NA,NA,NA,NA,York,York
-0.8897421,41.6488696,237,Zaragoza,EDAMUS,NA,NA,NA,NA,NA,NA,NA,NA,NA,NA,NA,NA,NA,NA,NA,-0.8897421,41.6488696,http://www.master-edamus.eu/,NA,NA,NA,NA,NA,NA,NA,NA,NA,NA,NA,NA,NA,NA,NA,Zaragoza,Zaragoza
