X,Y,X,code,status,title,website,uni,country,city,lat,lon,xmin,ymin,xmax,ymax
4.3517103,50.8503396,1,4CITIES,, UNICA Euromaster in Urban Studies,http://www.4cities.eu/,Free University of Brussels,Belgium,Brussels,50.8503396,4.3517103,-5.7038,3.6761,18.3738,52.8503
-5.471047,56.415157,2,ACES,," Joint Masters Degree in Aquaculture, Environment and Society",http://www.sams.ac.uk/aces-erasmus,University of the Highlands and Islands,UK,Oban,56.415157,-5.471047,-7.471,33.3387,27.1442,58.4152
-0.540579,53.230688,3,ADVANCES,, MA Advanced Development in Social Work,http://www.socialworkadvances.org/,University of Lincoln,UK,Lincoln,53.230688,-0.540579,-11.1393,36.7223,23.0122,59.0488
6.9969327,49.2401572,4,AMASE,, Joint European Master Programme on Advanced Materials Science and Engineering,http://www.amase-master.net/,Saarland University,Germany,Saarbrücken,49.2401572,6.9969327,0.1734,39.3851,24.1567,67.5848
-7.9093074,38.5707119,5,ARCHMAT,, European Master in ARCHaeological MATerials Science,http://www.erasmusmundus-archmat.uevora.pt/,University of Evora,Portugal,Evora,38.5707119,-7.9093074,-9.9093,36.5707,24.9444,43.9028
11.3426163,44.494887,6,ASC,, Advanced Spectroscopy in Chemistry Master's Course,http://www.master-asc.org/,University of Bologna,Italy,Bologna,44.494887,11.3426163,1.0573,42.4949,26.9384,62.1699
11.4041024,47.2692124,7,ASTROMUNDUS,, Astrophysics,http://www.astromundus.eu/,University of Innsbruck,Austria,Innsbruck,47.2692124,11.4041024,-0.5959,39.9028,22.4489,53.5413
4.835659,45.764043,8,ATOSIM,DISCONTINUED," Atomic Scale Modelling of Physical, Chemical and Bio-molecular Systems",http://www.erasmusmundus-atosim.cecam.org/,University of Lyon,France,Lyon,45.764043,4.835659,2.8357,39.9028,14.4964,54.3702
3.7174243,51.0543422,9,BIFTEC,," European Master of Science in Food Science, Technology and Business",http://www.fet.kuleuven.be/biftec,University of Leuven,Belgium,Ghent,51.0543422,3.7174243,-10.6291,39.1579,13.7537,53.7834
11.5819806,48.1351253,10,CARTO,,CARTO E+ JMD Cartography,http://www.cartographymaster.eu/,Technical University of Munich,Germany,Munich,48.1351253,11.5819806,4.8937,46.1351,18.3738,54.2215
-7.9374948,37.0103271,11,ChIR,, Erasmus Mundus Master in Chemical Innovation and Regulation,http://www.emmcchir.org/,University of Algarve,Portugal,Faro,37.0103271,-7.9374948,-9.9304,35.0194,13.3426,57.9533
11.3426163,44.494887,12,CLE,, Master Erasmus Mundus en  en Cultures Litt̩raires Europ̩ennes,http://www.cle.unibo.it/site/,University of Bologna,Italy,Bologna,44.494887,11.3426163,-19.366,12.7645,24.9444,50.5734
19.040235,47.497912,13,CoDe,, Joint European Master in Comparative Local Development,http://www.erasmusmundus-code.eu/,Corvinus University of Budapest,Hungary,Budapest,47.497912,19.040235,9.1217,44.0569,21.0402,51.0134
10.3950528,63.4305149,14,CoMEM,, Erasmus Mundus MSC Coastal and Marine Engineering and Management,http://www.ntnu.edu/studies/mscomem,Norwegian University of Science and Technology,Norway,Trondheim,63.4305149,10.3950528,-3.4044,39.3851,12.3951,65.4305
4.3871779,45.439695,15,COSI,,COSI Colour in Science and Industry,http://www.master-colorscience.eu/,University Jean Monnet,France,Saint-Etienne,45.439695,4.3871779,-5.5986,35.1773,31.7636,64.601
13.05501,47.80949,16,DCLead,, Msc Digital Communication Leadership,http://www.dclead.eu/,University of Salzburg,Austria,Salzburg,47.80949,13.05501,2.3517,45.8095,15.055,59.0488
4.3871779,45.439695,17,Dyclam,, Dynamics of cultural landscapes and heritage management,http://www.dyclam.eu/fr/,University Jean Monnet,France,Saint-Etienne,45.439695,4.3871779,-10.4043,37.6052,16.2681,50.8566
26.7290063,58.3776252,18,EACH,, Excellence in Analytical Chemistry,http://www.analyticalchemistry.eu/,University of Tartu,Estonia,Tartu,58.3776252,26.7290063,2.8357,43.764,24.2666,62.4518
-0.1277583,51.5073509,19,EM HRPP,, Erasmus Mundus Masters in Human Rights Policy and Practice,http://ws1.roehampton.ac.uk/admissions/erasmusmundus/hrp/index.html,Roehampton University,UK,London,51.5073509,-0.1277583,-4.935,41.263,13.9746,59.7089
-1.553621,47.218371,20,EMARO+,, European Master on Advanced Robotics +,http://emaro.irccyn.ec-nantes.fr/,École centrale de Nantes,France,Nantes,47.218371,-1.553621,-3.5536,37.9864,23.0122,54.2297
7.7491265,49.4400657,22,EMECS,, European Masters programme in Embedded Computing Systems,http://www.emecs.eu/,University of Kaiserslautern,Germany,Kaiserslautern,49.4400657,7.7491265,-3.4044,47.4401,12.3951,65.4305
5.5796662,50.6325574,23,EMERALD,, Master Course in Georesources Engineering,http://em-georesources.eu/,University of Liège,Belgium,Liège,50.6325574,5.5796662,3.5591,46.6921,24.1567,67.5848
-0.1277583,51.5073509,24,EMGS,, Global Studies - A European Perspective,http://www.globalstudies-masters.info/,London School of Economics and Political Sciences,UK,London,51.5073509,-0.1277583,-2.1278,46.2082,19.0385,57.6419
4.4777325,51.9244201,25,EMLE,, European Master in Law and Economics,http://www.emle.org/,Erasmus University Rotterdam,Netherlands,Rotterdam,51.9244201,4.4777325,1.7174,17.076,74.8777,55.5511
19.040235,47.497912,26,EMLex ,,European Master in Lexicography,http://www.emlex.phil.uni-erlangen.de/,Karoli Gaspar University of the Reformed Church in Hungary,Hungary,Budapest,47.497912,19.040235,-10.5448,-35.9321,21.0402,54.1548
12.3155151,45.4408474,27,EMMCMSP,, Erasmus Mundus Master Course on Maritime Spatial Planning,http://www.iuav.it/Didattica1/master/master---I1/Erasmus-Mu/,IUAV University of Venice,Italy,Venice,45.4408474,12.3155151,-27.6806,35.3891,14.3155,47.4408
4.7005176,50.8798438,28,EMM-Nano,,Nano - Erasmus Mundus Master in Nanoscience and Nanotechnology,http://www.emm-nano.org/,Catholic University of Leuven,Belgium,Leuven,50.8798438,4.7005176,2.7005,43.1885,15.7373,59.7089
18.0084334,59.3688791,29,EMPHID,, Public Health in Disasters,http://www.pubhealthdisasters.eu/,Karolinska Institute,Sweden,Solna,59.3688791,18.0084334,-7.8494,41.3619,20.0084,61.3689
-7.9374948,37.0103271,30,EMQAL,, European Joint Master in Quality in Analytical Laboratories,http://www.emqal.org/,University of Algarve,Portugal,Faro,37.0103271,-7.9374948,-9.9304,34.5271,20.6466,62.3913
5.3220544,60.3912628,31,EMSD,, European Master programme in Systems Dynamics,http://www.europeansystemdynamics.eu/,University of Bergen,Norway,Bergen,60.3912628,5.3220544,-11.1393,36.1157,15.3613,62.3913
11.3547582,46.4982953,32,EMSE,, European Masters Programme in Software Engineering,http://em-se.eu/,Free University of Bozen-Bolzano,Italy,Bolzano,46.4982953,11.3547582,-5.7038,38.4168,27.4651,67.0121
5.5796662,50.6325574,33,EMSHIP,, European Education in Advanced Ship Design,http://www.emship.eu/,University of Liège,Belgium,Liège,50.6325574,5.5796662,-3.5536,42.4056,30.008,56.0924
9.4730519,55.495973,34,EMTM,, European Master in Tourism Management,http://www.emtmmaster.net/,University of Southern Denmark,Denmark,Kolding,55.495973,9.4730519,0.8214,39.9794,16.5058,57.496
2.3522219,48.856614,35,EPOG,," Master's Course - Economic Policies in the age of Globalisation : knowledge, finance and development",http://www.epog.eu/,University of Paris XIII-Nord,France,Paris,48.856614,2.3522219,-2.3007,-28.2041,30.0473,54.52
4.4024643,51.2194475,36,EUCOMOR,, European Master in Comparative Morphology,http://www.eucomor.net/,University of Antwerp,Belgium,Antwerp,51.2194475,4.4024643,2.4025,38.8518,18.9252,54.4064
5.36978,43.296482,37,EUROPHOTONICS,," Master in Photonics Engineering, Nanophotonics and Biophotonics",http://www.europhotonics.org/wordpress/,University of Aix-Marseille III Paul Cezanne,France,Marseille,43.296482,5.36978,0.1734,39.3851,27.2797,56.6872
-5.8493887,43.3619145,38,EU4M - EMMC,, EMMC Mechatronic Engineering,http://www.eu4m.eu/,University of Oviedo,Spain,Oviedo,43.3619145,-5.8493887,-7.8494,28.0131,42.9766,59.0051
12.4963655,41.9027835,39,EUPADRA,, PARLIAMENTARY PROCEDURES AND LEGISLATIVE DRAFTING,http://eupadra.eu/,Free International University of Social Studies,Italy,Rome,41.9027835,12.4963655,-5.7038,38.4168,14.4964,53.5074
-9.1393366,38.7222524,40,GroundwatCH,, Groundwater and Global Change - Impacts and Adaptation,http://www.groundwatermaster.eu/,Technical Institute of Lisbon,Portugal,Lisbon,38.7222524,-9.1393366,-11.1393,36.7223,15.7373,54.0116
7.6261347,51.9606649,41,GeoTech,, Master of Science in Geospatial Technologies,http://mastergeotech.info/,University of Münster,Germany,Münster,51.9606649,7.6261347,-11.1393,36.7223,9.6261,53.9607
2.1734035,41.3850639,42,GLOBED,,GLOBED Erasmus Mundus Joint Master Degree on Education Policies for Global Development,http://globed.eu/,Autonomous University of Barcelona,Spain,Barcelona,41.3850639,2.1734035,0.1734,33.8956,16.4869,61.9139
0.340375,46.580224,43,IMAE,, International Master in Applied Ecology,http://www.emmc-imae.org/,University of Poitiers,France,Poitiers,46.580224,0.340375,-53.2177,-32.0346,12.1228,56.3233
-4.251806,55.864237,44,IMAESC,, International Master in Adult Education for Social Change,http://www.gla.ac.uk/postgraduate/erasmusmundus/imaesc/,University of Glasgow,UK,Glasgow,55.864237,-4.251806,-6.2518,33.8956,26.7536,61.437
3.7174243,51.0543422,45,IMFSE,, International Master of Science in Fire Safety Engineering,http://www.imfse.ugent.be/,Ghent University,Belgium,Ghent,51.0543422,3.7174243,-5.1883,49.0543,15.191,57.9533
-3.7037902,40.4167754,46,IMIM,, International Master in Industrial Management,http://www.imim.polimi.it/,Technical University of Madrid,Spain,Madrid,40.4167754,-3.7037902,-5.7038,38.4168,13.582,57.9533
6.5665018,53.2193835,47,IMIM Med,, International Master in Innovative Medicine,http://www.innovativemedicine.eu/,University of Groningen,The Netherlands,Groningen,53.2193835,6.5665018,4.5665,47.3988,19.6389,61.8586
11.619787,44.8381237,48,IMQP,, Erasmus Mundus Master in Quaternary and Prehistory,https://sites.google.com/a/unife.it/quaternary-prehistory/,University of Ferrara,Italy,Ferrara,44.8381237,11.619787,-10.4043,37.6052,13.6198,50.8566
19.9449799,50.0646501,49,IMRCEES,," International Masters in Russian, Central and East European Studies",http://www.gla.ac.uk/postgraduate/erasmusmundus/imrcees/,Jagiellonian University,Poland,Krakow,50.0646501,19.9449799,-6.2518,39.7151,78.8512,60.3776
18.076376,48.3061414,50,IMRD,, International Master of Science in Rural Development,http://www.imrd.ugent.be/,Slovak University of Agriculture in Nitra,Slovakia,Nitra,48.3061414,18.076376,-3.6778,41.7228,20.0764,54.52
-9.1393366,38.7222524,51,KINOEYES | KEM,, The European Movie Masters,http://www.kinoeyes.eu/,Lusofona University,Portugal,Lisbon,38.7222524,-9.1393366,-11.1393,36.7223,26.7536,61.437
-1.9812313,43.318334,52,LCT,, European Masters Program in Language and Communication Technologies,http://www.lct-master.org/,The University of the Basque Country,Spain,San Sebastian,43.318334,-1.9812313,-3.9812,33.8956,16.4869,55.2194
4.4024643,51.2194475,53,LIVE,, Leading International Vaccinology Education,http://live.univ-lyon1.fr/,University of Antwerp,Belgium,Antwerp,51.2194475,4.4024643,0.1734,39.3851,6.8357,53.2194
2.8214264,41.9794005,54,MAIA,, Medical Imaging and Applications EMJMD,http://www.maiamaster.org/,University of Girona,Spain,Girona,41.9794005,2.8214264,0.8214,39.4908,15.8334,49.322
-1.6777926,48.117266,55,MAMASELF,, Master in material science exploring European large scale facilities,http://www.mamaself.eu/,University of Rennes 1,France,Rennes,48.117266,-1.6777926,-3.6778,41.6108,13.582,50.1351
13.3995091,42.3498479,56,MATHMODS,," Mathematical Modelling in Engineering: Theory, Numerics, Applications",http://www.mathmods.eu/,University of L'Aquila,Italy,L'Aquila,42.3498479,13.3995091,0.1734,39.3851,20.6466,56.352
-3.943646,51.62144,57,MCM,, Master of Science in Computational Mechanics,http://www.cimne.com/cm-master/,Swansea University,UK,Swansea,51.62144,-3.943646,-5.9436,39.3851,11.1829,53.6214
-5.93012,54.597285,58,ME3,, European Joint Masters in Management and Engineering of Environment and Energy,http://www.emn.fr/z-de/me3-site/,Queen's University Belfast,UK,Belfast,54.597285,-5.93012,-7.9301,38.4168,21.0402,61.3293
15.60384,48.40999,59,Media AC,,Media Arts Cultures,http://www.mediaartscultures.eu/,Danube University Krems,Austria,Krems an der Donau,48.40999,15.60384,7.9217,20.3964,116.1095,59.0488
9.1582069,45.1847248,60,MEEES,, Masters in Earthquake Engineering and Engineering Seismology,http://www.meees.org/,"Institute for Advanced Study/University of Pavia - UME School, Italy",Italy,Pavia,45.1847248,9.1582069,3.7245,36.2466,34.8597,54.401
4.4024643,51.2194475,61,MEGEI,, MA Economics of Globalisation and European Integration,http://www.ua.ac.be/egei,Antwerpen University,Belgium,Antwerp,51.2194475,4.4024643,-49.8822,-17.7942,18.8719,55.0027
6.5665018,53.2193835,62,MEME,, Erasmus Mundus Master Programme in Evolutionary Biology,http://www.evobio.eu/,University of Groningen,The Netherlands,Groningen,53.2193835,6.5665018,-73.1097,40.3736,19.6389,61.8586
-1.4043509,50.9097004,63,MEREMMC,, European MSc in Marine Environment and Resources,http://www.merconsortium.eu/,University of Southampton,UK,Southampton,50.9097004,-1.4043509,-4.9901,41.3267,7.5591,52.9097
-9.1393366,38.7222524,64,MFAMILY,, European Master in Social Work with Families and Children,http://www.mfamily.eu/,University Institute of Lisbon,Portugal,Lisbon,38.7222524,-9.1393366,-11.1393,-1.6524,34.5825,60.97
2.1734035,41.3850639,65,MIM,, Crossing the Mediterranean: towards investment and integration,http://www.mastermimplus.eu/,Autonomous University of Barcelona,Spain,Barcelona,41.3850639,2.1734035,0.1734,39.3851,14.3155,47.4408
2.331433,48.791855,66,MONABIP,, Molecular Nano- and Biophotonics,http://www.monabiphot.ens-cachan.fr/,Cachan Normal Superior University,France,Cachan,48.791855,2.331433,-5.7038,38.4168,19.0385,53.1079
4.8951679,52.3702157,67,MUNDUS JOURNALISM,," Erasmus Mundus Masters Journalism, Media and Globalisation",http://www.mundusjournalism.com/,University of Amsterdam,The Netherlands,Amsterdam,52.3702157,4.8951679,-5.9436,49.5074,11.9937,55.5511
5.724524,45.188529,68,MUNDUS URBANO,, Master of Science in International Cooperation and Urban Development,http://www.mundus-urbano.eu/,University of Grenoble- Alpes,France,Grenoble,45.188529,5.724524,0.1734,39.3851,14.4964,51.8728
22.1567026,65.584819,69,PERCCOM,, PERvasive Computing & COMmunications for Sustainable Development,http://perccom.univ-lorraine.fr/,Lulea University of Technology,Sweden,Lulea,65.584819,22.1567026,-1.6649,46.6921,30.1897,67.5848
-0.3762881,39.4699075,70,PlantHealth,, European Master degree in Plant Health in Sustainable Cropping Systems,http://planthealth.upv.es/,Technical University of Valencia,Spain,Valencia,39.4699075,-0.3762881,-3.6778,37.4699,13.8768,53.5413
8.5324708,52.0302285,71,QEM,, Models and Methods of Quantitative Economics,http://erasmusmundus-qem.univ-paris1.fr/,Bielefeld University,Germany,Bielefeld,52.0302285,8.5324708,0.1734,39.3851,14.3155,54.0302
22.1567026,65.584819,72,SPACEMASTER,, EMMC in Space Science and Technology,http://www.spacemaster.eu/,Lulea University of Technology,Sweden,Lulea,65.584819,22.1567026,-2.6087,33.6895,141.6917,67.5848
-3.188267,55.953252,73,SSI,, Joint International Master in Smart Systems Integration,http://ssi-master.eu/,Heriot Watt University,UK,Edinburgh,55.953252,-3.188267,-5.1883,45.4979,21.0402,61.1708
-5.8493887,43.3619145,74,STEPS,, Erasmus Mundus Master Course in Sustainable Transportation and Electrical Power Systems,http://emmcsteps.uniovi.es/,University of Oviedo,Spain,Oviedo,43.3619145,-5.8493887,-10.4404,38.2048,14.4964,54.9548
-3.7037902,40.4167754,76,TCCM,, Euromaster on Theoretical Chemistry and Computational Modelling,http://www.emtccm.org/,Autonomous University of Madrid,Spain,Madrid,40.4167754,-3.7037902,-10.6291,37.4699,14.3908,55.2194
-1.5490774,53.8007554,78,TRIBOS,, Joint European master in tribology of surfaces and interfaces,http://www.master-tribos.eu/,University of Leeds,UK,Leeds,53.8007554,-1.5490774,-10.4404,38.2048,24.1567,67.5848
4.3517103,50.8503396,79,TROPIMUNDO,, Erasmus Mundus Masters Course in Tropical Biodiversity and Ecosystems,http://www.tropimundo.eu/,Free University of Brussels,Belgium,Brussels,50.8503396,4.3517103,0.3522,-29.4954,155.012,52.8503
3.876716,43.610769,80,VINIFERA,, European Master of Science of Viticulture and Enology,http://vinifera-euromaster.eu/,Montpellier SupAgro,France,Montpellier,43.610769,3.876716,-11.1393,36.7223,15.2346,51.9844
1.2444909,41.1188827,81,WINTOUR,, EMJMD on Wine Tourism Innovation,http://www.wintour-master.eu/en_index/,University Rovira i Virgili,Spain,Tarragona,41.1188827,1.2444909,-10.6291,39.1189,3.2445,46.8378
4.3517103,50.8503396,82,4CITIES,, UNICA Euromaster in Urban Studies,http://www.4cities.eu/,Free University of Brussels,Belgium,Brussels,50.8503396,4.3517103,-5.7038,3.6761,18.3738,52.8503
25.1442126,35.3387352,83,ACES,," Joint Masters Degree in Aquaculture, Environment and Society",http://www.sams.ac.uk/aces-erasmus,University of Crete,Greece,Heraklion,35.3387352,25.1442126,-7.471,33.3387,27.1442,58.4152
9.921747,57.0488195,84,ADVANCES,, MA Advanced Development in Social Work,http://www.socialworkadvances.org/,Aalborg University,Denmark,Aalborg,57.0488195,9.921747,-11.1393,36.7223,23.0122,59.0488
22.1567026,65.584819,85,AMASE,, Joint European Master Programme on Advanced Materials Science and Engineering,http://www.amase-master.net/,Lulea Technology University,Sweden,Lulea,65.584819,22.1567026,0.1734,39.3851,24.1567,67.5848
12.4963655,41.9027835,86,ARCHMAT,, European Master in ARCHaeological MATerials Science,http://www.erasmusmundus-archmat.uevora.pt/,Sapienza University,Italy,Rome,41.9027835,12.4963655,-9.9093,36.5707,24.9444,43.9028
24.938379,60.1698557,87,ASC,, Advanced Spectroscopy in Chemistry Master's Course,http://www.master-asc.org/,University of Helsinki,Finland,Helsinki,60.1698557,24.938379,1.0573,42.4949,26.9384,62.1699
20.4489216,44.786568,88,ASTROMUNDUS,, Astrophysics,http://www.astromundus.eu/,University of Belgrade,Serbia,Belgrade,44.786568,20.4489216,-0.5959,39.9028,22.4489,53.5413
4.8951679,52.3702157,89,ATOSIM,DISCONTINUED," Atomic Scale Modelling of Physical, Chemical and Bio-molecular Systems",http://www.erasmusmundus-atosim.cecam.org/,University of Amsterdam,Netherlands,Amsterdam,52.3702157,4.8951679,2.8357,39.9028,14.4964,54.3702
-8.6291053,41.1579438,90,BIFTEC,," European Master of Science in Food Science, Technology and Business",http://www.fet.kuleuven.be/biftec,Catholic University of Portugal,Portugal,Porto,41.1579438,-8.6291053,-10.6291,39.1579,13.7537,53.7834
16.3738189,48.2081743,91,CARTO,,CARTO E+ JMD Cartography,http://www.cartographymaster.eu/,Vienna University of Technology,Austria,Vienna,48.2081743,16.3738189,4.8937,46.1351,18.3738,54.2215
2.1734035,41.3850639,92,ChIR,, Erasmus Mundus Master in Chemical Innovation and Regulation,http://www.emmcchir.org/,University of Barcelona,Spain,Barcelona,41.3850639,2.1734035,-9.9304,35.0194,13.3426,57.9533
7.335888,47.750839,93,CLE,, Master Erasmus Mundus en  en Cultures Litt̩raires Europ̩ennes,http://www.cle.unibo.it/site/,University of Upper Alsace,France,Mulhouse,47.750839,7.335888,-19.366,12.7645,24.9444,50.5734
11.1217486,46.0747793,94,CoDe,, Joint European Master in Comparative Local Development,http://www.erasmusmundus-code.eu/,University of Trento,Italy,Trento,46.0747793,11.1217486,9.1217,44.0569,21.0402,51.0134
2.1734035,41.3850639,95,CoMEM,, Erasmus Mundus MSC Coastal and Marine Engineering and Management,http://www.ntnu.edu/studies/mscomem,Technical University of Catalonia Barcelona Tech,Spain,Barcelona,41.3850639,2.1734035,-3.4044,39.3851,12.3951,65.4305
-3.5985571,37.1773363,96,COSI,,COSI Colour in Science and Industry,http://www.master-colorscience.eu/,University of Granada,Spain,Granada,37.1773363,-3.5985571,-5.5986,35.1773,31.7636,64.601
9.921747,57.0488195,97,DCLead,, Msc Digital Communication Leadership,http://www.dclead.eu/,Aalborg University,Denmark,Aalborg,57.0488195,9.921747,2.3517,45.8095,15.055,59.0488
-8.4042526,39.6052067,98,Dyclam,, Dynamics of cultural landscapes and heritage management,http://www.dyclam.eu/fr/,Polytechnic Institute of Tomar,Portugal,Tomar,39.6052067,-8.4042526,-10.4043,37.6052,16.2681,50.8566
4.835659,45.764043,99,EACH,, Excellence in Analytical Chemistry,http://www.analyticalchemistry.eu/,University Claude Bernard Lyon 1,France,Lyon,45.764043,4.835659,2.8357,43.764,24.2666,62.4518
11.97456,57.70887,100,EM HRPP,, Erasmus Mundus Masters in Human Rights Policy and Practice,http://ws1.roehampton.ac.uk/admissions/erasmusmundus/hrp/index.html,University of Gothenburg,Sweden,Gothenburg,57.70887,11.97456,-4.935,41.263,13.9746,59.7089
21.0122287,52.2296756,101,EMARO+,, European Master on Advanced Robotics +,http://emaro.irccyn.ec-nantes.fr/,Warsaw University of Technology,Poland,Warsaw,52.2296756,21.0122287,-3.5536,37.9864,23.0122,54.2297
-7.9374948,37.0103271,102,EMECC NURSING,, Emergency and Critical Care Nursing,http://masternursing.uniovi.es/,University of Algarve,Portugal,Faro,37.0103271,-7.9374948,-10.686,35.0194,26.9384,62.1699
6.184417,48.692054,104,EMERALD,, Master Course in Georesources Engineering,http://em-georesources.eu/,University of Lorraine,France,Nancy,48.692054,6.184417,3.5591,46.6921,24.1567,67.5848
12.087845,55.64191,105,EMGS,, Global Studies - A European Perspective,http://www.globalstudies-masters.info/,Roskilde University,Denmark,Roskilde,55.64191,12.087845,-2.1278,46.2082,19.0385,57.6419
5.447427,43.529742,106,EMLE,, European Master in Law and Economics,http://www.emle.org/,Aix-Marseille University,France,Aix-en-Provence,43.529742,5.447427,1.7174,17.076,74.8777,55.5511
19.0237815,50.2648919,107,EMLex ,,European Master in Lexicography,http://www.emlex.phil.uni-erlangen.de/,University of Silesia in Katowice,Poland,Katowice,50.2648919,19.0237815,-10.5448,-35.9321,21.0402,54.1548
-25.6805868,37.7428301,108,EMMCMSP,, Erasmus Mundus Master Course on Maritime Spatial Planning,http://www.iuav.it/Didattica1/master/master---I1/Erasmus-Mu/,University of the Azores,Portugal,Ponta Delgada,37.7428301,-25.6805868,-27.6806,35.3891,14.3155,47.4408
11.97456,57.70887,109,EMM-Nano,,Nano - Erasmus Mundus Master in Nanoscience and Nanotechnology,http://www.emm-nano.org/,Chalmers University of Technology,Sweden,Gothenburg,57.70887,11.97456,2.7005,43.1885,15.7373,59.7089
4.7005176,50.8798438,110,EMPHID,, Public Health in Disasters,http://www.pubhealthdisasters.eu/,Catholic University of Leuven,Belgium,Leuven,50.8798438,4.7005176,-7.8494,41.3619,20.0084,61.3689
2.1734035,41.3850639,111,EMQAL,, European Joint Master in Quality in Analytical Laboratories,http://www.emqal.org/,University of Barcelona,Spain,Barcelona,41.3850639,2.1734035,-9.9304,34.5271,20.6466,62.3913
-9.1393366,38.7222524,112,EMSD,, European Master programme in Systems Dynamics,http://www.europeansystemdynamics.eu/,New University of Lisbon,Portugal,Lisbon,38.7222524,-9.1393366,-11.1393,36.1157,15.3613,62.3913
25.4650773,65.0120888,113,EMSE,, European Masters Programme in Software Engineering,http://em-se.eu/,University of Oulu,Finland,Oulu,65.0120888,25.4650773,-5.7038,38.4168,27.4651,67.0121
-1.553621,47.218371,114,EMSHIP,, European Education in Advanced Ship Design,http://www.emship.eu/,École centrale de Nantes,France,Nantes,47.218371,-1.553621,-3.5536,42.4056,30.008,56.0924
14.5057515,46.0569465,115,EMTM,, European Master in Tourism Management,http://www.emtmmaster.net/,University of Ljubljana,Slovenia,Ljubljana,46.0569465,14.5057515,0.8214,39.9794,16.5058,57.496
13.404954,52.5200066,116,EPOG,," Master's Course - Economic Policies in the age of Globalisation : knowledge, finance and development",http://www.epog.eu/,Berlin School of Economics and Law,Germany,Berlin,52.5200066,13.404954,-2.3007,-28.2041,30.0473,54.52
8.6784031,50.5840512,117,EUCOMOR,, European Master in Comparative Morphology,http://www.eucomor.net/,Justus Liebig University Giessen,Germany,Giessen,50.5840512,8.6784031,2.4025,38.8518,18.9252,54.4064
8.4036527,49.0068901,118,EUROPHOTONICS,," Master in Photonics Engineering, Nanophotonics and Biophotonics",http://www.europhotonics.org/wordpress/,University of Karlsruhe,Germany,Karlsruhe,49.0068901,8.4036527,0.1734,39.3851,27.2797,56.6872
8.4036527,49.0068901,119,EU4M - EMMC,, EMMC Mechatronic Engineering,http://www.eu4m.eu/,Karlsruhe University of Applied Sciences,Germany,Karlsruhe,49.0068901,8.4036527,-7.8494,28.0131,42.9766,59.0051
-0.1277583,51.5073509,120,EUPADRA,, PARLIAMENTARY PROCEDURES AND LEGISLATIVE DRAFTING,http://eupadra.eu/,University of London,UK,London,51.5073509,-0.1277583,-5.7038,38.4168,14.4964,53.5074
4.3570677,52.0115769,121,GroundwatCH,, Groundwater and Global Change - Impacts and Adaptation,http://www.groundwatermaster.eu/,UNESCO-IHE Institute for Water Education,Netherlands,Delft,52.0115769,4.3570677,-11.1393,36.7223,15.7373,54.0116
-0.0513246,39.9863563,122,GeoTech,, Master of Science in Geospatial Technologies,http://mastergeotech.info/,University Jaume I,Spain,Castellón de la Plana,39.9863563,-0.0513246,-11.1393,36.7223,9.6261,53.9607
10.7522454,59.9138688,123,GLOBED,,GLOBED Erasmus Mundus Joint Master Degree on Education Policies for Global Development,http://globed.eu/,University of Oslo,Norway,Oslo,59.9138688,10.7522454,0.1734,33.8956,16.4869,61.9139
10.1227652,54.3232927,124,IMAE,, International Master in Applied Ecology,http://www.emmc-imae.org/,University Christian-Albrechts,Germany,Kiel,54.3232927,10.1227652,-53.2177,-32.0346,12.1228,56.3233
14.4868883,35.8956388,125,IMAESC,, International Master in Adult Education for Social Change,http://www.gla.ac.uk/postgraduate/erasmusmundus/imaesc/,University of Malta,Malta,Msida,35.8956388,14.4868883,-6.2518,33.8956,26.7536,61.437
13.1910073,55.7046601,126,IMFSE,, International Master of Science in Fire Safety Engineering,http://www.imfse.ugent.be/,Lund University,Sweden,Lund,55.7046601,13.1910073,-5.1883,49.0543,15.191,57.9533
9.1859243,45.4654219,127,IMIM,, International Master in Industrial Management,http://www.imim.polimi.it/,Polytechnic University of Milan,Italy,Milan,45.4654219,9.1859243,-5.7038,38.4168,13.582,57.9533
8.6724335,49.3987524,128,IMIM Med,, International Master in Innovative Medicine,http://www.innovativemedicine.eu/,Heidelberg University,Germany,Heidelberg,49.3987524,8.6724335,4.5665,47.3988,19.6389,61.8586
1.2444909,41.1188827,129,IMQP,, Erasmus Mundus Master in Quaternary and Prehistory,https://sites.google.com/a/unife.it/quaternary-prehistory/,Rovira i Virgili University,Spain,Tarragona,41.1188827,1.2444909,-10.4043,37.6052,13.6198,50.8566
-4.251806,55.864237,130,IMRCEES,," International Masters in Russian, Central and East European Studies",http://www.gla.ac.uk/postgraduate/erasmusmundus/imrcees/,University of Glasgow,UK,Glasgow,55.864237,-4.251806,-6.2518,39.7151,78.8512,60.3776
10.4016888,43.7228386,131,IMRD,, International Master of Science in Rural Development,http://www.imrd.ugent.be/,University of Pisa,Italy,Pisa,43.7228386,10.4016888,-3.6778,41.7228,20.0764,54.52
-3.188267,55.953252,132,KINOEYES | KEM,, The European Movie Masters,http://www.kinoeyes.eu/,Edinburgh Napier University,UK,Edinburgh,55.953252,-3.188267,-11.1393,36.7223,26.7536,61.437
6.5665018,53.2193835,133,LCT,, European Masters Program in Language and Communication Technologies,http://www.lct-master.org/,University of Groningen,The Netherlands,Groningen,53.2193835,6.5665018,-3.9812,33.8956,16.4869,55.2194
2.1734035,41.3850639,134,LIVE,, Leading International Vaccinology Education,http://live.univ-lyon1.fr/,University of Barcelona,Spain,Barcelona,41.3850639,2.1734035,0.1734,39.3851,6.8357,53.2194
5.04148,47.322047,135,MAIA,, Medical Imaging and Applications EMJMD,http://www.maiamaster.org/,University of Bourgogne,France,Dijon,47.322047,5.04148,0.8214,39.4908,15.8334,49.322
11.5819806,48.1351253,136,MAMASELF,, Master in material science exploring European large scale facilities,http://www.mamaself.eu/,Technical University of Munich,Germany,Munich,48.1351253,11.5819806,-3.6778,41.6108,13.582,50.1351
2.1734035,41.3850639,137,MATHMODS,," Mathematical Modelling in Engineering: Theory, Numerics, Applications",http://www.mathmods.eu/,Autonomous University - Barcelona,Spain,Barcelona,41.3850639,2.1734035,0.1734,39.3851,20.6466,56.352
9.1829321,48.7758459,138,MCM,, Master of Science in Computational Mechanics,http://www.cimne.com/cm-master/,Stuttgart University,Germany,Stuttgart,48.7758459,9.1829321,-5.9436,39.3851,11.1829,53.6214
19.040235,47.497912,139,ME3,, European Joint Masters in Management and Engineering of Environment and Energy,http://www.emn.fr/z-de/me3-site/,Budapest University of Technology and Economics,Hungary,Budapest,47.497912,19.040235,-7.9301,38.4168,21.0402,61.3293
9.921747,57.0488195,140,Media AC,,Media Arts Cultures,http://www.mediaartscultures.eu/,Aalborg University,Denmark,Aalborg,57.0488195,9.921747,7.9217,20.3964,116.1095,59.0488
5.724524,45.188529,141,MEEES,, Masters in Earthquake Engineering and Engineering Seismology,http://www.meees.org/,University of Grenoble Joseph Fourier,France,Grenoble,45.188529,5.724524,3.7245,36.2466,34.8597,54.401
16.8719083,41.1171488,142,MEGEI,, MA Economics of Globalisation and European Integration,http://www.ua.ac.be/egei,University of Bari Aldo Moro,Italy,Bari,41.1171488,16.8719083,-49.8822,-17.7942,18.8719,55.0027
11.5819806,48.1351253,143,MEME,, Erasmus Mundus Master Programme in Evolutionary Biology,http://www.evobio.eu/,Ludwig Maximilians University of Munich,Germany,Munich,48.1351253,11.5819806,-73.1097,40.3736,19.6389,61.8586
-0.57918,44.837789,144,MEREMMC,, European MSc in Marine Environment and Resources,http://www.merconsortium.eu/,Bordeaux University,France,Bordeaux,44.837789,-0.57918,-4.9901,41.3267,7.5591,52.9097
11.97456,57.70887,145,MFAMILY,, European Master in Social Work with Families and Children,http://www.mfamily.eu/,University of Gothenburg,Sweden,Gothenburg,57.70887,11.97456,-11.1393,-1.6524,34.5825,60.97
3.876716,43.610769,146,MIM,, Crossing the Mediterranean: towards investment and integration,http://www.mastermimplus.eu/,Paul-Valery Montpellier University,France,Montpellier,43.610769,3.876716,0.1734,39.3851,14.3155,47.4408
-3.7037902,40.4167754,147,MONABIP,, Molecular Nano- and Biophotonics,http://www.monabiphot.ens-cachan.fr/,Complutense University of Madrid,Spain,Madrid,40.4167754,-3.7037902,-5.7038,38.4168,19.0385,53.1079
-0.1277583,51.5073509,148,MUNDUS JOURNALISM,," Erasmus Mundus Masters Journalism, Media and Globalisation",http://www.mundusjournalism.com/,City University London,UK,London,51.5073509,-0.1277583,-5.9436,49.5074,11.9937,55.5511
8.6511929,49.8728253,149,MUNDUS URBANO,, Master of Science in International Cooperation and Urban Development,http://www.mundus-urbano.eu/,Darmstadt University,Germany,Darmstadt,49.8728253,8.6511929,0.1734,39.3851,14.4964,51.8728
6.184417,48.692054,150,PERCCOM,, PERvasive Computing & COMmunications for Sustainable Development,http://perccom.univ-lorraine.fr/,University of Lorraine,France,Nancy,48.692054,6.184417,-1.6649,46.6921,30.1897,67.5848
9.9158035,51.5412804,151,PlantHealth,, European Master degree in Plant Health in Sustainable Cropping Systems,http://planthealth.upv.es/,University of Göttingen,Germany,Göttingen,51.5412804,9.9158035,-3.6778,37.4699,13.8768,53.5413
2.3522219,48.856614,152,QEM,, Models and Methods of Quantitative Economics,http://erasmusmundus-qem.univ-paris1.fr/,Pantheon-Sorbonne University,France,Paris,48.856614,2.3522219,0.1734,39.3851,14.3155,54.0302
9.9533548,49.7913044,153,SPACEMASTER,, EMMC in Space Science and Technology,http://www.spacemaster.eu/,University of Würzburg,Germany,Würzburg,49.7913044,9.9533548,-2.6087,33.6895,141.6917,67.5848
10.1144355,59.1707862,154,SSI,, Joint International Master in Smart Systems Integration,http://ssi-master.eu/,Buskerud and Vestfold University College,Norway,Vestfold,59.1707862,10.1144355,-5.1883,45.4979,21.0402,61.1708
-1.1581086,52.9547832,155,STEPS,, Erasmus Mundus Master Course in Sustainable Transportation and Electrical Power Systems,http://emmcsteps.uniovi.es/,University of Nottingham,UK,Nottingham,52.9547832,-1.1581086,-10.4404,38.2048,14.4964,54.9548
-0.3762881,39.4699075,157,TCCM,, Euromaster on Theoretical Chemistry and Computational Modelling,http://www.emtccm.org/,University of Valencia,Spain,Valencia,39.4699075,-0.3762881,-10.6291,37.4699,14.3908,55.2194
-7.9093074,38.5707119,158,TPTI,," Techniques, Patrimoine, Territoires de l'Industrie",http://www.tpti.eu/,University of Evora,Portugal,Evora,38.5707119,-7.9093074,-9.9093,36.5707,13.8768,50.8566
14.5057515,46.0569465,159,TRIBOS,, Joint European master in tribology of surfaces and interfaces,http://www.master-tribos.eu/,University of Ljubljana,Slovenia,Ljubljana,46.0569465,14.5057515,-10.4404,38.2048,24.1567,67.5848
-0.57918,44.837789,161,VINIFERA,, European Master of Science of Viticulture and Enology,http://vinifera-euromaster.eu/,Bordeaux Sciences Agro,France,Bordeaux,44.837789,-0.57918,-11.1393,36.7223,15.2346,51.9844
-0.57918,44.837789,162,WINTOUR,, EMJMD on Wine Tourism Innovation,http://www.wintour-master.eu/en_index/,University of Bordeaux,France,Bordeaux,44.837789,-0.57918,-10.6291,39.1189,3.2445,46.8378
16.3738189,48.2081743,163,4CITIES,, UNICA Euromaster in Urban Studies,http://www.4cities.eu/,University of Vienna,Austria,Vienna,48.2081743,16.3738189,-5.7038,3.6761,18.3738,52.8503
-1.553621,47.218371,164,ACES,," Joint Masters Degree in Aquaculture, Environment and Society",http://www.sams.ac.uk/aces-erasmus,University of Nantes,France,Nantes,47.218371,-1.553621,-7.471,33.3387,27.1442,58.4152
-9.1393366,38.7222524,165,ADVANCES,, MA Advanced Development in Social Work,http://www.socialworkadvances.org/,University of Lisbon,Portugal,Lisbon,38.7222524,-9.1393366,-11.1393,36.7223,23.0122,59.0488
6.184417,48.692054,166,AMASE,, Joint European Master Programme on Advanced Materials Science and Engineering,http://www.amase-master.net/,University of Lorraine,France,Nancy,48.692054,6.184417,0.1734,39.3851,24.1567,67.5848
22.9444191,40.6400629,167,ARCHMAT,, European Master in ARCHaeological MATerials Science,http://www.erasmusmundus-archmat.uevora.pt/,Aristotle University of Thessaloniki,Greece,Thessaloniki,40.6400629,22.9444191,-9.9093,36.5707,24.9444,43.9028
19.9449799,50.0646501,168,ASC,, Advanced Spectroscopy in Chemistry Master's Course,http://www.master-asc.org/,Jagiellonian University,Poland,Krakow,50.0646501,19.9449799,1.0573,42.4949,26.9384,62.1699
9.9158035,51.5412804,169,ASTROMUNDUS,, Astrophysics,http://www.astromundus.eu/,University of Göttingen,Germany,Göttingen,51.5412804,9.9158035,-0.5959,39.9028,22.4489,53.5413
4.8951679,52.3702157,170,ATOSIM,DISCONTINUED," Atomic Scale Modelling of Physical, Chemical and Bio-molecular Systems",http://www.erasmusmundus-atosim.cecam.org/,Free University of Amsterdam,Netherlands,Amsterdam,52.3702157,4.8951679,2.8357,39.9028,14.4964,54.3702
11.7537327,51.7833579,171,BIFTEC,," European Master of Science in Food Science, Technology and Business",http://www.fet.kuleuven.be/biftec,Anhalt University of Applied Sciences,Germany,Bernburg,51.7833579,11.7537327,-10.6291,39.1579,13.7537,53.7834
13.7372621,51.0504088,172,CARTO,,CARTO E+ JMD Cartography,http://www.cartographymaster.eu/,Dresden University of Technology,Germany,Dresden,51.0504088,13.7372621,4.8937,46.1351,18.3738,54.2215
11.3426163,44.494887,173,ChIR,, Erasmus Mundus Master in Chemical Innovation and Regulation,http://www.emmcchir.org/,University of Bologna,Italy,Bologna,44.494887,11.3426163,-9.9304,35.0194,13.3426,57.9533
7.7521113,48.5734053,174,CLE,, Master Erasmus Mundus en  en Cultures Litt̩raires Europ̩ennes,http://www.cle.unibo.it/site/,University of Strasbourg,France,Strasbourg,48.5734053,7.7521113,-19.366,12.7645,24.9444,50.5734
14.5057515,46.0569465,175,CoDe,, Joint European Master in Comparative Local Development,http://www.erasmusmundus-code.eu/,University of Ljubljana,Slovenia,Ljubljana,46.0569465,14.5057515,9.1217,44.0569,21.0402,51.0134
4.3570677,52.0115769,176,CoMEM,, Erasmus Mundus MSC Coastal and Marine Engineering and Management,http://www.ntnu.edu/studies/mscomem,Delft University of Technology,Netherlands,Delft,52.0115769,4.3570677,-3.4044,39.3851,12.3951,65.4305
29.7635719,62.6010155,177,COSI,,COSI Colour in Science and Industry,http://www.master-colorscience.eu/,University of Eastern Finland,Finland,Joensuu,62.6010155,29.7635719,-5.5986,35.1773,31.7636,64.601
4.3517103,50.8503396,178,DCLead,, Msc Digital Communication Leadership,http://www.dclead.eu/,Free University of Brussel,Belgium,Brussels,50.8503396,4.3517103,2.3517,45.8095,15.055,59.0488
14.2681244,40.8517746,179,Dyclam,, Dynamics of cultural landscapes and heritage management,http://www.dyclam.eu/fr/,University of Naples Federico II,Italy,Napoli,40.8517746,14.2681244,-10.4043,37.6052,16.2681,50.8566
17.6389267,59.8585638,180,EACH,, Excellence in Analytical Chemistry,http://www.analyticalchemistry.eu/,Uppsala University,Sweden,Uppsala,59.8585638,17.6389267,2.8357,43.764,24.2666,62.4518
-2.9349852,43.2630126,181,EM HRPP,, Erasmus Mundus Masters in Human Rights Policy and Practice,http://ws1.roehampton.ac.uk/admissions/erasmusmundus/hrp/index.html,University of Deusto,Spain,Bilbao,43.2630126,-2.9349852,-4.935,41.263,13.9746,59.7089
8.946256,44.4056499,182,EMARO+,, European Master on Advanced Robotics +,http://emaro.irccyn.ec-nantes.fr/,University of Genova,Italy,Genova,44.4056499,8.946256,-3.5536,37.9864,23.0122,54.2297
-8.704075,39.2848804,183,EMECC NURSING,, Emergency and Critical Care Nursing,http://masternursing.uniovi.es/,Polytechnic University of Santarém,Portugal,Santarém,39.2848804,-8.704075,-10.686,35.0194,26.9384,62.1699
-1.4043509,50.9097004,184,EMECS,, European Masters programme in Embedded Computing Systems,http://www.emecs.eu/,University of Southampton,UK,Southampton,50.9097004,-1.4043509,-3.4044,47.4401,12.3951,65.4305
12.3730747,51.3396955,186,EMGS,, Global Studies - A European Perspective,http://www.globalstudies-masters.info/,University of Leipzig,Germany,Leipzig,51.3396955,12.3730747,-2.1278,46.2082,19.0385,57.6419
11.3426163,44.494887,187,EMLE,, European Master in Law and Economics,http://www.emle.org/,University of Bologna,Italy,Bologna,44.494887,11.3426163,1.7174,17.076,74.8777,55.5511
6.184417,48.692054,188,EMLex ,,European Master in Lexicography,http://www.emlex.phil.uni-erlangen.de/,University of Lorraine,France,Nancy,48.692054,6.184417,-10.5448,-35.9321,21.0402,54.1548
-5.9844589,37.3890924,189,EMMCMSP,, Erasmus Mundus Master Course on Maritime Spatial Planning,http://www.iuav.it/Didattica1/master/master---I1/Erasmus-Mu/,University of Seville,Spain,Seville,37.3890924,-5.9844589,-27.6806,35.3891,14.3155,47.4408
5.724524,45.188529,190,EMM-Nano,,Nano - Erasmus Mundus Master in Nanoscience and Nanotechnology,http://www.emm-nano.org/,University Joseph Fourier,France,Grenoble,45.188529,5.724524,2.7005,43.1885,15.7373,59.7089
-5.8493887,43.3619145,191,EMPHID,, Public Health in Disasters,http://www.pubhealthdisasters.eu/,University of Oviedo,Spain,Oviedo,43.3619145,-5.8493887,-7.8494,41.3619,20.0084,61.3689
5.3220544,60.3912628,192,EMQAL,, European Joint Master in Quality in Analytical Laboratories,http://www.emqal.org/,University of Bergen,Norway,Bergen,60.3912628,5.3220544,-9.9304,34.5271,20.6466,62.3913
13.3612671,38.1156879,193,EMSD,, European Master programme in Systems Dynamics,http://www.europeansystemdynamics.eu/,University of Palermo,Italy,Palermo,38.1156879,13.3612671,-11.1393,36.1157,15.3613,62.3913
7.7491265,49.4400657,194,EMSE,, European Masters Programme in Software Engineering,http://em-se.eu/,University of Kaiserslautern,Germany,Kaiserslautern,49.4400657,7.7491265,-5.7038,38.4168,27.4651,67.0121
28.0079945,45.4353208,195,EMSHIP,, European Education in Advanced Ship Design,http://www.emship.eu/,University of Galati Dunarea de Jos,Romania,Galati,45.4353208,28.0079945,-3.5536,42.4056,30.008,56.0924
2.8214264,41.9794005,196,EMTM,, European Master in Tourism Management,http://www.emtmmaster.net/,University of Girona,Spain,Girona,41.9794005,2.8214264,0.8214,39.9794,16.5058,57.496
-0.300689,51.41233,197,EPOG,," Master's Course - Economic Policies in the age of Globalisation : knowledge, finance and development",http://www.epog.eu/,Kingston University,UK,Kingston,51.41233,-0.300689,-2.3007,-28.2041,30.0473,54.52
16.3738189,48.2081743,198,EUCOMOR,, European Master in Comparative Morphology,http://www.eucomor.net/,University of Veterinary Medicine,Austria,Vienna,48.2081743,16.3738189,2.4025,38.8518,18.9252,54.4064
2.1734035,41.3850639,199,EUROPHOTONICS,," Master in Photonics Engineering, Nanophotonics and Biophotonics",http://www.europhotonics.org/wordpress/,Polytechnic University of Catalonia,Spain,Barcelona,41.3850639,2.1734035,0.1734,39.3851,27.2797,56.6872
6.0240539,47.237829,200,EU4M - EMMC,, EMMC Mechatronic Engineering,http://www.eu4m.eu/,École Nationale Supérieure de Mécanique et des Microtechniques,France,Besançon,47.237829,6.0240539,-7.8494,28.0131,42.9766,59.0051
-3.7037902,40.4167754,201,EUPADRA,, PARLIAMENTARY PROCEDURES AND LEGISLATIVE DRAFTING,http://eupadra.eu/,Complutense University of Madrid,Spain,Madrid,40.4167754,-3.7037902,-5.7038,38.4168,14.4964,53.5074
13.7372621,51.0504088,202,GroundwatCH,, Groundwater and Global Change - Impacts and Adaptation,http://www.groundwatermaster.eu/,Dresden University of Technology,Germany,Dresden,51.0504088,13.7372621,-11.1393,36.7223,15.7373,54.0116
-9.1393366,38.7222524,203,GeoTech,, Master of Science in Geospatial Technologies,http://mastergeotech.info/,New University of Lisbon,Portugal,Lisbon,38.7222524,-9.1393366,-11.1393,36.7223,9.6261,53.9607
14.4868883,35.8956388,204,GLOBED,,GLOBED Erasmus Mundus Joint Master Degree on Education Policies for Global Development,http://globed.eu/,University of Malta,Malta,Msida,35.8956388,14.4868883,0.1734,33.8956,16.4869,61.9139
-8.4403573,40.2048286,205,IMAE,, International Master in Applied Ecology,http://www.emmc-imae.org/,University of Coimbra,Portugal,Coimbra,40.2048286,-8.4403573,-53.2177,-32.0346,12.1228,56.3233
24.7535746,59.4369608,206,IMAESC,, International Master in Adult Education for Social Change,http://www.gla.ac.uk/postgraduate/erasmusmundus/imaesc/,Tallinn University,Estonia,Tallinn,59.4369608,24.7535746,-6.2518,33.8956,26.7536,61.437
-3.188267,55.953252,207,IMFSE,, International Master of Science in Fire Safety Engineering,http://www.imfse.ugent.be/,The University of Edinburgh,UK,Edinburgh,55.953252,-3.188267,-5.1883,49.0543,15.191,57.9533
-3.188267,55.953252,208,IMIM,, International Master in Industrial Management,http://www.imim.polimi.it/,Heriot-Watt University,UK,Edinburgh,55.953252,-3.188267,-5.7038,38.4168,13.582,57.9533
17.6389267,59.8585638,209,IMIM Med,, International Master in Innovative Medicine,http://www.innovativemedicine.eu/,Uppsala University,Sweden,Uppsala,59.8585638,17.6389267,4.5665,47.3988,19.6389,61.8586
-8.4042526,39.6052067,210,IMQP,, Erasmus Mundus Master in Quaternary and Prehistory,https://sites.google.com/a/unife.it/quaternary-prehistory/,Polytechnic Institute of Tomar,Portugal,Tomar,39.6052067,-8.4042526,-10.4043,37.6052,13.6198,50.8566
19.040235,47.497912,211,IMRCEES,," International Masters in Russian, Central and East European Studies",http://www.gla.ac.uk/postgraduate/erasmusmundus/imrcees/,Corvinus University of Budapest,Hungary,Budapest,47.497912,19.040235,-6.2518,39.7151,78.8512,60.3776
-1.6777926,48.117266,212,IMRD,, International Master of Science in Rural Development,http://www.imrd.ugent.be/,Agrocampus Ouest,France,Rennes,48.117266,-1.6777926,-3.6778,41.7228,20.0764,54.52
24.7535746,59.4369608,213,KINOEYES | KEM,, The European Movie Masters,http://www.kinoeyes.eu/,Baltic Film and Media School,Estonia,Tallinn,59.4369608,24.7535746,-11.1393,36.7223,26.7536,61.437
6.184417,48.692054,214,LCT,, European Masters Program in Language and Communication Technologies,http://www.lct-master.org/,University of Lorraine,France,Nancy,48.692054,6.184417,-3.9812,33.8956,16.4869,55.2194
2.1734035,41.3850639,215,LIVE,, Leading International Vaccinology Education,http://live.univ-lyon1.fr/,Autonomous University of Barcelona,Spain,Barcelona,41.3850639,2.1734035,0.1734,39.3851,6.8357,53.2194
13.8332193,41.4866953,216,MAIA,, Medical Imaging and Applications EMJMD,http://www.maiamaster.org/,University of Cassino and Southern Lazio,Italy,Cassino,41.4866953,13.8332193,0.8214,39.4908,15.8334,49.322
11.5819806,48.1351253,217,MAMASELF,, Master in material science exploring European large scale facilities,http://www.mamaself.eu/,Ludwig Maximilian University,Germany,Munich,48.1351253,11.5819806,-3.6778,41.6108,13.582,50.1351
18.6466384,54.3520252,218,MATHMODS,," Mathematical Modelling in Engineering: Theory, Numerics, Applications",http://www.mathmods.eu/,Gdansk University of Technology,Poland,Gdansk,54.3520252,18.6466384,0.1734,39.3851,20.6466,56.352
2.1734035,41.3850639,219,MCM,, Master of Science in Computational Mechanics,http://www.cimne.com/cm-master/,Polytechnic University of Catalonia,Spain,Barcelona,41.3850639,2.1734035,-5.9436,39.3851,11.1829,53.6214
-3.7037902,40.4167754,220,ME3,, European Joint Masters in Management and Engineering of Environment and Energy,http://www.emn.fr/z-de/me3-site/,The Technical University of Madrid,Spain,Madrid,40.4167754,-3.7037902,-7.9301,38.4168,21.0402,61.3293
19.4559833,51.7592485,221,Media AC,,Media Arts Cultures,http://www.mediaartscultures.eu/,University of Lodz,Poland,Lodz,51.7592485,19.4559833,7.9217,20.3964,116.1095,59.0488
21.734574,38.2466395,222,MEEES,, Masters in Earthquake Engineering and Engineering Seismology,http://www.meees.org/,University of Patras,Greece,Patras,38.2466395,21.734574,3.7245,36.2466,34.8597,54.401
-2.179404,53.002668,223,MEGEI,, MA Economics of Globalisation and European Integration,http://www.ua.ac.be/egei,Staffordshire University,UK,Stoke-on-Trent,53.002668,-2.179404,-49.8822,-17.7942,18.8719,55.0027
17.6389267,59.8585638,224,MEME,, Erasmus Mundus Master Programme in Evolutionary Biology,http://www.evobio.eu/,Uppsala University,Sweden,Uppsala,59.8585638,17.6389267,-73.1097,40.3736,19.6389,61.8586
5.5796662,50.6325574,225,MEREMMC,, European MSc in Marine Environment and Resources,http://www.merconsortium.eu/,University of Liège,Belgium,Liège,50.6325574,5.5796662,-4.9901,41.3267,7.5591,52.9097
5.7331073,58.9699756,226,MFAMILY,, European Master in Social Work with Families and Children,http://www.mfamily.eu/,University of Stavanger,Norway,Stavanger,58.9699756,5.7331073,-11.1393,-1.6524,34.5825,60.97
12.3155151,45.4408474,227,MIM,, Crossing the Mediterranean: towards investment and integration,http://www.mastermimplus.eu/,Ca' Foscari University of Venice,Italy,Venice,45.4408474,12.3155151,0.1734,39.3851,14.3155,47.4408
17.0385376,51.1078852,228,MONABIP,, Molecular Nano- and Biophotonics,http://www.monabiphot.ens-cachan.fr/,Wroclaw University of Technology,Poland,Wroclaw,51.1078852,17.0385376,-5.7038,38.4168,19.0385,53.1079
9.9936818,53.5510846,229,MUNDUS JOURNALISM,," Erasmus Mundus Masters Journalism, Media and Globalisation",http://www.mundusjournalism.com/,University of Hamburg,Germany,Hamburg,53.5510846,9.9936818,-5.9436,49.5074,11.9937,55.5511
2.1734035,41.3850639,230,MUNDUS URBANO,, Master of Science in International Cooperation and Urban Development,http://www.mundus-urbano.eu/,University of Catalonia,Spain,Barcelona,41.3850639,2.1734035,0.1734,39.3851,14.4964,51.8728
30.3350986,59.9342802,231,PERCCOM,, PERvasive Computing & COMmunications for Sustainable Development,http://perccom.univ-lorraine.fr/,ITMO University,Russia,Saint Petersburg,59.9342802,30.3350986,-1.6649,46.6921,30.1897,67.5848
-1.6777926,48.117266,232,PlantHealth,, European Master degree in Plant Health in Sustainable Cropping Systems,http://planthealth.upv.es/,Agrocampus Ouest,France,Rennes,48.117266,-1.6777926,-3.6778,37.4699,13.8768,53.5413
2.1734035,41.3850639,233,QEM,, Models and Methods of Quantitative Economics,http://erasmusmundus-qem.univ-paris1.fr/,Autonomous University of Barcelona,Spain,Barcelona,41.3850639,2.1734035,0.1734,39.3851,14.3155,54.0302
-0.6087411,52.0686347,234,SPACEMASTER,, EMMC in Space Science and Technology,http://www.spacemaster.eu/,Cranfield University,UK,Cranfield,52.0686347,-0.6087411,-2.6087,33.6895,141.6917,67.5848
19.040235,47.497912,235,SSI,, Joint International Master in Smart Systems Integration,http://ssi-master.eu/,Budapest University of Technology and Economics,Hungary,Budapest,47.497912,19.040235,-5.1883,45.4979,21.0402,61.1708
12.4963655,41.9027835,236,STEPS,, Erasmus Mundus Master Course in Sustainable Transportation and Electrical Power Systems,http://emmcsteps.uniovi.es/,University of Rome,Italy,Rome,41.9027835,12.4963655,-10.4404,38.2048,14.4964,54.9548
6.5665018,53.2193835,238,TCCM,, Euromaster on Theoretical Chemistry and Computational Modelling,http://www.emtccm.org/,University of Groningen,Netherlands,Groningen,53.2193835,6.5665018,-10.6291,37.4699,14.3908,55.2194
11.8767611,45.4064349,239,TPTI,," Techniques, Patrimoine, Territoires de l'Industrie",http://www.tpti.eu/,University of Padova,Italy,Padova,45.4064349,11.8767611,-9.9093,36.5707,13.8768,50.8566
-8.4403573,40.2048286,240,TRIBOS,, Joint European master in tribology of surfaces and interfaces,http://www.master-tribos.eu/,University of Coimbra,Portugal,Coimbra,40.2048286,-8.4403573,-10.4404,38.2048,24.1567,67.5848
2.3522219,48.856614,241,TROPIMUNDO,, Erasmus Mundus Masters Course in Tropical Biodiversity and Ecosystems,http://www.tropimundo.eu/,Pierre and Marie Curie University,France,Paris,48.856614,2.3522219,0.3522,-29.4954,155.012,52.8503
7.9666942,49.9864335,242,VINIFERA,, European Master of Science of Viticulture and Enology,http://vinifera-euromaster.eu/,Hochschule Geisenheim University,Germany,Geisenheim,49.9864335,7.9666942,-11.1393,36.7223,15.2346,51.9844
12.5683371,55.6760968,244,4CITIES,, UNICA Euromaster in Urban Studies,http://www.4cities.eu/,University of Copenhagen,Denmark,Copenhagen,55.6760968,12.5683371,-5.7038,3.6761,18.3738,52.8503
2.3522219,48.856614,245,ADVANCES,, MA Advanced Development in Social Work,http://www.socialworkadvances.org/,Universit̩ Paris Ouest Nanterre La D̩fense,France,Paris,48.856614,2.3522219,-11.1393,36.7223,23.0122,59.0488
2.1734035,41.3850639,246,AMASE,, Joint European Master Programme on Advanced Materials Science and Engineering,http://www.amase-master.net/,Polytechnic University of Catalonia - BarcelonaTech,Spain,Barcelona,41.3850639,2.1734035,0.1734,39.3851,24.1567,67.5848
12.3730747,51.3396955,247,ASC,, Advanced Spectroscopy in Chemistry Master's Course,http://www.master-asc.org/,University Leipzig,Germany,Leipzig,51.3396955,12.3730747,1.0573,42.4949,26.9384,62.1699
11.8767611,45.4064349,248,ASTROMUNDUS,, Astrophysics,http://www.astromundus.eu/,University of Padova,Italy,Padova,45.4064349,11.8767611,-0.5959,39.9028,22.4489,53.5413
12.4963655,41.9027835,249,ATOSIM,DISCONTINUED," Atomic Scale Modelling of Physical, Chemical and Bio-molecular Systems",http://www.erasmusmundus-atosim.cecam.org/,Sapienza University,Italy,Rome,41.9027835,12.4963655,2.8357,39.9028,14.4964,54.3702
6.8936619,52.2215372,250,CARTO,,CARTO E+ JMD Cartography,http://www.cartographymaster.eu/,University of Twente,Netherlands,Enschede,52.2215372,6.8936619,4.8937,46.1351,18.3738,54.2215
-3.188267,55.953252,251,ChIR,, Erasmus Mundus Master in Chemical Innovation and Regulation,http://www.emmcchir.org/,Heriot Watt University,UK,Edinburgh,55.953252,-3.188267,-9.9304,35.0194,13.3426,57.9533
22.9444191,40.6400629,252,CLE,, Master Erasmus Mundus en  en Cultures Litt̩raires Europ̩ennes,http://www.cle.unibo.it/site/,Aristotle University of Thessaloniki,Greece,Thessaloniki,40.6400629,22.9444191,-19.366,12.7645,24.9444,50.5734
12.1016236,49.0134297,253,CoDe,, Joint European Master in Comparative Local Development,http://www.erasmusmundus-code.eu/,University of Regensburg,Germany,Regensburg,49.0134297,12.1016236,9.1217,44.0569,21.0402,51.0134
-0.1277583,51.5073509,254,CoMEM,, Erasmus Mundus MSC Coastal and Marine Engineering and Management,http://www.ntnu.edu/studies/mscomem,"City, University of London",UK,London,51.5073509,-0.1277583,-3.4044,39.3851,12.3951,65.4305
10.6916303,60.7954302,255,COSI,,COSI Colour in Science and Industry,http://www.master-colorscience.eu/,Gjovik University College,Norway,Gjovik,60.7954302,10.6916303,-5.5986,35.1773,31.7636,64.601
9.1829321,48.7758459,256,Dyclam,, Dynamics of cultural landscapes and heritage management,http://www.dyclam.eu/fr/,University of Stuttgart,Germany,Stuttgart,48.7758459,9.1829321,-10.4043,37.6052,16.2681,50.8566
22.2666303,60.4518126,257,EACH,, Excellence in Analytical Chemistry,http://www.analyticalchemistry.eu/,Abo Akademi University,Finland,Turku,60.4518126,22.2666303,2.8357,43.764,24.2666,62.4518
-0.0513246,39.9863563,258,EMARO+,, European Master on Advanced Robotics +,http://emaro.irccyn.ec-nantes.fr/,Jaume I University,Spain,Castellón de la Plana,39.9863563,-0.0513246,-3.5536,37.9864,23.0122,54.2297
24.938379,60.1698557,259,EMECC NURSING,, Emergency and Critical Care Nursing,http://masternursing.uniovi.es/,Helsinki Metropolia University of Applied Sciences,Finland,Helsinki,60.1698557,24.938379,-10.686,35.0194,26.9384,62.1699
13.341727,50.9128283,260,EMERALD,, Master Course in Georesources Engineering,http://em-georesources.eu/,Freiberg University of Mining and Technology,Germany,Freiberg,50.9128283,13.341727,3.5591,46.6921,24.1567,67.5848
16.3738189,48.2081743,261,EMGS,, Global Studies - A European Perspective,http://www.globalstudies-masters.info/,University of Vienna,Austria,Vienna,48.2081743,16.3738189,-2.1278,46.2082,19.0385,57.6419
-8.4265071,41.5454714,263,EMLex ,,European Master in Lexicography,http://www.emlex.phil.uni-erlangen.de/,University of Minho,Portugal,Braga,41.5454714,-8.4265071,-10.5448,-35.9321,21.0402,54.1548
13.7372621,51.0504088,264,EMM-Nano,,Nano - Erasmus Mundus Master in Nanoscience and Nanotechnology,http://www.emm-nano.org/,Dresden University of Technology,Germany,Dresden,51.0504088,13.7372621,2.7005,43.1885,15.7373,59.7089
-6.2885962,36.5270612,265,EMQAL,, European Joint Master in Quality in Analytical Laboratories,http://www.emqal.org/,University of Cadiz,Spain,Cadiz,36.5270612,-6.2885962,-9.9304,34.5271,20.6466,62.3913
5.8372264,51.8125626,266,EMSD,, European Master programme in Systems Dynamics,http://www.europeansystemdynamics.eu/,Radboud University,Netherlands,Nijmegen,51.8125626,5.8372264,-11.1393,36.1157,15.3613,62.3913
-3.7037902,40.4167754,267,EMSE,, European Masters Programme in Software Engineering,http://em-se.eu/,Technical University of Madrid,Spain,Madrid,40.4167754,-3.7037902,-5.7038,38.4168,27.4651,67.0121
12.0991466,54.0924406,268,EMSHIP,, European Education in Advanced Ship Design,http://www.emship.eu/,University of Rostock,Germany,Rostock,54.0924406,12.0991466,-3.5536,42.4056,30.008,56.0924
28.0473051,-26.2041028,269,EPOG,," Master's Course - Economic Policies in the age of Globalisation : knowledge, finance and development",http://www.epog.eu/,Wits University,South Africa,Johannesburg,-26.2041028,28.0473051,-2.3007,-28.2041,30.0473,54.52
16.9251681,52.406374,270,EUCOMOR,, European Master in Comparative Morphology,http://www.eucomor.net/,Poznań University of Life Sciences,Poland,Poznań,52.406374,16.9251681,2.4025,38.8518,18.9252,54.4064
2.1734035,41.3850639,271,EUROPHOTONICS,," Master in Photonics Engineering, Nanophotonics and Biophotonics",http://www.europhotonics.org/wordpress/,Autonomous University of Barcelona,Spain,Barcelona,41.3850639,2.1734035,0.1734,39.3851,27.2797,56.6872
31.2088526,30.0130557,272,EU4M - EMMC,, EMMC Mechatronic Engineering,http://www.eu4m.eu/,Nile University,Egypt,Giza,30.0130557,31.2088526,-7.8494,28.0131,42.9766,59.0051
4.8951679,52.3702157,273,GLOBED,,GLOBED Erasmus Mundus Joint Master Degree on Education Policies for Global Development,http://globed.eu/,University of Amsterdam,The Netherlands,Amsterdam,52.3702157,4.8951679,0.1734,33.8956,16.4869,61.9139
1.297355,52.6308859,274,IMAE,, International Master in Applied Ecology,http://www.emmc-imae.org/,University of East Anglia,UK,Norwich,52.6308859,1.297355,-53.2177,-32.0346,12.1228,56.3233
11.5819806,48.1351253,275,IMIM,, International Master in Industrial Management,http://www.imim.polimi.it/,Technical University of Munich,Germany,Munich,48.1351253,11.5819806,-5.7038,38.4168,13.582,57.9533
-7.7422354,41.3010351,276,IMQP,, Erasmus Mundus Master in Quaternary and Prehistory,https://sites.google.com/a/unife.it/quaternary-prehistory/,University of Trás-os-Montes and Alto Douro,Portugal,Vila Rea,41.3010351,-7.7422354,-10.4043,37.6052,13.6198,50.8566
26.7290063,58.3776252,277,IMRCEES,," International Masters in Russian, Central and East European Studies",http://www.gla.ac.uk/postgraduate/erasmusmundus/imrcees/,University of Tartu,Estonia,Tartu,58.3776252,26.7290063,-6.2518,39.7151,78.8512,60.3776
13.404954,52.5200066,278,IMRD,, International Master of Science in Rural Development,http://www.imrd.ugent.be/,Humboldt University of Berlin,Germany,Berlin,52.5200066,13.404954,-3.6778,41.7228,20.0764,54.52
14.4868883,35.8956388,279,LCT,, European Masters Program in Language and Communication Technologies,http://www.lct-master.org/,University of Malta,Malta,Msida,35.8956388,14.4868883,-3.9812,33.8956,16.4869,55.2194
4.835659,45.764043,280,LIVE,, Leading International Vaccinology Education,http://live.univ-lyon1.fr/,Claude Bernard University Lyon 1,France,Lyon,45.764043,4.835659,0.1734,39.3851,6.8357,53.2194
7.6868565,45.070312,281,MAMASELF,, Master in material science exploring European large scale facilities,http://www.mamaself.eu/,University of Torino,Italy,Torino,45.070312,7.6868565,-3.6778,41.6108,13.582,50.1351
9.9936818,53.5510846,282,MATHMODS,," Mathematical Modelling in Engineering: Theory, Numerics, Applications",http://www.mathmods.eu/,University of Hamburg,Germany,Hamburg,53.5510846,9.9936818,0.1734,39.3851,20.6466,56.352
-1.553621,47.218371,283,MCM,, Master of Science in Computational Mechanics,http://www.cimne.com/cm-master/,Nantes Technical University,France,Nantes,47.218371,-1.553621,-5.9436,39.3851,11.1829,53.6214
18.0685808,59.3293235,284,ME3,, European Joint Masters in Management and Engineering of Environment and Energy,http://www.emn.fr/z-de/me3-site/,The Royal Institute of Technology,Sweden,Stockholm,59.3293235,18.0685808,-7.9301,38.4168,21.0402,61.3293
114.109497,22.396428,285,Media AC,,Media Arts Cultures,http://www.mediaartscultures.eu/,City University of Hong Kong,China,Hong Kong,22.396428,114.109497,7.9217,20.3964,116.1095,59.0488
32.8597419,39.9333635,286,MEEES,, Masters in Earthquake Engineering and Engineering Seismology,http://www.meees.org/,Middle East Technical University,Turkey,Ankara,39.9333635,32.8597419,3.7245,36.2466,34.8597,54.401
14.4378005,50.0755381,287,MEGEI,, MA Economics of Globalisation and European Integration,http://www.ua.ac.be/egei,University of Economics,Czech Republic,Prague,50.0755381,14.4378005,-49.8822,-17.7942,18.8719,55.0027
3.876716,43.610769,288,MEME,, Erasmus Mundus Master Programme in Evolutionary Biology,http://www.evobio.eu/,University of Montpellier 2,France,Montpellier,43.610769,3.876716,-73.1097,40.3736,19.6389,61.8586
-2.990057,43.3267036,289,MEREMMC,, European MSc in Marine Environment and Resources,http://www.merconsortium.eu/,University of the Basque Country,Spain,Leioa,43.3267036,-2.990057,-4.9901,41.3267,7.5591,52.9097
32.5825197,0.3475964,290,MFAMILY,, European Master in Social Work with Families and Children,http://www.mfamily.eu/,Makerere University,Uganda,Kampala,0.3475964,32.5825197,-11.1393,-1.6524,34.5825,60.97
17.0385376,51.1078852,291,MONABIP,, Molecular Nano- and Biophotonics,http://www.monabiphot.ens-cachan.fr/,University of Wroclaw,Poland,Wroclaw,51.1078852,17.0385376,-5.7038,38.4168,19.0385,53.1079
-3.943646,51.62144,292,MUNDUS JOURNALISM,," Erasmus Mundus Masters Journalism, Media and Globalisation",http://www.mundusjournalism.com/,Swansea University,UK,Swansea,51.62144,-3.943646,-5.9436,49.5074,11.9937,55.5511
12.4963655,41.9027835,293,MUNDUS URBANO,, Master of Science in International Cooperation and Urban Development,http://www.mundus-urbano.eu/,University of Rome Tor Vergata,Italy,Rome,41.9027835,12.4963655,0.1734,39.3851,14.4964,51.8728
28.1896628,61.0549929,294,PERCCOM,, PERvasive Computing & COMmunications for Sustainable Development,http://perccom.univ-lorraine.fr/,Lappeenranta University of Technology,Finland,Lappeenranta,61.0549929,28.1896628,-1.6649,46.6921,30.1897,67.5848
2.3522219,48.856614,295,PlantHealth,, European Master degree in Plant Health in Sustainable Cropping Systems,http://planthealth.upv.es/,Agro ParisTech,France,Paris,48.856614,2.3522219,-3.6778,37.4699,13.8768,53.5413
12.3155151,45.4408474,296,QEM,, Models and Methods of Quantitative Economics,http://erasmusmundus-qem.univ-paris1.fr/,Ca' Foscari University of Venice,Italy,Venice,45.4408474,12.3155151,0.1734,39.3851,14.3155,54.0302
14.4378005,50.0755381,297,SPACEMASTER,, EMMC in Space Science and Technology,http://www.spacemaster.eu/,Czech Technical University,Czech Republic,Prague,50.0755381,14.4378005,-2.6087,33.6895,141.6917,67.5848
-8.4403573,40.2048286,298,STEPS,, Erasmus Mundus Master Course in Sustainable Transportation and Electrical Power Systems,http://emmcsteps.uniovi.es/,Institute Polytechnic of Coimbra,Portugal,Coimbra,40.2048286,-8.4403573,-10.4404,38.2048,14.4964,54.9548
4.7005176,50.8798438,300,TCCM,, Euromaster on Theoretical Chemistry and Computational Modelling,http://www.emtccm.org/,Catholic University of Leuven,Belgium,Leuven,50.8798438,4.7005176,-10.6291,37.4699,14.3908,55.2194
22.1567026,65.584819,301,TRIBOS,, Joint European master in tribology of surfaces and interfaces,http://www.master-tribos.eu/,Lulea University of Technology,Sweden,Lulea,65.584819,22.1567026,-10.4404,38.2048,24.1567,67.5848
11.2558136,43.7695604,302,TROPIMUNDO,, Erasmus Mundus Masters Course in Tropical Biodiversity and Ecosystems,http://www.tropimundo.eu/,University of Florence,Italy,Florence,43.7695604,11.2558136,0.3522,-29.4954,155.012,52.8503
13.2345794,46.0710668,303,VINIFERA,, European Master of Science of Viticulture and Enology,http://vinifera-euromaster.eu/,Udine University,Italy,Udine,46.0710668,13.2345794,-11.1393,36.7223,15.2346,51.9844
-3.7037902,40.4167754,304,4CITIES,, UNICA Euromaster in Urban Studies,http://www.4cities.eu/,Autonomous University of Madrid,Spain,Madrid,40.4167754,-3.7037902,-5.7038,3.6761,18.3738,52.8503
21.0122287,52.2296756,305,ADVANCES,, MA Advanced Development in Social Work,http://www.socialworkadvances.org/,Warsaw University,Poland,Warsaw,52.2296756,21.0122287,-11.1393,36.7223,23.0122,59.0488
3.057256,50.62925,306,ASC,, Advanced Spectroscopy in Chemistry Master's Course,http://www.master-asc.org/,Lille1 University,France,Lille,50.62925,3.057256,1.0573,42.4949,26.9384,62.1699
-17.3660286,14.7645042,308,CLE,, Master Erasmus Mundus en  en Cultures Litt̩raires Europ̩ennes,http://www.cle.unibo.it/site/,Cheikh Anta Diop University,Senegal,Dakar,14.7645042,-17.3660286,-19.366,12.7645,24.9444,50.5734
-1.4043509,50.9097004,309,CoMEM,, Erasmus Mundus MSC Coastal and Marine Engineering and Management,http://www.ntnu.edu/studies/mscomem,University of Southampton,UK,Southampton,50.9097004,-1.4043509,-3.4044,39.3851,12.3951,65.4305
2.3522219,48.856614,310,Dyclam,, Dynamics of cultural landscapes and heritage management,http://www.dyclam.eu/fr/,National Museum of Natural History,France,Paris,48.856614,2.3522219,-10.4043,37.6052,16.2681,50.8566
17.0385376,51.1078852,311,EMGS,, Global Studies - A European Perspective,http://www.globalstudies-masters.info/,University of Wroclaw,Poland,Wroclaw,51.1078852,17.0385376,-2.1278,46.2082,19.0385,57.6419
34.989571,32.7940463,312,EMLE,, European Master in Law and Economics,http://www.emle.org/,University of Haifa,Israel,Haifa,32.7940463,34.989571,1.7174,17.076,74.8777,55.5511
12.4963655,41.9027835,313,EMLex ,,European Master in Lexicography,http://www.emlex.phil.uni-erlangen.de/,Roma Tre University,Italy,Rome,41.9027835,12.4963655,-10.5448,-35.9321,21.0402,54.1548
18.6466384,54.3520252,314,EMQAL,, European Joint Master in Quality in Analytical Laboratories,http://www.emqal.org/,Gdansk University of Technology,Poland,Gdansk,54.3520252,18.6466384,-9.9304,34.5271,20.6466,62.3913
8.946256,44.4056499,315,EMSHIP,, European Education in Advanced Ship Design,http://www.emship.eu/,University of Genova,Italy,Genova,44.4056499,8.946256,-3.5536,42.4056,30.008,56.0924
7.6868565,45.070312,316,EPOG,," Master's Course - Economic Policies in the age of Globalisation : knowledge, finance and development",http://www.epog.eu/,University of Turin,Italy,Turin,45.070312,7.6868565,-2.3007,-28.2041,30.0473,54.52
14.2681244,40.8517746,317,EUCOMOR,, European Master in Comparative Morphology,http://www.eucomor.net/,University of Naples Federico II,Italy,Napoli,40.8517746,14.2681244,2.4025,38.8518,18.9252,54.4064
2.1734035,41.3850639,318,EUROPHOTONICS,," Master in Photonics Engineering, Nanophotonics and Biophotonics",http://www.europhotonics.org/wordpress/,University of Barcelona,Spain,Barcelona,41.3850639,2.1734035,0.1734,39.3851,27.2797,56.6872
40.9766453,57.0050671,319,EU4M - EMMC,, EMMC Mechatronic Engineering,http://www.eu4m.eu/,Ivanovo State Power Engineering University,Russia,Ivanovo,57.0050671,40.9766453,-7.8494,28.0131,42.9766,59.0051
-51.2176584,-30.0346471,320,IMAE,, International Master in Applied Ecology,http://www.emmc-imae.org/,Federal University of Rio Grande do Sul,Brazil,Porto Alegre,-30.0346471,-51.2176584,-53.2177,-32.0346,12.1228,56.3233
2.3522219,48.856614,321,IMQP,, Erasmus Mundus Master in Quaternary and Prehistory,https://sites.google.com/a/unife.it/quaternary-prehistory/,National Museum of Natural History,France,Paris,48.856614,2.3522219,-10.4043,37.6052,13.6198,50.8566
76.8512485,43.2220146,322,IMRCEES,," International Masters in Russian, Central and East European Studies",http://www.gla.ac.uk/postgraduate/erasmusmundus/imrcees/,KIMEP University,Kazakhstan,Almaty,43.2220146,76.8512485,-6.2518,39.7151,78.8512,60.3776
3.7174243,51.0543422,323,IMRD,, International Master of Science in Rural Development,http://www.imrd.ugent.be/,Ghent University,Belgium,Ghent,51.0543422,3.7174243,-3.6778,41.7228,20.0764,54.52
11.1217486,46.0747793,324,LCT,, European Masters Program in Language and Communication Technologies,http://www.lct-master.org/,University of Trento,Italy,Trento,46.0747793,11.1217486,-3.9812,33.8956,16.4869,55.2194
3.876716,43.610769,325,MAMASELF,, Master in material science exploring European large scale facilities,http://www.mamaself.eu/,University of Montpellier,France,Montpellier,43.610769,3.876716,-3.6778,41.6108,13.582,50.1351
7.2619532,43.7101728,326,MATHMODS,," Mathematical Modelling in Engineering: Theory, Numerics, Applications",http://www.mathmods.eu/,University of Nice - Sophia Antipolis,France,Nice,43.7101728,7.2619532,0.1734,39.3851,20.6466,56.352
-1.553621,47.218371,327,ME3,, European Joint Masters in Management and Engineering of Environment and Energy,http://www.emn.fr/z-de/me3-site/,Nantes Mining University,France,Nantes,47.218371,-1.553621,-7.9301,38.4168,21.0402,61.3293
13.0644729,52.3905689,328,MEEES,, Masters in Earthquake Engineering and Engineering Seismology,http://www.meees.org/,University of Potsdam,Germany,Potsdam,52.3905689,13.0644729,3.7245,36.2466,34.8597,54.401
3.057256,50.62925,329,MEGEI,, MA Economics of Globalisation and European Integration,http://www.ua.ac.be/egei,Lille University,France,Lille,50.62925,3.057256,-49.8822,-17.7942,18.8719,55.0027
-71.1097335,42.3736158,330,MEME,, Erasmus Mundus Master Programme in Evolutionary Biology,http://www.evobio.eu/,Harvard University,USA,Cambridge,42.3736158,-71.1097335,-73.1097,40.3736,19.6389,61.8586
2.3522219,48.856614,331,MONABIP,, Molecular Nano- and Biophotonics,http://www.monabiphot.ens-cachan.fr/,Paris Descartes University - Paris 5,France,Paris,48.856614,2.3522219,-5.7038,38.4168,19.0385,53.1079
3.876716,43.610769,332,PlantHealth,, European Master degree in Plant Health in Sustainable Cropping Systems,http://planthealth.upv.es/,Montpellier SupAgro,France,Montpellier,43.610769,3.876716,-3.6778,37.4699,13.8768,53.5413
24.938379,60.1698557,333,SPACEMASTER,, EMMC in Space Science and Technology,http://www.spacemaster.eu/,Aalto University,Finland,Helsinki,60.1698557,24.938379,-2.6087,33.6895,141.6917,67.5848
12.3908279,43.1107168,335,TCCM,, Euromaster on Theoretical Chemistry and Computational Modelling,http://www.emtccm.org/,University of Perugia,Italy,Perugia,43.1107168,12.3908279,-10.6291,37.4699,14.3908,55.2194
10.0471549,5.4459387,336,TROPIMUNDO,, Erasmus Mundus Masters Course in Tropical Biodiversity and Ecosystems,http://www.tropimundo.eu/,Universit̩ de Dschang,Cameroon,Dschang,5.4459387,10.0471549,0.3522,-29.4954,155.012,52.8503
7.6868565,45.070312,337,VINIFERA,, European Master of Science of Viticulture and Enology,http://vinifera-euromaster.eu/,University of Turin,Italy,Turin,45.070312,7.6868565,-11.1393,36.7223,15.2346,51.9844
-3.7037902,40.4167754,338,4CITIES,, UNICA Euromaster in Urban Studies,http://www.4cities.eu/,Complutense University of Madrid,Spain,Madrid,40.4167754,-3.7037902,-5.7038,3.6761,18.3738,52.8503
9.9936818,53.5510846,339,EMLE,, European Master in Law and Economics,http://www.emle.org/,University of Hamburg,Germany,Hamburg,53.5510846,9.9936818,1.7174,17.076,74.8777,55.5511
-8.5448445,42.8782132,340,EMLex ,,European Master in Lexicography,http://www.emlex.phil.uni-erlangen.de/,University of Santiago de Compostela,Spain,Santiago de Compostela,42.8782132,-8.5448445,-10.5448,-35.9321,21.0402,54.1548
14.5528116,53.4285438,341,EMSHIP,, European Education in Advanced Ship Design,http://www.emship.eu/,West Pomeranian University of Technology,Poland,Szczecin,53.4285438,14.5528116,-3.5536,42.4056,30.008,56.0924
2.1734035,41.3850639,342,EUROPHOTONICS,," Master in Photonics Engineering, Nanophotonics and Biophotonics",http://www.europhotonics.org/wordpress/,Institute of Photonic Sciences,Spain,Barcelona,41.3850639,2.1734035,0.1734,39.3851,27.2797,56.6872
6.9969327,49.2401572,344,LCT,, European Masters Program in Language and Communication Technologies,http://www.lct-master.org/,Saarland University,Germany,Saarbrücken,49.2401572,6.9969327,-3.9812,33.8956,16.4869,55.2194
-3.8099803,43.4623057,345,MEGEI,, MA Economics of Globalisation and European Integration,http://www.ua.ac.be/egei,University of Cantabria,Spain,Santander,43.4623057,-3.8099803,-49.8822,-17.7942,18.8719,55.0027
11.8767611,45.4064349,346,PlantHealth,, European Master degree in Plant Health in Sustainable Cropping Systems,http://planthealth.upv.es/,University of Padova,Italy,Padova,45.4064349,11.8767611,-3.6778,37.4699,13.8768,53.5413
1.444209,43.604652,347,SPACEMASTER,, EMMC in Space Science and Technology,http://www.spacemaster.eu/,Paul Sabatier University,France,Toulouse,43.604652,1.444209,-2.6087,33.6895,141.6917,67.5848
1.444209,43.604652,349,TCCM,, Euromaster on Theoretical Chemistry and Computational Modelling,http://www.emtccm.org/,Paul Sabatier University,France,Toulouse,43.604652,1.444209,-10.6291,37.4699,14.3908,55.2194
103.1370142,5.329624,350,TROPIMUNDO,, Erasmus Mundus Masters Course in Tropical Biodiversity and Ecosystems,http://www.tropimundo.eu/,Universiti Malaysia Terengganu,Malaysia,Kuala Terengganu,5.329624,103.1370142,0.3522,-29.4954,155.012,52.8503
-9.1393366,38.7222524,351,VINIFERA,, European Master of Science of Viticulture and Enology,http://vinifera-euromaster.eu/,University of Lisbon,Portugal,Lisbon,38.7222524,-9.1393366,-11.1393,36.7223,15.2346,51.9844
72.8776559,19.0759837,352,EMLE,, European Master in Law and Economics,http://www.emle.org/,Indira Gandhi Institute of Development Research,India,Mumbai,19.0759837,72.8776559,1.7174,17.076,74.8777,55.5511
18.860152,-33.9321045,353,EMLex ,,European Master in Lexicography,http://www.emlex.phil.uni-erlangen.de/,Stellenbosch University,South Africa,Stellenbosch,-33.9321045,18.860152,-10.5448,-35.9321,21.0402,54.1548
5.36978,43.296482,354,EUROPHOTONICS,," Master in Photonics Engineering, Nanophotonics and Biophotonics",http://www.europhotonics.org/wordpress/,École centrale de Marseille,France,Marseille,43.296482,5.36978,0.1734,39.3851,27.2797,56.6872
43.9360589,56.2965039,355,IMRCEES,," International Masters in Russian, Central and East European Studies",http://www.gla.ac.uk/postgraduate/erasmusmundus/imrcees/,Lobachevsky State University of Nizhni Novgorod,Russia,Nizhni Novgorod,56.2965039,43.9360589,-6.2518,39.7151,78.8512,60.3776
14.4378005,50.0755381,356,LCT,, European Masters Program in Language and Communication Technologies,http://www.lct-master.org/,Charles University in Prague,Czech Republic,Prague,50.0755381,14.4378005,-3.9812,33.8956,16.4869,55.2194
4.3517103,50.8503396,357,MEGEI,, MA Economics of Globalisation and European Integration,http://www.ua.ac.be/egei,Free University of Brussels,Belgium,Brussels,50.8503396,4.3517103,-49.8822,-17.7942,18.8719,55.0027
-8.6291053,41.1579438,359,TCCM,, Euromaster on Theoretical Chemistry and Computational Modelling,http://www.emtccm.org/,University of Porto,Portugal,Porto,41.1579438,-8.6291053,-10.6291,37.4699,14.3908,55.2194
153.0251235,-27.4697707,360,TROPIMUNDO,, Erasmus Mundus Masters Course in Tropical Biodiversity and Ecosystems,http://www.tropimundo.eu/,University of Queensland,Australia,Brisbane,-27.4697707,153.0251235,0.3522,-29.4954,155.012,52.8503
-3.7037902,40.4167754,361,VINIFERA,, European Master of Science of Viticulture and Enology,http://vinifera-euromaster.eu/,Technical University of Madrid,Spain,Madrid,40.4167754,-3.7037902,-11.1393,36.7223,15.2346,51.9844
16.3738189,48.2081743,362,EMLE,, European Master in Law and Economics,http://www.emle.org/,University of Vienna,Austria,Vienna,48.2081743,16.3738189,1.7174,17.076,74.8777,55.5511
9.9579652,52.154778,363,EMLex ,,European Master in Lexicography,http://www.emlex.phil.uni-erlangen.de/,University of Hildesheim,Germany,Hildesheim,52.154778,9.9579652,-10.5448,-35.9321,21.0402,54.1548
25.2796514,54.6871555,364,EUROPHOTONICS,," Master in Photonics Engineering, Nanophotonics and Biophotonics",http://www.europhotonics.org/wordpress/,Vilnius University,Lithuania,Vilnius,54.6871555,25.2796514,0.1734,39.3851,27.2797,56.6872
30.5234,50.4501,365,IMRCEES,," International Masters in Russian, Central and East European Studies",http://www.gla.ac.uk/postgraduate/erasmusmundus/imrcees/,National University of Kyiv-Mohyla Academy,Ukraine,Kiev,50.4501,30.5234,-6.2518,39.7151,78.8512,60.3776
-47.8821658,-15.7942287,366,MEGEI,, MA Economics of Globalisation and European Integration,http://www.ua.ac.be/egei,University of Brasilia,Brazil,Brasilia,-15.7942287,-47.8821658,-49.8822,-17.7942,18.8719,55.0027
-9.1393366,38.7222524,367,VINIFERA,, European Master of Science of Viticulture and Enology,http://vinifera-euromaster.eu/,School of Agronomy ̐ University of Lisbon,Portugal,Lisbon,38.7222524,-9.1393366,-11.1393,36.7223,15.2346,51.9844
21.0122287,52.2296756,368,EMLE,, European Master in Law and Economics,http://www.emle.org/,Warsaw School of Economics,Poland,Warsaw,52.2296756,21.0122287,1.7174,17.076,74.8777,55.5511
8.4660395,49.4874592,369,EMLex ,,European Master in Lexicography,http://www.emlex.phil.uni-erlangen.de/,Institute of German Language,Germany,Mannheim,49.4874592,8.4660395,-10.5448,-35.9321,21.0402,54.1548
-3.7037902,40.4167754,370,VINIFERA,, European Master of Science of Viticulture and Enology,http://vinifera-euromaster.eu/,Polytechnic University of Madrid,Spain,Madrid,40.4167754,-3.7037902,-11.1393,36.7223,15.2346,51.9844
7.6868565,45.070312,371,VINIFERA,, European Master of Science of Viticulture and Enology,http://vinifera-euromaster.eu/,University of Turin,Italy,Turin,45.070312,7.6868565,-11.1393,36.7223,15.2346,51.9844
4.3517103,50.8503396,372,BDMA,NEW, Big Data Management and Analytics,http://bdma.univ-tours.fr/bdma/,Free University of Brussels,Belgium,Brussels,50.8503396,4.3517103,1.1734035,40.3850639,5.3517103,51.8503396
2.1734035,41.3850639,373,BDMA,NEW, Big Data Management and Analytics,http://bdma.univ-tours.fr/bdma/,Polytechnic University of Catalonia,Spain,Barcelona,41.3850639,2.1734035,1.1734035,40.3850639,5.3517103,51.8503396
5.490714,51.4486098,374,BDMA,NEW, Big Data Management and Analytics,http://bdma.univ-tours.fr/bdma/,University of Technology Einhoven,the Netherlands,Einhoven,51.4486098,5.490714,1.1734035,40.3850639,5.3517103,51.8503396
0.6738728,47.3838055,377,BDMA,NEW, Big Data Management and Analytics,http://bdma.univ-tours.fr/bdma/,Université François Rabelais,France,Tours cedex 1,47.3838055,0.6738728,1.1734035,40.3850639,5.3517103,51.8503396
5.1376647,52.0638598,378,EM3E4SW,NEW,Erasmus Mundus Master in Membrane Engineering for a Sustainable World,http://em3e-4sw.eu/em3e/index.php,University of Twente,Netherlands,Twente,52.0638598,5.1376647,-10.1393366,37.7222524,15.4378005,53.0638598
-9.1393366,38.7222524,379,EM3E4SW,NEW,Erasmus Mundus Master in Membrane Engineering for a Sustainable World,http://em3e-4sw.eu/em3e/index.php,Universidade Nova de Lisboa,Portugal,Lisbon,38.7222524,-9.1393366,-10.1393366,37.7222524,15.4378005,53.0638598
-0.8897421,41.6488696,380,EM3E4SW,NEW,Erasmus Mundus Master in Membrane Engineering for a Sustainable World,http://em3e-4sw.eu/em3e/index.php,Universidad de Zaragoza,Spain,Zaragoza,41.6488696,-0.8897421,-10.1393366,37.7222524,15.4378005,53.0638598
14.4378005,50.0755381,381,EM3E4SW,NEW,Erasmus Mundus Master in Membrane Engineering for a Sustainable World,http://em3e-4sw.eu/em3e/index.php,University of Chemistry and Technology Prague,Czech Republic,Prague,50.0755381,14.4378005,-10.1393366,37.7222524,15.4378005,53.0638598
1.444209,43.604652,380,EM3E4SW,NEW,Erasmus Mundus Master in Membrane Engineering for a Sustainable World,http://em3e-4sw.eu/em3e/index.php,Université Toulouse 3 Paul Sabatier,France,Toulouse,43.604652,1.444209,-10.1393366,37.7222524,15.4378005,53.0638598
3.876716,43.610769,381,EM3E4SW,NEW,Erasmus Mundus Master in Membrane Engineering for a Sustainable World,http://em3e-4sw.eu/em3e/index.php,Université de Montpellier,France,Montpellier,43.610769,3.876716,-10.1393366,37.7222524,15.4378005,53.0638598
6.5665018,53.2193835,382,EMCL+,NEW,European Master in Clinical Linguistics+,http://emcl.eu/,University of Groningen,Netherlands,Groningen,53.2193835,6.5665018,5.5665018,51.3905689,30.7635719,63.6010155
13.0644729,52.3905689,383,EMCL+,NEW,European Master in Clinical Linguistics+,http://emcl.eu/,University of Potsdam,Germany,Potsdam,52.3905689,13.0644729,5.5665018,51.3905689,30.7635719,63.6010155
29.7635719,62.6010155,384,EMCL+,NEW,European Master in Clinical Linguistics+,http://emcl.eu/,University of Eastern Finland,Finland,Joensuu,62.6010155,29.7635719,5.5665018,51.3905689,30.7635719,63.6010155
-3.5985571,37.1773363,385,EPH+,NEW,EuroPubHealth Plus (European Master in Public Health),http://www.europubhealth.org/,University of Granada,Spain,Granada,37.1773363,-3.5985571,-4.5985571,36.1773363,20.9449799,54.381129
-1.470085,53.381129,386,EPH+,NEW,EuroPubHealth Plus (European Master in Public Health),http://www.europubhealth.org/,University of Sheffield,UK,Sheffield,53.381129,-1.470085,-4.5985571,36.1773363,20.9449799,54.381129
2.3522219,48.856614,387,EPH+,NEW,EuroPubHealth Plus (European Master in Public Health),http://www.europubhealth.org/,École des Hautes Études en Santé Publique (EHESP),France,Paris,48.856614,2.3522219,-4.5985571,36.1773363,20.9449799,54.381129
19.9449799,50.0646501,388,EPH+,NEW,EuroPubHealth Plus (European Master in Public Health),http://www.europubhealth.org/,Jagiellonian University Medical College,Poland,Krakow,50.0646501,19.9449799,-4.5985571,36.1773363,20.9449799,54.381129
-1.6777926,48.117266,389,EPH+,NEW,EuroPubHealth Plus (European Master in Public Health),http://www.europubhealth.org/,University of Rennes 1,France,Rennes,48.117266,-1.6777926,-4.5985571,36.1773363,20.9449799,54.381129
5.6909725,50.8513682,390,EPH+,NEW,EuroPubHealth Plus (European Master in Public Health),http://www.europubhealth.org/,Maastricht University,Netherlands,Maastricht,50.8513682,5.6909725,-4.5985571,36.1773363,20.9449799,54.381129
28.0473051,-26.2041028,391,ESTeDe,NEW,Extended Sustainable Territorial Development,http://www.em-stede.eu/,University of Johannesburg,South Africa,Johannesburg,-26.2041028,28.0473051,-55.6202365,-27.2041028,32.2357116,51.8798438
-1.5196603,12.3714277,392,ESTeDe,NEW,Extended Sustainable Territorial Development,http://www.em-stede.eu/,Université de Ouagadougou,Burkina Faso,Ouagadougou,12.3714277,-1.5196603,-55.6202365,-27.2041028,32.2357116,51.8798438
31.2357116,30.0444196,393,ESTeDe,NEW,Extended Sustainable Territorial Development,http://www.em-stede.eu/,Cairo University,Egypt,Cairo,30.0444196,31.2357116,-55.6202365,-27.2041028,32.2357116,51.8798438
-54.6202365,-20.4697645,394,ESTeDe,NEW,Extended Sustainable Territorial Development,http://www.em-stede.eu/,Universidade Catolica Dom Bosco,Brazil,Campo Grande,-20.4697645,-54.6202365,-55.6202365,-27.2041028,32.2357116,51.8798438
2.3522219,48.856614,395,ESTeDe,NEW,Extended Sustainable Territorial Development,http://www.em-stede.eu/,Université Paris 1 Panthéon Sorbonne,France,Paris,48.856614,2.3522219,-55.6202365,-27.2041028,32.2357116,51.8798438
4.7005176,50.8798438,396,ESTeDe,NEW,Extended Sustainable Territorial Development,http://www.em-stede.eu/,Catholic University of Leuven,Belgium,Leuven,50.8798438,4.7005176,-55.6202365,-27.2041028,32.2357116,51.8798438
11.8767611,45.4064349,397,ESTeDe,NEW,Extended Sustainable Territorial Development,http://www.em-stede.eu/,University of Padua,Italy,Padova,45.4064349,11.8767611,-55.6202365,-27.2041028,32.2357116,51.8798438
7.2619532,43.7101728,398,EuroAquae+,NEW,Euro HydroInformatics and Water Management,http://master.euroaquae.eu/,University of Nice-Sophia Antipolis,France,Nice,43.7101728,7.2619532,-100.133208,-32.6106578,127.7052062,55.978252
2.1734035,41.3850639,399,EuroAquae+,NEW,Euro HydroInformatics and Water Management,http://master.euroaquae.eu/,Technical University of Catalonia,Spain,Barcelona,41.3850639,2.1734035,-100.133208,-32.6106578,127.7052062,55.978252
14.3328679,51.7563108,400,EuroAquae+,NEW,Euro HydroInformatics and Water Management,http://master.euroaquae.eu/,Brandenburg University of Technology at Cottbus,Germany,Cottbus,51.7563108,14.3328679,-100.133208,-32.6106578,127.7052062,55.978252
-1.61778,54.978252,401,EuroAquae+,NEW,Euro HydroInformatics and Water Management,http://master.euroaquae.eu/,Newcastle University,UK,Newcastle,54.978252,-1.61778,-100.133208,-32.6106578,127.7052062,55.978252
21.0122287,52.2296756,402,EuroAquae+,NEW,Euro HydroInformatics and Water Management,http://master.euroaquae.eu/,Warsaw University of Technology,Poland,Warsaw,52.2296756,21.0122287,-100.133208,-32.6106578,127.7052062,55.978252
6.56675,46.5190557,380,EuroAquae+,NEW,Euro HydroInformatics and Water Management,http://master.euroaquae.eu/,Escole Polytechnique Fédérale de Lausanne,France,Lausanne,46.5190557,6.56675,-100.133208,-32.6106578,127.7052062,55.978252
80.233903,12.9908081,381,EuroAquae+,NEW,Euro HydroInformatics and Water Management,http://master.euroaquae.eu/,Indian Institute of Technology Madras,India,Chennai,12.9908081,80.233903,-100.133208,-32.6106578,127.7052062,55.978252
103.77639,1.2966426,382,EuroAquae+,NEW,Euro HydroInformatics and Water Management,http://master.euroaquae.eu/,National University of Singapore,Singapure,Singapure,1.2966426,103.77639,-100.133208,-32.6106578,127.7052062,55.978252
126.63281,37.3750804,383,EuroAquae+,NEW,Euro HydroInformatics and Water Management,http://master.euroaquae.eu/,Incheon National University,Korea,Incheon,37.3750804,126.63281,-100.133208,-32.6106578,127.7052062,55.978252
-43.17536,-22.9541412,384,EuroAquae+,NEW,Euro HydroInformatics and Water Management,http://master.euroaquae.eu/,Universidade Federal de Rio de Janeiro,Brazil,Rio de Janeiro,-22.9541412,-43.17536,-100.133208,-32.6106578,127.7052062,55.978252
-99.1851584,19.3216475,385,EuroAquae+,NEW,Euro HydroInformatics and Water Management,http://master.euroaquae.eu/,Universidad Nacional Autonoma de Mexico,Mexico,Mexico City,19.3216475,-99.1851584,-100.133208,-32.6106578,127.7052062,55.978252
118.7568,32.054174,386,EuroAquae+,NEW,Euro HydroInformatics and Water Management,http://master.euroaquae.eu/,Hohai University,China,Hohai,32.054174,118.7568,-100.133208,-32.6106578,127.7052062,55.978252
113.794504,34.7813236,387,EuroAquae+,NEW,Euro HydroInformatics and Water Management,http://master.euroaquae.eu/,North China University of Water Resources and Electric Power,China,Henan,34.7813236,113.794504,-100.133208,-32.6106578,127.7052062,55.978252
-9.1393366,38.7222524,403,G-MINDES,NEW,"European Master in the Psychology of Global Mobility, Inclusion and Diversity in Society",http://global-minds.eu/,Lisbon University Institute (ISCTE-IUL),Portugal,Lisbon,38.7222524,-9.1393366,-10.1393366,37.7222524,29.9783589,60.9138688
10.7522454,59.9138688,404,G-MINDES,NEW,"European Master in the Psychology of Global Mobility, Inclusion and Diversity in Society",http://global-minds.eu/,University of Oslo,Norway,Oslo,59.9138688,10.7522454,-10.1393366,37.7222524,29.9783589,60.9138688
21.0122287,52.2296756,405,G-MINDES,NEW,"European Master in the Psychology of Global Mobility, Inclusion and Diversity in Society",http://global-minds.eu/,University of Social Sciences and Humanities,Poland,Warsaw,52.2296756,21.0122287,-10.1393366,37.7222524,29.9783589,60.9138688
28.9783589,41.0082376,406,G-MINDES,NEW,"European Master in the Psychology of Global Mobility, Inclusion and Diversity in Society",http://global-minds.eu/,Koç University,Turkey,Istanbul,41.0082376,28.9783589,-10.1393366,37.7222524,29.9783589,60.9138688
-8.6304975,52.6680204,407,G-MINDES,NEW,"European Master in the Psychology of Global Mobility, Inclusion and Diversity in Society",http://global-minds.eu/,University of Limerick,Ireland,Limerick,52.6680204,-8.6304975,-10.1393366,37.7222524,29.9783589,60.9138688
-4.251806,55.864237,408,GLOCAL,NEW,"Global Markets, Local Creativities",http://www.gla.ac.uk/postgraduate/erasmusmundus/glocal/,University of Glasgow,UK,Glasgow,55.864237,-4.251806,-5.251806,40.3850639,10.9158035,56.864237
2.1734035,41.3850639,409,GLOCAL,NEW,"Global Markets, Local Creativities",http://www.gla.ac.uk/postgraduate/erasmusmundus/glocal/,Universitat de Barcelona,Spain,Barcelona,41.3850639,2.1734035,-5.251806,40.3850639,10.9158035,56.864237
4.4777325,51.9244201,410,GLOCAL,NEW,"Global Markets, Local Creativities",http://www.gla.ac.uk/postgraduate/erasmusmundus/glocal/,Erasmus University Rotterdam,Netherlands,Rotterdam,51.9244201,4.4777325,-5.251806,40.3850639,10.9158035,56.864237
9.9158035,51.5412804,411,GLOCAL,NEW,"Global Markets, Local Creativities",http://www.gla.ac.uk/postgraduate/erasmusmundus/glocal/,University of Göttingen,Germany,Göttingen,51.5412804,9.9158035,-5.251806,40.3850639,10.9158035,56.864237
17.2508787,49.593778,412,GLODEP,NEW,EMJMD International Development Studies,http://glodep.eu/,Palacký University Olomouc,Czech Republic,Olomouc,49.593778,17.2508787,2.087025,44.1847248,18.2508787,50.593778
3.087025,45.777222,413,GLODEP,NEW,EMJMD International Development Studies,http://glodep.eu/,Université Clermont Auvergne,France,Clermont-Ferrand,45.777222,3.087025,2.087025,44.1847248,18.2508787,50.593778
9.1582069,45.1847248,414,GLODEP,NEW,EMJMD International Development Studies,http://glodep.eu/,University of Pavia,Italy,Pavia,45.1847248,9.1582069,2.087025,44.1847248,18.2508787,50.593778
1.0105289,47.5532402,415,IDOH,NEW,International Master of Science in Infectious Diseases and One Health,http://infectious-diseases-one-health.eu/#services-tou,Université de Tours,France,Loire Valley,47.5532402,1.0105289,-4.188267,40.3850639,3.1734035,56.953252
2.1734035,41.3850639,416,IDOH,NEW,International Master of Science in Infectious Diseases and One Health,http://infectious-diseases-one-health.eu/#services-tou,Autonomous University of Barcelona,Spain,Barcelona,41.3850639,2.1734035,-4.188267,40.3850639,3.1734035,56.953252
-3.188267,55.953252,417,IDOH,NEW,International Master of Science in Infectious Diseases and One Health,http://infectious-diseases-one-health.eu/#services-tou,University of Edinburgh,Scotland,Edinburgh,55.953252,-3.188267,-4.188267,40.3850639,3.1734035,56.953252
3.7174243,51.0543422,418,IMBRSea,NEW,International Master in Marine Biological Resources,http://www.imbrsea.eu/,Ghent University,Belgium,Ghent,51.0543422,3.7174243,-10.0567905,36.0179538,14.518915,61.3912628
2.3522219,48.856614,419,IMBRSea,NEW,International Master in Marine Biological Resources,http://www.imbrsea.eu/,University of Pierre and Marie Curie,France,Paris,48.856614,2.3522219,-10.0567905,36.0179538,14.518915,61.3912628
-7.930834,37.0179538,420,IMBRSea,NEW,International Master in Marine Biological Resources,http://www.imbrsea.eu/,University of the Algarve,Portugal,Algarve,37.0179538,-7.930834,-10.0567905,36.0179538,14.518915,61.3912628
-5.8493887,43.3619145,421,IMBRSea,NEW,International Master in Marine Biological Resources,http://www.imbrsea.eu/,University of Oviedo,Spain,Oviedo,43.3619145,-5.8493887,-10.0567905,36.0179538,14.518915,61.3912628
-9.0567905,53.270668,422,IMBRSea,NEW,International Master in Marine Biological Resources,http://www.imbrsea.eu/,Galway-Mayo Institute of Technology,Ireland,Galway,53.270668,-9.0567905,-10.0567905,36.0179538,14.518915,61.3912628
-2.9349852,43.2630126,423,IMBRSea,NEW,International Master in Marine Biological Resources,http://www.imbrsea.eu/,University of the Basque Country,Spain,Bilbao,43.2630126,-2.9349852,-10.0567905,36.0179538,14.518915,61.3912628
13.518915,43.6158299,424,IMBRSea,NEW,International Master in Marine Biological Resources,http://www.imbrsea.eu/,Marche Polytechnic University,Italy,Ancona,43.6158299,13.518915,-10.0567905,36.0179538,14.518915,61.3912628
5.3220544,60.3912628,425,IMBRSea,NEW,International Master in Marine Biological Resources,http://www.imbrsea.eu/,University of Bergen,Norway,Bergen,60.3912628,5.3220544,-10.0567905,36.0179538,14.518915,61.3912628
14.4378005,50.0755381,426,IMSISS,NEW,"International Master in Security, Intelligence and Strategic Studies",http://www.gla.ac.uk/postgraduate/erasmusmundus/imsiss/,Charles University,Czech Republic,Prague,50.0755381,14.4378005,-7.2603097,48.0134297,15.4378005,56.864237
-6.2603097,53.3498053,427,IMSISS,NEW,"International Master in Security, Intelligence and Strategic Studies",http://www.gla.ac.uk/postgraduate/erasmusmundus/imsiss/,Dublin City University,Ireland,Dublin,53.3498053,-6.2603097,-7.2603097,48.0134297,15.4378005,56.864237
-4.251806,55.864237,428,IMSISS,NEW,"International Master in Security, Intelligence and Strategic Studies",http://www.gla.ac.uk/postgraduate/erasmusmundus/imsiss/,University of Glasgow,UK,Glasgow,55.864237,-4.251806,-7.2603097,48.0134297,15.4378005,56.864237
12.1016236,49.0134297,429,IMSISS,NEW,"International Master in Security, Intelligence and Strategic Studies",http://www.gla.ac.uk/postgraduate/erasmusmundus/imsiss/,Regensburg University of Applied Sciences,Germany,Regensburg,49.0134297,12.1016236,-7.2603097,48.0134297,15.4378005,56.864237
-3.943646,51.62144,430,MAISI,NEW,Erasmus Mundus Joint Master Degree in Sports Ethics and Integrity,http://www.maisi-project.eu/,Swansea University,UK,Swansea,51.62144,-3.943646,-4.943646,36.5079472,23.37349,52.62144
14.4378005,50.0755381,431,MAISI,NEW,Erasmus Mundus Joint Master Degree in Sports Ethics and Integrity,http://www.maisi-project.eu/,Charles University,Czech Republic,Prague,50.0755381,14.4378005,-4.943646,36.5079472,23.37349,52.62144
4.7005176,50.8798438,432,MAISI,NEW,Erasmus Mundus Joint Master Degree in Sports Ethics and Integrity,http://www.maisi-project.eu/,Catholic University of Leuven,Belgium,Leuven,50.8798438,4.7005176,-4.943646,36.5079472,23.37349,52.62144
2.1734035,41.3850639,433,MAISI,NEW,Erasmus Mundus Joint Master Degree in Sports Ethics and Integrity,http://www.maisi-project.eu/,Univesitat Pompeu Fabra Barcelona,Spain,Barcelona,41.3850639,2.1734035,-4.943646,36.5079472,23.37349,52.62144
8.2472526,49.9928617,434,MAISI,NEW,Erasmus Mundus Joint Master Degree in Sports Ethics and Integrity,http://www.maisi-project.eu/,Johannes Gutenberg Universität Mainz,Germany,Mainz,49.9928617,8.2472526,-4.943646,36.5079472,23.37349,52.62144
22.37349,37.5079472,435,MAISI,NEW,Erasmus Mundus Joint Master Degree in Sports Ethics and Integrity,http://www.maisi-project.eu/,University of Peloponnese,Greece,Peloponnese,37.5079472,22.37349,-4.943646,36.5079472,23.37349,52.62144
-1.6777926,48.117266,436,MAMASELF,NEW,Master in material science exploring European large scale facilities,https://www.mamaself.eu/,University of Rennes 1,France,Rennes,48.117266,-1.6777926,-2.6777926,42.610769,12.5819806,49.1351253
3.876716,43.610769,437,MAMASELF,NEW,Master in material science exploring European large scale facilities,https://www.mamaself.eu/,University of Montpellier,France,Montpellier,43.610769,3.876716,-2.6777926,42.610769,12.5819806,49.1351253
11.5819806,48.1351253,438,MAMASELF,NEW,Master in material science exploring European large scale facilities,https://www.mamaself.eu/,Technical University of Munich,Germany,Munich,48.1351253,11.5819806,-2.6777926,42.610769,12.5819806,49.1351253
11.5819806,48.1351253,439,MAMASELF,NEW,Master in material science exploring European large scale facilities,https://www.mamaself.eu/,Ludwig Maximilian University of Munich,Germany,Munich,48.1351253,11.5819806,-2.6777926,42.610769,12.5819806,49.1351253
7.6868565,45.070312,440,MAMASELF,NEW,Master in material science exploring European large scale facilities,https://www.mamaself.eu/,University of Torino,Italy,Torino,45.070312,7.6868565,-2.6777926,42.610769,12.5819806,49.1351253
29.7635719,62.6010155,441,MScEF,NEW,MSc European Forestry,http://www.uef.fi/en/web/mdp-europeanforestry,University of Eastern Finland,Finland,Joensuu,62.6010155,29.7635719,-0.3799854,40.6175899,30.7635719,63.6010155
2.3522219,48.856614,442,MScEF,NEW,MSc European Forestry,http://www.uef.fi/en/web/mdp-europeanforestry,Agro ParisTech,France,Paris,48.856614,2.3522219,-0.3799854,40.6175899,30.7635719,63.6010155
7.8421043,47.9990077,443,MScEF,NEW,MSc European Forestry,http://www.uef.fi/en/web/mdp-europeanforestry,University of Freiburg,Germany,Freiburg,47.9990077,7.8421043,-0.3799854,40.6175899,30.7635719,63.6010155
0.6200146,41.6175899,444,MScEF,NEW,MSc European Forestry,http://www.uef.fi/en/web/mdp-europeanforestry,University of Lleida,Spain,Lleida,41.6175899,0.6200146,-0.3799854,40.6175899,30.7635719,63.6010155
16.3738189,48.2081743,445,MScEF,NEW,MSc European Forestry,http://www.uef.fi/en/web/mdp-europeanforestry,University of Natural Resources and Life Sciences,Austria,Vienna,48.2081743,16.3738189,-0.3799854,40.6175899,30.7635719,63.6010155
25.6011977,45.6579755,446,MScEF,NEW,MSc European Forestry,http://www.uef.fi/en/web/mdp-europeanforestry,Transilvania University of Brașov,Romania,Brasov,45.6579755,25.6011977,-0.3799854,40.6175899,30.7635719,63.6010155
2.3522219,48.856614,447,NANOMED,NEW,Nanomedicine for Drug Delivery,http://master-nanomed.eu/,Paris Descartes University,France,Paris,48.856614,2.3522219,-1.563166,37.2466395,22.734574,49.856614
21.734574,38.2466395,448,NANOMED,NEW,Nanomedicine for Drug Delivery,http://master-nanomed.eu/,University of Patras,Greece,Patras,38.2466395,21.734574,-1.563166,37.2466395,22.734574,49.856614
-0.563166,47.478419,449,NANOMED,NEW,Nanomedicine for Drug Delivery,http://master-nanomed.eu/,University of Angers,France,Angers,47.478419,-0.563166,-1.563166,37.2466395,22.734574,49.856614
9.1582069,45.1847248,450,NANOMED,NEW,Nanomedicine for Drug Delivery,http://master-nanomed.eu/,University of Pavia,Italy,Pavia,45.1847248,9.1582069,-1.563166,37.2466395,22.734574,49.856614
4.8951679,52.3702157,451,NEURASMUS,NEW,A EUROPEAN MASTER IN NEUROSCIENCE : ADVANCED COURSE AND RESEARCH TRAINING,www.neurasmus.u-bordeaux2.fr,Vrije Universiteit Amsterdam,Netherlands,Amsterdam,52.3702157,4.8951679,-72.2079809,43.837789,14.404954,53.5200066
13.404954,52.5200066,452,NEURASMUS,NEW,A EUROPEAN MASTER IN NEUROSCIENCE : ADVANCED COURSE AND RESEARCH TRAINING,www.neurasmus.u-bordeaux2.fr,Charité-Universitätsmedizin Berlin,Germany,Berlin,52.5200066,13.404954,-72.2079809,43.837789,14.404954,53.5200066
-0.57918,44.837789,453,NEURASMUS,NEW,A EUROPEAN MASTER IN NEUROSCIENCE : ADVANCED COURSE AND RESEARCH TRAINING,www.neurasmus.u-bordeaux2.fr,Bordeaux University,France,Bordeaux,44.837789,-0.57918,-72.2079809,43.837789,14.404954,53.5200066
9.9158035,51.5412804,454,NEURASMUS,NEW,A EUROPEAN MASTER IN NEUROSCIENCE : ADVANCED COURSE AND RESEARCH TRAINING,www.neurasmus.u-bordeaux2.fr,"Göttingen Graduate School for Neurosciences, Biophysics, and Molecular Biosciences",Germany,Göttingen,51.5412804,9.9158035,-72.2079809,43.837789,14.404954,53.5200066
-71.2079809,46.8138783,455,NEURASMUS,NEW,A EUROPEAN MASTER IN NEUROSCIENCE : ADVANCED COURSE AND RESEARCH TRAINING,www.neurasmus.u-bordeaux2.fr,Maîtrise de Neurobiologie,Canada,Québec,46.8138783,-71.2079809,-72.2079809,43.837789,14.404954,53.5200066
-0.370679,49.182863,456,NUPHYS,NEW,ERASMUS MUNDUS MASTER JOINT DEGREE NUCLEAR PHYSICS,alojamientosv.us.es/nuphysjmd/,University of Caen Normandie,France,Caen,49.182863,-0.370679,-6.9844589,36.3890924,16.0830304,50.182863
11.8767611,45.4064349,457,NUPHYS,NEW,ERASMUS MUNDUS MASTER JOINT DEGREE NUCLEAR PHYSICS,alojamientosv.us.es/nuphysjmd/,University of Padova,Italy,Padova,45.4064349,11.8767611,-6.9844589,36.3890924,16.0830304,50.182863
15.0830304,37.5078772,458,NUPHYS,NEW,ERASMUS MUNDUS MASTER JOINT DEGREE NUCLEAR PHYSICS,alojamientosv.us.es/nuphysjmd/,University of Catania,Italy,Catania,37.5078772,15.0830304,-6.9844589,36.3890924,16.0830304,50.182863
-5.9844589,37.3890924,459,NUPHYS,NEW,ERASMUS MUNDUS MASTER JOINT DEGREE NUCLEAR PHYSICS,alojamientosv.us.es/nuphysjmd/,University of Seville,Spain,Seville,37.3890924,-5.9844589,-6.9844589,36.3890924,16.0830304,50.182863
-3.7037902,40.4167754,460,NUPHYS,NEW,ERASMUS MUNDUS MASTER JOINT DEGREE NUCLEAR PHYSICS,alojamientosv.us.es/nuphysjmd/,Autonomous University of Madrid,Spain,Madrid,40.4167754,-3.7037902,-6.9844589,36.3890924,16.0830304,50.182863
2.1734035,41.3850639,461,NUPHYS,NEW,ERASMUS MUNDUS MASTER JOINT DEGREE NUCLEAR PHYSICS,alojamientosv.us.es/nuphysjmd/,University of Barcelona,Spain,Barcelona,41.3850639,2.1734035,-6.9844589,36.3890924,16.0830304,50.182863
-3.7037902,40.4167754,462,NUPHYS,NEW,ERASMUS MUNDUS MASTER JOINT DEGREE NUCLEAR PHYSICS,alojamientosv.us.es/nuphysjmd/,Complutense University of Madrid,Spain,Madrid,40.4167754,-3.7037902,-6.9844589,36.3890924,16.0830304,50.182863
-5.6635397,40.9701039,463,NUPHYS,NEW,ERASMUS MUNDUS MASTER JOINT DEGREE NUCLEAR PHYSICS,alojamientosv.us.es/nuphysjmd/,University of Salamanca,Spain,Salamanca,40.9701039,-5.6635397,-6.9844589,36.3890924,16.0830304,50.182863
4.7005176,50.8798438,464,PIONEER,NEW,Erasmus Mundus Master of Science in Public Sector Innovation and eGovernance,http://pioneer-master.eu/,Catholic University of Leuven,Belgium,Leuven,50.8798438,4.7005176,3.7005176,49.8798438,25.7535746,60.4369608
24.7535746,59.4369608,465,PIONEER,NEW,Erasmus Mundus Master of Science in Public Sector Innovation and eGovernance,http://pioneer-master.eu/,Tallin University of Technology,Estonia,Tallin,59.4369608,24.7535746,3.7005176,49.8798438,25.7535746,60.4369608
7.6261347,51.9606649,466,PIONEER,NEW,Erasmus Mundus Master of Science in Public Sector Innovation and eGovernance,http://pioneer-master.eu/,University of Münster,Germany,Münster,51.9606649,7.6261347,3.7005176,49.8798438,25.7535746,60.4369608
2.3522219,48.856614,467,SERP+,NEW,"Joint European Master in Surface, Electro, Radiation and Photochemistry",http://www.master-serp.eu/,Université Paris-Sud,France,Paris,48.856614,2.3522219,-9.6291053,40.1579438,17.9251681,53.406374
8.946256,44.4056499,468,SERP+,NEW,"Joint European Master in Surface, Electro, Radiation and Photochemistry",http://www.master-serp.eu/,University of Genoa,Italy,Genova,44.4056499,8.946256,-9.6291053,40.1579438,17.9251681,53.406374
-8.6291053,41.1579438,469,SERP+,NEW,"Joint European Master in Surface, Electro, Radiation and Photochemistry",http://www.master-serp.eu/,University of Porto,Portugal,Porto,41.1579438,-8.6291053,-9.6291053,40.1579438,17.9251681,53.406374
16.9251681,52.406374,470,SERP+,NEW,"Joint European Master in Surface, Electro, Radiation and Photochemistry",http://www.master-serp.eu/,Adam Mickiewicz University in Poznań,Poland,Poznań,52.406374,16.9251681,-9.6291053,40.1579438,17.9251681,53.406374
-6.2603097,53.3498053,471,VufindR,NEW,"""Viewfinder"" Cinematography Erasmus Mundus Joint Master Degree",http://www.viewfinder-ma.eu/,"Dún Laoghaire Institute of Art, Design and Technology",Ireland,Dublin,53.3498053,-6.2603097,-7.2603097,46.497912,25.7535746,60.4369608
19.040235,47.497912,472,VufindR,NEW,"""Viewfinder"" Cinematography Erasmus Mundus Joint Master Degree",http://www.viewfinder-ma.eu/,Academy of Drama and Film in Budapest,Hungary,Budapest,47.497912,19.040235,-7.2603097,46.497912,25.7535746,60.4369608
24.7535746,59.4369608,473,VufindR,NEW,"""Viewfinder"" Cinematography Erasmus Mundus Joint Master Degree",http://www.viewfinder-ma.eu/,Baltic Film and Media School of Tallinn University,Estonia,Tallin,59.4369608,24.7535746,-7.2603097,46.497912,25.7535746,60.4369608
-0.3762881,39.4699075,474,WOP-P,NEW,"Master in Work, Organizational and Personnel Psychology",https://www.erasmuswop.org,University of Valencia,Spain,Valencia,39.4699075,-0.3762881,-88.6297982,-16.7942287,12.3426163,45.494887
2.1734035,41.3850639,475,WOP-P,NEW,"Master in Work, Organizational and Personnel Psychology",https://www.erasmuswop.org,University of Barcelona,Spain,Barcelona,41.3850639,2.1734035,-88.6297982,-16.7942287,12.3426163,45.494887
11.3426163,44.494887,476,WOP-P,NEW,"Master in Work, Organizational and Personnel Psychology",https://www.erasmuswop.org,University of Bologna,Italy,Bologna,44.494887,11.3426163,-88.6297982,-16.7942287,12.3426163,45.494887
-8.4403573,40.2048286,477,WOP-P,NEW,"Master in Work, Organizational and Personnel Psychology",https://www.erasmuswop.org,University of Coimbra,Portugal,Coimbra,40.2048286,-8.4403573,-88.6297982,-16.7942287,12.3426163,45.494887
-80.6081089,28.0836269,478,WOP-P,NEW,"Master in Work, Organizational and Personnel Psychology",https://www.erasmuswop.org,Florida Institute of Technology,USA,Melbourne,28.0836269,-80.6081089,-88.6297982,-16.7942287,12.3426163,45.494887
-87.6297982,41.8781136,479,WOP-P,NEW,"Master in Work, Organizational and Personnel Psychology",https://www.erasmuswop.org,Illinois Institute of Technology,USA,Chicago,41.8781136,-87.6297982,-88.6297982,-16.7942287,12.3426163,45.494887
-47.8821658,-15.7942287,480,WOP-P,NEW,"Master in Work, Organizational and Personnel Psychology",https://www.erasmuswop.org,University of Brasilia,Brazil,Brasilia,-15.7942287,-47.8821658,-88.6297982,-16.7942287,12.3426163,45.494887
-76.6121893,39.2903848,481,WOP-P,NEW,"Master in Work, Organizational and Personnel Psychology",https://www.erasmuswop.org,University of Baltimore,USA,Baltimore,39.2903848,-76.6121893,-88.6297982,-16.7942287,12.3426163,45.494887
-80.2481666,43.5448048,482,WOP-P,NEW,"Master in Work, Organizational and Personnel Psychology",https://www.erasmuswop.org,University of Guelph,Canada,Guelph,43.5448048,-80.2481666,-88.6297982,-16.7942287,12.3426163,45.494887
-66.1057355,18.4655394,483,WOP-P,NEW,"Master in Work, Organizational and Personnel Psychology",https://www.erasmuswop.org,University of Puerto Rico,Puerto Rico,San Juan,18.4655394,-66.1057355,-88.6297982,-16.7942287,12.3426163,45.494887
-6.2676448,53.3386609,476,FIPDes,NEW,Erasmus Mundus Joint Master Degree in Food Innovation & Product Design,http://www.fipdes.eu/,Dublin Institute of Technology,Ireland,Dublin,53.3386609,-6.2676448,-6.267645,40.845492,14.2578,55.71195
13.2034,55.7119483,477,FIPDes,NEW,Erasmus Mundus Joint Master Degree in Food Innovation & Product Design,http://www.fipdes.eu/,Lund University,Sweden,Lund,55.7119483,13.2034,-6.267645,40.845492,14.2578,55.71195
14.257805,40.845492,478,FIPDes,NEW,Erasmus Mundus Joint Master Degree in Food Innovation & Product Design,http://www.fipdes.eu/,Universetà degli Studi di Napoli Federico II,Italy,Napoli,40.845492,14.257805,-6.267645,40.845492,14.2578,55.71195
2.347657,48.8397733,479,FIPDes,NEW,Erasmus Mundus Joint Master Degree in Food Innovation & Product Design,http://www.fipdes.eu/,Agro ParisTech,France,Paris,48.8397733,2.347657,-6.267645,40.845492,14.2578,55.71195
9.6773,45.6983,480,CWCN,DISCONTINUED,CWCN - Crossways in Cultural Narratives,http://www.munduscrossways.eu/,University of Bergamo,Italy,Bergamo,45.6983,9.6773,-11.1393,36.7223,18.9252,58.3398
3.8767,43.6108,481,EDAMUS,DISCONTINUEE,EDAMUS - Sustainable Management of Food Quality,http://www.master-edamus.eu/,University of Montpellier,France,Montpellier,43.6108,3.8767,-2.8897,33.5138,26.018,45.6108
-5.8494,43.3619,482,EMECC NURSING,DISCONTINUED,EMECC NURSING - Emergency and Critical Care Nursing,http://masternursing.uniovi.es/,University of Oviedo,Spain,Oviedo,43.3619,-5.8494,-10.686,35.0194,26.9384,62.1699
1.4442,43.6047,483,EM-SANF,DISCONTINUED,EM-SANF - Erasmus Mundus Master Course Sustainable Animal Nutrition and Feeding,http://www.emsanf.eu/UK/,Purpan Engineering School,France,Toulouse,43.6047,1.4442,-0.5558,41.6047,23.6273,58.1629
6.5665,53.2194,484,EUROCULTURE,DISCONTINUED,"EUROCULTURE - Society, Politics and Culture in a Global Context",https://www.euroculturemaster.eu/,University of Groningen,Netherlands,Groningen,53.2194,6.5665,-104.5528,16.5204,137.5022,61.8586
1.4442,43.6047,485,EUROPHILOSOPHIE,DISCONTINUED,EUROPHILOSOPHIE - Philosophies allemande et franaise dans l’espace européen,http://europhilomem.hypotheses.org/,University of Toulouse Jean-Jaures,France,Toulouse,43.6047,1.4442,-92.049,-24.0087,141.6917,53.2562
4.3571,52.0116,486,EWEM,DISCONTINUED,EWEM - European Wind Energy Master,http://www.windenergymaster.eu/,Delft University of Technology,Netherlands,Delft,52.0116,4.3571,2.3571,50.0116,14.4949,65.4305
-0.5792,44.8378,487,FAME,DISCONTINUED,FAME - Functionalised Advanced Materials and Engineering,http://www.fame-master.com/,University of Bordeaux 1,France,Bordeaux,44.8378,-0.5792,-10.6538,38.6405,12.8978,52.8798
-3.5986,37.1773,488,GEMMA,DISCONTINUED,GEMMA - Master's Degree in Women's and Gender Studies,http://masteres.ugr.es/gemma/,University of Granada,Spain,Granada,37.1773,-3.5986,-76.4518,35.1773,21.456,55.7457
15.6038,48.41,489,MARIHE,DISCONTINUED,MARIHE - Research and Innovation in Higher Education,http://www.marihe.eu/,Danube University Krems,Austria,Krems an der Donau,48.41,15.6038,6.0472,37.9042,118.4074,63.4978
-9.1393,38.7223,490,MEDfOR,DISCONTINUED,MEDfOR - Mediterranean Forestry and Natural Resources Management,http://www.medfor.eu/,University of Lisbon,Portugal,Lisbon,38.7223,-9.1393,-11.1393,36.7223,41.7168,47.4064
3.0573,50.6292,491,MITRA,DISCONTINUED,"MITRA - Master en médiation interculturelle: identités, mobilités, conflits",http://mastermitra.univ-lille3.fr/,University of Lille,France,Lille,50.6292,3.0573,-45.1729,-24.9068,25.6236,53.8969
-3.1883,55.9533,492,MSPME,DISCONTINUED,MSPME - Masters in Strategic Project Management (European),http://www.mspme.org/,Heriot Watt Universit,UK,Edinburgh,55.9533,-3.1883,-5.1883,43.4654,22.263,65.8258
19.0402,47.4979,493,MUNDUS MAPP,DISCONTINUED,MUNDUS MAPP - Erasmus Mundus Master's in Public Policy,http://www.mundusmapp.org/,Central European University,Hungary,Budapest,47.4979,19.0402,-3.0873,39.3851,21.0402,55.96
5.8372,51.8126,494,PLANET Europe,DISCONTINUED,"PLANET Europe - Joint Masters Programme on European Spatial Planning, Environmental Policies and Regional Development",http://www.planet-europe.eu/,Radboud University Nijmegen,The Netherlands,Nijmegen,51.8126,5.8372,-5.1791,49.4816,17.5869,58.1612
12.5683,55.6761,495,SUFONAMA,DISCONTINUED,SUFONAMA - Sustainable Forest and Nature Management,http://sufonama.eu/,University of Copenhagen,Denmark,Copenhagen,55.6761,12.5683,-6.1239,43.4064,15.0824,57.6761
14.4378,50.0755,496,SUSCOS,DISCONTINUED,SUSCOS - Sustainable Constructions under Natural Hazards and Catastrophic Events,http://steel.fsv.cvut.cz/suscos/,Czech Technical University in Prague,Czech Republic,Prague,50.0755,14.4378,-10.4404,38.2048,24.1567,67.5848
2.3522,48.8566,497,TPTI,DISCONTINUED,"TPTI - Techniques, Patrimoine, Territoires de l'Industrie",http://www.tpti.eu/,University of Paris 1 Pantheon-Sorbonne,France,Paris,48.8566,2.3522,-9.9093,36.5707,13.8768,50.8566
11.3426,44.4949,498,WACOMA,DISCONTINUED,WACOMA - Erasmus Mundus Master in Water and Coastal Management,"http://erasmusmundus.uca.es/en/content,3,erasmus-mundus",University of Bologna,Italy,Bologna,44.4949,11.3426,-48.330376,-25.944841,123.544,61.9343
-9.1393,38.7223,499,CWCN,DISCONTINUED,CWCN - Crossways in Cultural Narratives,http://www.munduscrossways.eu/,New University of Lisbon,Portugal,Lisbon,38.7223,-9.1393,-11.1393,36.7223,18.9252,58.3398
15.8055,40.6464,500,EDAMUS,DISCONTINUED,EDAMUS - Sustainable Management of Food Quality,http://www.master-edamus.eu/,University of Basilicata,Italy,Potenza,40.6464,15.8055,-2.8897,33.5138,26.018,45.6108
-7.9304,37.0194,501,EMECC NURSING,DISCONTINUED,EMECC NURSING - Emergency and Critical Care Nursing,http://masternursing.uniovi.es/,University of Algarve,Portugal,Faro,37.0194,-7.9304,-10.686,35.0194,26.9384,62.1699
10.2039,56.1629,502,EM-SANF,DISCONTINUED,EM-SANF - Erasmus Mundus Master Course Sustainable Animal Nutrition and Feeding,http://www.emsanf.eu/UK/,Aarhus University,Denmark,Aarhus,56.1629,10.2039,-0.5558,41.6047,23.6273,58.1629
17.2509,49.5938,503,EUROCULTURE,DISCONTINUED,"EUROCULTURE - Society, Politics and Culture in a Global Context",https://www.euroculturemaster.eu/,Palacky University of Olomouc,Czech Republic,Olomouc,49.5938,17.2509,-104.5528,16.5204,137.5022,61.8586
7.0982,50.7374,504,EUROPHILOSOPHIE,DISCONTINUED,EUROPHILOSOPHIE - Philosophies allemande et franaise dans l’espace européen,http://europhilomem.hypotheses.org/,University of Bonn,Germany,Bonn,50.7374,7.0982,-92.049,-24.0087,141.6917,53.2562
12.4949,55.7635,505,EWEM,DISCONTINUED,EWEM - European Wind Energy Master,http://www.windenergymaster.eu/,Technical University of Denmark,Denmark,Kongens Lyngby,55.7635,12.4949,2.3571,50.0116,14.4949,65.4305
-8.6538,40.6405,506,FAME,DISCONTINUED,FAME - Functionalised Advanced Materials and Engineering,http://www.fame-master.com/,University of Aveiro,Portugal,Aveiro,40.6405,-8.6538,-10.6538,38.6405,12.8978,52.8798
-5.8494,43.3619,507,GEMMA,DISCONTINUED,GEMMA - Master's Degree in Women's and Gender Studies,http://masteres.ugr.es/gemma/,University of Oviedo,Spain,Oviedo,43.3619,-5.8494,-76.4518,35.1773,21.456,55.7457
23.761,61.4978,508,MARIHE,DISCONTINUED,MARIHE - Research and Innovation in Higher Education,http://www.marihe.eu/,University of Tampere,Finland,Tampere,61.4978,23.761,6.0472,37.9042,118.4074,63.4978
0.62,41.6176,509,MEDfOR,DISCONTINUED,MEDfOR - Mediterranean Forestry and Natural Resources Management,http://www.medfor.eu/,University of Lleida,Spain,Lleida,41.6176,0.62,-11.1393,36.7223,41.7168,47.4064
4.7005,50.8798,510,MITRA,DISCONTINUED,"MITRA - Master en médiation interculturelle: identités, mobilités, conflits",http://mastermitra.univ-lille3.fr/,Katholieke KU Leuven,Belgium,Leuven,50.8798,4.7005,-45.1729,-24.9068,25.6236,53.8969
9.1859,45.4654,511,MSPME,DISCONTINUED,MSPME - Masters in Strategic Project Management (European),http://www.mspme.org/,Polytechnic University of Milan,Italy,Milan,45.4654,9.1859,-5.1883,43.4654,22.263,65.8258
4.3007,52.0705,512,MUNDUS MAPP,DISCONTINUED,MUNDUS MAPP - Erasmus Mundus Master's in Public Policy,http://www.mundusmapp.org/,International Institute of Social Studies of Erasmus University Rotterdam,Netherlands,The Hague,52.0705,4.3007,-3.0873,39.3851,21.0402,55.96
15.5869,56.1612,513,PLANET Europe,DISCONTINUED,"PLANET Europe - Joint Masters Programme on European Spatial Planning, Environmental Policies and Regional Development",http://www.planet-europe.eu/,Blekinge Institute of Technology,Sweden,Karlskrona,56.1612,15.5869,-5.1791,49.4816,17.5869,58.1612
-4.1239,53.2274,514,SUFONAMA,DISCONTINUED,SUFONAMA - Sustainable Forest and Nature Management,http://sufonama.eu/,Bangor University,UK,Bangor,53.2274,-4.1239,-6.1239,43.4064,15.0824,57.6761
5.5591,50.5831,515,SUSCOS,DISCONTINUED,SUSCOS - Sustainable Constructions under Natural Hazards and Catastrophic Events,http://steel.fsv.cvut.cz/suscos/,University of Liège,Belgium,Liège,50.5831,5.5591,-10.4404,38.2048,24.1567,67.5848
-7.9093,38.5707,516,TPTI,DISCONTINUED,"TPTI - Techniques, Patrimoine, Territoires de l'Industrie",http://www.tpti.eu/,University of Evora,Portugal,Evora,38.5707,-7.9093,-9.9093,36.5707,13.8768,50.8566
-6.2886,36.5271,517,WACOMA,DISCONTINUED,WACOMA - Erasmus Mundus Master in Water and Coastal Management,"http://erasmusmundus.uca.es/en/content,3,erasmus-mundus",University of Cadiz,Spain,Cadiz,36.5271,-6.2886,-48.330376,-25.944841,123.544,61.9343
2.8948,42.6887,518,CWCN,DISCONTINUED,CWCN - Crossways in Cultural Narratives,http://www.munduscrossways.eu/,University of Perpignan Via Domita,France,Perpignan,42.6887,2.8948,-11.1393,36.7223,18.9252,58.3398
6.6424,36.3602,519,EDAMUS,DISCONTINUED,EDAMUS - Sustainable Management of Food Quality,http://www.master-edamus.eu/,University of Mentouri (Constantine 1),Algiers,Constantine,36.3602,6.6424,-2.8897,33.5138,26.018,45.6108
-8.686,39.2367,520,EMECC NURSING,DISCONTINUED,EMECC NURSING - Emergency and Critical Care Nursing,http://masternursing.uniovi.es/,Polytechnic Institute of Santarém,Portugal,Santarém,39.2367,-8.686,-10.686,35.0194,26.9384,62.1699
21.6273,47.5316,521,EM-SANF,DISCONTINUED,EM-SANF - Erasmus Mundus Master Course Sustainable Animal Nutrition and Feeding,http://www.emsanf.eu/UK/,University of Debrecen,Hungary,Debrecen,47.5316,21.6273,-0.5558,41.6047,23.6273,58.1629
7.7521,48.5734,522,EUROCULTURE,DISCONTINUED,"EUROCULTURE - Society, Politics and Culture in a Global Context",https://www.euroculturemaster.eu/,University of Strasbourg,France,Strasbourg,48.5734,7.7521,-104.5528,16.5204,137.5022,61.8586
-8.4404,40.2048,523,EUROPHILOSOPHIE,DISCONTINUED,EUROPHILOSOPHIE - Philosophies allemande et franaise dans l’espace européen,http://europhilomem.hypotheses.org/,University of Coimbra,Portugal,Coimbra,40.2048,-8.4404,-92.049,-24.0087,141.6917,53.2562
10.3951,63.4305,524,EWEM,DISCONTINUED,EWEM - European Wind Energy Master,http://www.windenergymaster.eu/,Norwegian University of Science and Technology,Norway,Trondheim,63.4305,10.3951,2.3571,50.0116,14.4949,65.4305
8.6512,49.8728,525,FAME,DISCONTINUED,FAME - Functionalised Advanced Materials and Engineering,http://www.fame-master.com/,Technical University of Darmstadt,Germany,Darmstadt,49.8728,8.6512,-10.6538,38.6405,12.8978,52.8798
19.0402,47.4979,526,GEMMA,DISCONTINUED,GEMMA - Master's Degree in Women's and Gender Studies,http://masteres.ugr.es/gemma/,Central European University,Hungary,Budapest,47.4979,19.0402,-76.4518,35.1773,21.456,55.7457
116.4074,39.9042,527,MARIHE,DISCONTINUED,MARIHE - Research and Innovation in Higher Education,http://www.marihe.eu/,Beijing Normal University,China,Beijing,39.9042,116.4074,6.0472,37.9042,118.4074,63.4978
11.8768,45.4064,528,MEDfOR,DISCONTINUED,MEDfOR - Mediterranean Forestry and Natural Resources Management,http://www.medfor.eu/,University of Padova,Italy,Padova,45.4064,11.8768,-11.1393,36.7223,41.7168,47.4064
-8.4863,51.8969,529,MITRA,DISCONTINUED,"MITRA - Master en médiation interculturelle: identités, mobilités, conflits",http://mastermitra.univ-lille3.fr/,University College Cork,Ireland,Cork,51.8969,-8.4863,-45.1729,-24.9068,25.6236,53.8969
20.263,63.8258,530,MSPME,DISCONTINUED,MSPME - Masters in Strategic Project Management (European),http://www.mspme.org/,Umea University,Sweden,Umea,63.8258,20.263,-5.1883,43.4654,22.263,65.8258
-1.0873,53.96,531,MUNDUS MAPP,DISCONTINUED,MUNDUS MAPP - Erasmus Mundus Master's in Public Policy,http://www.mundusmapp.org/,University of York,UK,York,53.96,-1.0873,-3.0873,39.3851,21.0402,55.96
-3.1791,51.4816,532,PLANET Europe,DISCONTINUED,"PLANET Europe - Joint Masters Programme on European Spatial Planning, Environmental Policies and Regional Development",http://www.planet-europe.eu/,Cardiff University,UK,Cardiff,51.4816,-3.1791,-5.1791,49.4816,17.5869,58.1612
9.9158,51.5413,533,SUFONAMA,DISCONTINUED,SUFONAMA - Sustainable Forest and Nature Management,http://sufonama.eu/,University of Göttingen,Germany,Göttingen,51.5413,9.9158,-6.1239,43.4064,15.0824,57.6761
14.2681,40.8518,534,SUSCOS,DISCONTINUED,SUSCOS - Sustainable Constructions under Natural Hazards and Catastrophic Events,http://steel.fsv.cvut.cz/suscos/,University of Naples Federico II,Italy,Napoli,40.8518,14.2681,-10.4404,38.2048,24.1567,67.5848
11.8768,45.4064,535,TPTI,DISCONTINUED,"TPTI - Techniques, Patrimoine, Territoires de l'Industrie",http://www.tpti.eu/,University of Padova,Italy,Padova,45.4064,11.8768,-9.9093,36.5707,13.8768,50.8566
121.544,29.8683,536,WACOMA,DISCONTINUED,WACOMA - Erasmus Mundus Master in Water and Coastal Management,"http://erasmusmundus.uca.es/en/content,3,erasmus-mundus",University of Ningbo,China,Ningbo,29.8683,121.544,-48.330376,-25.944841,123.544,61.9343
-2.7967,56.3398,537,CWCN,DISCONTINUED,CWCN - Crossways in Cultural Narratives,http://www.munduscrossways.eu/,University of St. Andrews,UK,St. Andrews,56.3398,-2.7967,-11.1393,36.7223,18.9252,58.3398
-0.8897,41.6489,538,EDAMUS,DISCONTINUED,EDAMUS - Sustainable Management of Food Quality,http://www.master-edamus.eu/,The Mediterranean Agronomic Institute of Zaragoza,Spain,Zaragoza,41.6489,-0.8897,-2.8897,33.5138,26.018,45.6108
24.9384,60.1699,539,EMECC NURSING,DISCONTINUED,EMECC NURSING - Emergency and Critical Care Nursing,http://masternursing.uniovi.es/,Helsinki Metropolia University of Applied Sciences,Finland,Helsinki,60.1699,24.9384,-10.686,35.0194,26.9384,62.1699
5.6654,51.9692,540,EM-SANF,DISCONTINUED,EM-SANF - Erasmus Mundus Master Course Sustainable Animal Nutrition and Feeding,http://www.emsanf.eu/UK/,Wageningen University,Netherlands,Wageningen,51.9692,5.6654,-0.5558,41.6047,23.6273,58.1629
9.9158,51.5413,541,EUROCULTURE,DISCONTINUED,"EUROCULTURE - Society, Politics and Culture in a Global Context",https://www.euroculturemaster.eu/,University of Göttingen,Germany,Göttingen,51.5413,9.9158,-104.5528,16.5204,137.5022,61.8586
139.6917,35.6895,542,EUROPHILOSOPHIE,DISCONTINUED,EUROPHILOSOPHIE - Philosophies allemande et franaise dans l’espace européen,http://europhilomem.hypotheses.org/,Hosei University,Japan,Tokyo,35.6895,139.6917,-92.049,-24.0087,141.6917,53.2562
8.2146,53.1435,543,EWEM,DISCONTINUED,EWEM - European Wind Energy Master,http://www.windenergymaster.eu/,Carl von Ossietzky University of Oldenburg,Germany,Oldenburg,53.1435,8.2146,2.3571,50.0116,14.4949,65.4305
5.7245,45.1885,544,FAME,DISCONTINUED,FAME - Functionalised Advanced Materials and Engineering,http://www.fame-master.com/,Grenoble Institute of Technology,France,Grenoble,45.1885,5.7245,-10.6538,38.6405,12.8978,52.8798
11.3426,44.4949,545,GEMMA,DISCONTINUED,GEMMA - Master's Degree in Women's and Gender Studies,http://masteres.ugr.es/gemma/,University of Bologna,Italy,Bologna,44.4949,11.3426,-76.4518,35.1773,21.456,55.7457
8.0472,52.2799,546,MARIHE,DISCONTINUED,MARIHE - Research and Innovation in Higher Education,http://www.marihe.eu/,University of Applied Sciences Osnabrück,Germany,Osnabrück,52.2799,8.0472,6.0472,37.9042,118.4074,63.4978
-4.7245,41.6523,547,MEDfOR,DISCONTINUED,MEDfOR - Mediterranean Forestry and Natural Resources Management,http://www.medfor.eu/,University of Valladolid,Spain,Valladolid,41.6523,-4.7245,-11.1393,36.7223,41.7168,47.4064
23.6236,46.7712,548,MITRA,DISCONTINUED,"MITRA - Master en médiation interculturelle: identités, mobilités, conflits",http://mastermitra.univ-lille3.fr/,Babes-Bolyai University,Romania,Cluj,46.7712,23.6236,-45.1729,-24.9068,25.6236,53.8969
2.1734,41.3851,549,MUNDUS MAPP,DISCONTINUED,MUNDUS MAPP - Erasmus Mundus Master's in Public Policy,http://www.mundusmapp.org/,Barcelona University,Spain,Barcelona,41.3851,2.1734,-3.0873,39.3851,21.0402,55.96
13.0824,55.6576,550,SUFONAMA,DISCONTINUED,SUFONAMA - Sustainable Forest and Nature Management,http://sufonama.eu/,"Swedish University of Agricultural Sciences, Alnarp",Sweden,Alnarp,55.6576,13.0824,-6.1239,43.4064,15.0824,57.6761
-8.4404,40.2048,551,SUSCOS,DISCONTINUED,SUSCOS - Sustainable Constructions under Natural Hazards and Catastrophic Events,http://steel.fsv.cvut.cz/suscos/,University of Coimbra,Portugal,Coimbra,40.2048,-8.4404,-10.4404,38.2048,24.1567,67.5848
-46.330376,-23.944841,552,WACOMA,DISCONTINUED,WACOMA - Erasmus Mundus Master in Water and Coastal Management,"http://erasmusmundus.uca.es/en/content,3,erasmus-mundus",University of Santa Cecilia,Brazil,Santos,-23.944841,-46.330376,-48.330376,-25.944841,123.544,61.9343
-8.5448,42.8782,553,CWCN,DISCONTINUED,CWCN - Crossways in Cultural Narratives,http://www.munduscrossways.eu/,University of Santiago de Compostela,Spain,Santiago de Compostela,42.8782,-8.5448,-11.1393,36.7223,18.9252,58.3398
24.018,35.5138,554,EDAMUS,DISCONTINUED,EDAMUS - Sustainable Management of Food Quality,http://www.master-edamus.eu/,The Mediterranean Agronomic Institute of Chania,Greece,Chania,35.5138,24.018,-2.8897,33.5138,26.018,45.6108
73.8567,18.5204,555,EUROCULTURE,DISCONTINUED,"EUROCULTURE - Society, Politics and Culture in a Global Context",https://www.euroculturemaster.eu/,Vidhyapeeth University in Pune,India,Pune,18.5204,73.8567,-104.5528,16.5204,137.5022,61.8586
4.7005,50.8798,556,EUROPHILOSOPHIE,DISCONTINUED,EUROPHILOSOPHIE - Philosophies allemande et franaise dans l’espace européen,http://europhilomem.hypotheses.org/,Catholic University of Leuven,Belgium,Leuven,50.8798,4.7005,-92.049,-24.0087,141.6917,53.2562
5.5591,50.5831,557,FAME,DISCONTINUED,FAME - Functionalised Advanced Materials and Engineering,http://www.fame-master.com/,University of Liège,Belgium,Liège,50.5831,5.5591,-10.6538,38.6405,12.8978,52.8798
5.1214,52.0907,558,GEMMA,DISCONTINUED,GEMMA - Master's Degree in Women's and Gender Studies,http://masteres.ugr.es/gemma/,University of Utrecht,Netherlands,Utrecht,52.0907,5.1214,-76.4518,35.1773,21.456,55.7457
12.1077,42.4207,559,MEDfOR,DISCONTINUED,MEDfOR - Mediterranean Forestry and Natural Resources Management,http://www.medfor.eu/,University of Tuscia,Italy,Viterbo,42.4207,12.1077,-11.1393,36.7223,41.7168,47.4064
-17.366,14.7645,560,MITRA,DISCONTINUED,"MITRA - Master en médiation interculturelle: identités, mobilités, conflits",http://mastermitra.univ-lille3.fr/,University Cheikh Anta Diop de Dakar,Senegal,Dakar,14.7645,-17.366,-45.1729,-24.9068,25.6236,53.8969
11.8768,45.4064,561,SUFONAMA,DISCONTINUED,SUFONAMA - Sustainable Forest and Nature Management,http://sufonama.eu/,University of Padova,Italy,Padova,45.4064,11.8768,-6.1239,43.4064,15.0824,57.6761
21.2087,45.7489,562,SUSCOS,DISCONTINUED,SUSCOS - Sustainable Constructions under Natural Hazards and Catastrophic Events,http://steel.fsv.cvut.cz/suscos/,Politehnica University of Timisoara,Romania,Timisoara,45.7489,21.2087,-10.4404,38.2048,24.1567,67.5848
30.333918642591,59.9337716247002,563,WACOMA,DISCONTINUED,WACOMA - Erasmus Mundus Master in Water and Coastal Management,"http://erasmusmundus.uca.es/en/content,3,erasmus-mundus",Russian State Hydrometeorological University,Russia,Saint Petersburg,59.9343,30.3350986,-48.330376,-25.944841,123.544,61.9343
-1.4701,53.3811,564,CWCN,DISCONTINUED,CWCN - Crossways in Cultural Narratives,http://www.munduscrossways.eu/,University of Sheffield,UK,Sheffield,53.3811,-1.4701,-11.1393,36.7223,18.9252,58.3398
13.2346,46.0711,565,EUROCULTURE,DISCONTINUED,"EUROCULTURE - Society, Politics and Culture in a Global Context",https://www.euroculturemaster.eu/,University of Udine,Italy,Udine,46.0711,13.2346,-104.5528,16.5204,137.5022,61.8586
-90.049,35.1495,566,EUROPHILOSOPHIE,DISCONTINUED,EUROPHILOSOPHIE - Philosophies allemande et franaise dans l’espace européen,http://europhilomem.hypotheses.org/,University of Memphis,USA,Memphis,35.1495,-90.049,-92.049,-24.0087,141.6917,53.2562
4.7005,50.8798,567,FAME,DISCONTINUED,FAME - Functionalised Advanced Materials and Engineering,http://www.fame-master.com/,Catholic University of Leuven,Belgium,Leuven,50.8798,4.7005,-10.6538,38.6405,12.8978,52.8798
19.456,51.7592,568,GEMMA,DISCONTINUED,GEMMA - Master's Degree in Women's and Gender Studies,http://masteres.ugr.es/gemma/,University of Lodz,Poland,Lodz,51.7592,19.456,-76.4518,35.1773,21.456,55.7457
-8.6291,41.1579,569,MEDfOR,DISCONTINUED,MEDfOR - Mediterranean Forestry and Natural Resources Management,http://www.medfor.eu/,Portuguese Catholic University in Porto,Portugal,Porto,41.1579,-8.6291,-11.1393,36.7223,41.7168,47.4064
-43.1729,-22.9068,570,MITRA,DISCONTINUED,"MITRA - Master en médiation interculturelle: identités, mobilités, conflits",http://mastermitra.univ-lille3.fr/,Federal University of Rio de Janeiro,Brazil,Rio de Janeiro,-22.9068,-43.1729,-45.1729,-24.9068,25.6236,53.8969
22.1567,65.5848,571,SUSCOS,DISCONTINUED,SUSCOS - Sustainable Constructions under Natural Hazards and Catastrophic Events,http://steel.fsv.cvut.cz/suscos/,Lulea University of Technology,Sweden,Lulea,65.5848,22.1567,-10.4404,38.2048,24.1567,67.5848
-7.9304,37.0194,572,WACOMA,DISCONTINUED,WACOMA - Erasmus Mundus Master in Water and Coastal Management,"http://erasmusmundus.uca.es/en/content,3,erasmus-mundus",University of Algarve,Portugal,Faro,37.0194,-7.9304,-48.330376,-25.944841,123.544,61.9343
16.9252,52.4064,573,CWCN,DISCONTINUED,CWCN - Crossways in Cultural Narratives,http://www.munduscrossways.eu/,Adam Mickiewicz University Poznań,Poland,Poznań,52.4064,16.9252,-11.1393,36.7223,18.9252,58.3398
135.5022,34.6937,574,EUROCULTURE,DISCONTINUED,"EUROCULTURE - Society, Politics and Culture in a Global Context",https://www.euroculturemaster.eu/,Osaka University,Japan,Osaka,34.6937,135.5022,-104.5528,16.5204,137.5022,61.8586
14.4378,50.0755,575,EUROPHILOSOPHIE,DISCONTINUED,EUROPHILOSOPHIE - Philosophies allemande et franaise dans l’espace européen,http://europhilomem.hypotheses.org/,Charles University in Prague,Czech Republic,Prague,50.0755,14.4378,-92.049,-24.0087,141.6917,53.2562
10.8978,48.3705,576,FAME,DISCONTINUED,FAME - Functionalised Advanced Materials and Engineering,http://www.fame-master.com/,University of Augsburg,Germany,Augsburg,48.3705,10.8978,-10.6538,38.6405,12.8978,52.8798
-0.3367,53.7457,577,GEMMA,DISCONTINUED,GEMMA - Master's Degree in Women's and Gender Studies,http://masteres.ugr.es/gemma/,University of Hull,UK,Hull,53.7457,-0.3367,-76.4518,35.1773,21.456,55.7457
39.7168,41.0027,578,MEDfOR,DISCONTINUED,MEDfOR - Mediterranean Forestry and Natural Resources Management,http://www.medfor.eu/,Karadeniz Technical University,Turkey,Trabzon,41.0027,39.7168,-11.1393,36.7223,41.7168,47.4064
-102.5528,23.6345,579,EUROCULTURE,DISCONTINUED,"EUROCULTURE - Society, Politics and Culture in a Global Context",https://www.euroculturemaster.eu/,National Autonomous University of Mexico,Mexico,Mexico City,23.6345,-102.5528,-104.5528,16.5204,137.5022,61.8586
-47.8909,-22.0087,580,EUROPHILOSOPHIE,DISCONTINUED,EUROPHILOSOPHIE - Philosophies allemande et franaise dans l’espace européen,http://europhilomem.hypotheses.org/,Federal University of Sao Carlos,Brazil,Sao Carlos,-22.0087,-47.8909,-92.049,-24.0087,141.6917,53.2562
-74.4518,40.4862,581,GEMMA,DISCONTINUED,GEMMA - Master's Degree in Women's and Gender Studies,http://masteres.ugr.es/gemma/,"Rutgers, The State University of New Jersey",USA,New Brunswick,40.4862,-74.4518,-76.4518,35.1773,21.456,55.7457
19.945,50.0647,582,EUROCULTURE,DISCONTINUED,"EUROCULTURE - Society, Politics and Culture in a Global Context",https://www.euroculturemaster.eu/,Jagiellonian University,Poland,Krakow,50.0647,19.945,-104.5528,16.5204,137.5022,61.8586
7.1508,51.2562,583,EUROPHILOSOPHIE,DISCONTINUED,EUROPHILOSOPHIE - Philosophies allemande et franaise dans l’espace européen,http://europhilomem.hypotheses.org/,University of Wuppertal,Germany,Wuppertal,51.2562,7.1508,-92.049,-24.0087,141.6917,53.2562
-2.935,43.263,584,EUROCULTURE,DISCONTINUED,"EUROCULTURE - Society, Politics and Culture in a Global Context",https://www.euroculturemaster.eu/,University of Deusto,Spain,Bilbao,43.263,-2.935,-104.5528,16.5204,137.5022,61.8586
17.6389,59.8586,585,EUROCULTURE,DISCONTINUED,"EUROCULTURE - Society, Politics and Culture in a Global Context",https://www.euroculturemaster.eu/,Uppsala University,Sweden,Uppsala,59.8586,17.6389,-104.5528,16.5204,137.5022,61.8586
-86.1581,39.7684,586,EUROCULTURE,DISCONTINUED,"EUROCULTURE - Society, Politics and Culture in a Global Context",https://www.euroculturemaster.eu/,Indiana University-Purdue University,USA,Indianapolis,39.7684,-86.1581,-104.5528,16.5204,137.5022,61.8586
